name,city,district,subdistrict,address,lat,lon,phone,Sunday,Monday,Tuesday,Wednesady,Thursday,Friday,Saturday,notes,owner
שיך ג'ראח,ירושלים,ירושלים,ירושלים,מרכז רפואי,31.774081,35.184997,02-5871923,8:00-17:00,8:00-17:00,8:00-17:00,8:00-17:00,8:00-13:00,סגור,סגור,,עיריית ירושלים
א- טור,ירושלים,ירושלים,ירושלים,סלימאן אל פרסי 13,31.768319,35.21371,02-6261314,8:00-13:00,8:00-17:00,8:00-13:00,8:00-17:00,8:00-13:00,סגור,סגור,שבת 8:00-15:00,עיריית ירושלים
רמות  02,ירושלים,ירושלים,ירושלים,ראובן מס 131/25,31.810772,35.197572,02-5484222,סגור,סגור,סגור,סגור,סגור,סגור,סגור,,עיריית ירושלים
הר  נוף,ירושלים,ירושלים,ירושלים,אגסי 10,31.7856626,35.1751586,02-5456253,8:00-13:00,8:00-17:00,8:00-13:00,8:00-17:00,8:00-13:00,סגור,סגור,,עיריית ירושלים
הר חומה,ירושלים,ירושלים,ירושלים,שאול אביגדור 7,31.7237274,35.2195731,02-6724714,8:00-17:00,8:00-13:00,8:00-13:00,8:00-17:00,8:00-13:00,סגור,סגור,,עיריית ירושלים
סילואן,ירושלים,ירושלים,ירושלים,שכונת אל עבסיה,31.768319,35.21371,02-5612761,8:00-13:00,8:00-17:00,8:00-17:00,8:00-17:00,8:00-13:00,סגור,סגור,,עיריית ירושלים
ירכא א + ב,ירכא,צפון,עכו,ירכא,32.953664,35.213864,04-9968532,8:00-16:00,8:00-18:00,8:00-16:00,8:00-18:00,8:00-16:00,8:00-16:00,סגור,,משרד הבריאות
יתיר,יתיר,דרום,באר שבע,בית יתיר,31.35096,35.016967,02-9960148,16:00-19:00,7:00-11  16:00-19:00,16:00-19:00,16:00-19:00,7:00-12:00,סגור,סגור,,מכבי שרותי בריאות
כאבול א,כאבול,צפון,עכו,כאבול,32.867096,35.211864,04-9946660,8:00-18:00,8:00-16:00,8:00-16:00,8:00-16:00,8:00-16:00,סגור,סגור,,משרד הבריאות
כאבול ב,כאבול,צפון,עכו,כאבול,32.867096,35.211864,04-9940126,8:00-16:00,8:00-16:00,סגור,8:00-16:00,8:00-16:00,סגור,סגור,,משרד הבריאות
כאוכב,כאוכב אבו אל-היג'א,צפון,עכו,כאוכב,32.833021,35.247606,04-9998872,8:00-18:00,8:00-16:00,8:00-16:00,8:00-16:00,8:00-16:00,סגור,סגור,,משרד הבריאות
כברי,כברי,צפון,עכו,ד.נ גליל מערבי,33.020985,35.147007,04-9952644,7:00-14:00,7:00-14:00  15:00-17:00,7:00-19:00,7:00-14:00,7:00-15:00,סגור,סגור,,קופת חולים כללית
כוכב יאיר,כוכב יאיר צור יגאל,מרכז,מרכז,"מרכז מסחרי בישוב, סניף לאומית.",32.220922,34.992405,,סגור,סגור,סגור,סגור,9:00-12:00,8:00-13:00,סגור,,קופת חולים לאומית
כוכב יאיר צור יגאל,כוכב יאיר צור יגאל,מרכז,השרון,מרכז ספיר,32.210471,34.985829,09-7904300,8:00-12:00  16:00-18:30,8:00-12:00  16:00-18:30,16:00-18:30,8:00-12:00  16:00-18:30,8:00-12:00  16:00-18:30,סגור,סגור,,מכבי שרותי בריאות
כוכב מיכאל,כוכב מיכאל,אשקלון,אשקלון,ד.נ לכיש דרום,31.631482,34.667794,08-6728746,סגור,סגור,סגור,סגור,סגור,סגור,סגור,,קופת חולים כללית
כיסופים,כיסופים,דרום,באר שבע,ד.נ הנגב,31.374545,34.398992,08-9928800,13:00-14:00,סגור,סגור,סגור,16:00-17:00,סגור,סגור,,קופת חולים כללית
כנף,כנף,צפון,כנרת,כנף,32.870378,35.698964,04-6733676,סגור,סגור,8:00-13:00,14:00-18:00,סגור,סגור,סגור,,משרד הבריאות
"כסייפה+ (מט""ח)",כסייפה,דרום,באר שבע,כסייפה,31.254818,35.069035,08-9955098,8:00-20:00,8:00-16:00,8:00-16:00,8:00-16:00,8:00-16:00,סגור,סגור,,משרד הבריאות
כסרא,כסרא,צפון,עכו,כסרא,32.968605,35.306174,04-9873070,8:00-16:00,8:00-16:00,8:00-16:00,8:00-16:00,8:00-16:00,סגור,סגור,,משרד הבריאות
כעבייה,כעביה-טבאש-חג'אג'רה,צפון,יזרעאל,כעבייה,32.75886,35.184205,04-9536668,סגור,8:00-14:00,8:00-20:00,8:00-14:00,8:00-14:00,8:00-13:00,סגור,,משרד הבריאות
חג'אג'רה,כעביה-טבאש-חג'אג'רה,צפון,יזרעאל,חג'אג'רה,32.745208,35.198906,04-9531360,סגור,8:00-20:00,סגור,8:00-20:00,סגור,8:00-13:00,סגור,,משרד הבריאות
כפר בלום,כפר בלום,צפון,צפת,ד.נ גליל עליון,33.172527,35.607938,04-6948527,סגור,12:30-16:30,11:00-12:00,סגור,סגור,סגור,סגור,,קופת חולים כללית
כפר ברא,כפר ברא,מרכז,פתח תקווה,קובה,32.131229,34.969199,03-9021271,סגור,סגור,סגור,7:30-15:30,7:30-15:30,סגור,סגור,,משרד הבריאות
כפר גלעדי,כפר גלעדי,צפון,צפת,ד.נ גליל עליון,33.242078,35.574142,04-6946385,סגור,סגור,סגור,8:00-13:00,סגור,סגור,סגור,,קופת חולים כללית
כפר החורש,כפר החורש,צפון,יזרעאל,ד.נ כפר החורש,32.701549,35.272956,04-6558444,סגור,סגור,סגור,סגור,סגור,סגור,סגור,,קופת חולים כללית
כפר המכבי,כפר המכבי,חיפה,חיפה,כפר המכבי,32.791796,35.117251,04-8458745,סגור,יחוסנו באושה,סגור,סגור,סגור,סגור,סגור,,קופת חולים כללית
כפר ויתקין,כפר ויתקין,מרכז,השרון,כפר ויתקין,32.381447,34.875713,09-8666083,8:00-14:00  16:00-19:00,8:00-13:00,8:00-13:0016:00-19:00,8:00-13:30,8:00-13:00,סגור,סגור,,קופת חולים כללית
כפר ורדים,כפר ורדים,צפון,עכו,המרכז המסחרי,32.995088,35.269101,04-9971187,8:00-16:00,11:00-19:00,8:00-16:00,8:00-16:00,8:00-19:00,8:00-12:00,סגור,,קופת חולים כללית
כפר זיתים,כפר זיתים,צפון,כנרת,ד.נ גליל תחתון,32.811614,35.465165,"04-6793794 ,04-6737934",סגור,סגור,סגור,סגור,7:30-11:00,סגור,סגור,,קופת חולים כללית
כפר חבד,כפר חבד,מרכז,רמלה,מרכז הכפר,31.990144,34.849103,03-9606993,8:00-16:00,8:00-16:00,8:00-20:00,8:00-16:00,8:00-20:00,8:00-13:00,סגור,אחיעזר יגל צפריה זיתן תוחלת,משרד הבריאות
כפר חרוב,כפר חרוב,צפון,כנרת,,32.762357,35.66418,04-6761824,סגור,סגור,סגור,סגור,סגור,12:00-13:00,סגור,,קופת חולים כללית
כפר יאסיף א' +ב',כפר יאסיף,צפון,עכו,כפר יאסיף,32.957859,35.16436,04-9996098,8:00-16:00,8:00-16:00,8:00-18:00,8:00-16:00,8:00-16:00,סגור,סגור,,משרד הבריאות
כפר יובל,כפר יובל,צפון,צפת,,33.246577,35.597063,04-6941928,סגור,סגור,סגור,9:00-12:00,סגור,סגור,סגור,,קופת חולים כללית
כפר יונה,כפר יונה,מרכז,השרון,שרת 5,32.3175774,34.9353145,09-8971168,8:00-20:00,8:00-20:00,8:00-16:00,8:00-20:00,8:00-16:00,8:00-12:00,סגור,"שווי שומרון, חומש, חניאל, בורגתא, בחן, אחיטוב, אמץ",משרד הבריאות
כפר יחזקאל,כפר יחזקאל,צפון,יזרעאל,ד.נ גלבוע,32.566949,35.360888,04-6531876,סגור,סגור,סגור,סגור,סגור,סגור,סגור,,קופת חולים כללית
כפר כמא,כפר כמא,צפון,כנרת,כפר כמא,32.723045,35.439546,04-6765660,סגור,8:00-15:00,8:00-15:00,8:00-18:00,סגור,סגור,סגור,,משרד הבריאות
כפר כנא א',כפר כנא,צפון,נצרת,כפר כנא,32.742325,35.347232,04-6517277,8:00-15:00,8:00-15:00,8:00-15:00,8:00-15:00,8:00-15:00,8:00-13:00,סגור,,משרד הבריאות
כפר כנא ב',כפר כנא,צפון,נצרת,כפר כנא,32.742325,35.347232,04-6411782,8:00-14:00,8:00-14:00,8:00-14:00,8:00-14:00,8:00-14:00,סגור,סגור,,משרד הבריאות
כפר כנא ג',כפר כנא,צפון,נצרת,כפר כנא,32.742325,35.347232,04-6419167,סגור,8:00-14:00,8:00-19:00,8:00-14:00,8:00-14:00,8:00-14:00,סגור,,משרד הבריאות
כפר מנדא א,כפר מנדא,צפון,עכו,כפר מנדא,32.807865,35.260021,04-9864453,8:00-16:00,8:00-16:00,8:00-16:00,8:00-16:00,8:00-16:00,סגור,סגור,,משרד הבריאות
כפר מנדא ב,כפר מנדא,צפון,עכו,כפר מנדא,32.807865,35.260021,04-9863614,8:00-18:00,8:00-16:00,8:00-16:00,8:00-16:00,8:00-16:00,סגור,סגור,,משרד הבריאות
כפר מנדא ג,כפר מנדא,צפון,עכו,כפר מנדא,32.807865,35.260021,04-9864708,8:00-16:00,8:00-16:00,8:00-16:00,8:00-16:00,8:00-16:00,סגור,סגור,,משרד הבריאות
כפר מסריק,כפר מסריק,צפון,עכו,ד.נ אושרת,32.891218,35.098414,04-9854143,סגור,יחוסנו בעין המפרץ,סגור,סגור,סגור,סגור,סגור,,קופת חולים כללית
מצר,כפר מצר,צפון,יזרעאל,מצר,32.642324,35.421794,04-6769512,8:00-14:00,סגור,8:00-14:00,סגור,8:00-20:00,סגור,סגור,,משרד הבריאות
כפר סאלד,כפר סאלד,צפון,צפת,ד.נ גליל עליון,33.196035,35.657993,04-6907555,סגור,סגור,16:00-19:00,סגור,סגור,סגור,סגור,,קופת חולים כללית
וייצמן,כפר סבא,מרכז,פתח תקווה,רח' וויצמן 83,32.178195,34.90761,,סגור,סגור,סגור,סגור,14:00-20:00,סגור,סגור,,קופת חולים לאומית
כפר סבא,כפר סבא,מרכז,פתח תקווה,"ויצמן 42 (בית יתיר) כ""ס",32.178195,34.90761,09-7423420,8:00-16:00,8:00-20:00,8:00-16:00  17:00-20:00,8:00-19:00,8:00-20:00,סגור,סגור,,קופת חולים מאוחדת
בן גוריון,כפר סבא,מרכז,פתח תקווה,בן גוריון 43,32.1722443,34.908862,"09-7651265 ,09-7634000",7:00-14:00,7:00-13:0016:00-19:00,8:00-12:00,8:00-13:00,8:00-13:00,סגור,סגור,,קופת חולים כללית
הדרים,כפר סבא,מרכז,פתח תקווה,"עמק החולה 5,",32.1793793,34.9350831,09-7664422,9:00-12:0016:00-18:00,9:00-12:00,9:00-12:00,9:00-12:0016:00-18:00,9:00-11:00,סגור,סגור,,קופת חולים כללית
מרכז הילד,כפר סבא,מרכז,פתח תקווה,הגליל 5,32.1741741,34.9170542,"09-7658111 ,09-7631200",9:00-12:0013:00-18:45,9:00-13:00,9:00-14:0016:00-18:30,9:00-13:00,9:00-13:0015:30-18:30,8:00-12:00,סגור,,קופת חולים כללית
קפלן,כפר סבא,מרכז,פתח תקווה,יחזקאל 12,32.1842198,34.9371351,"09-7656101 ,09-7630600",9:00-12:0016:00-19:00,9:00-14:00,9:00-13:3016:00-19:00,9:00-14:00,9:00-13:3016:00-19:00,סגור,סגור,,קופת חולים כללית
כפר עזה,כפר עזה,אשקלון,אשקלון,ד.נ הנגב,31.483416,34.532291,"08-6809777 ,08-6809222",סגור,סגור,9:00-11:00,סגור,סגור,9:00-11:00,סגור,,קופת חולים כללית
כפר עציון,כפר עציון,ירושלים,ירושלים,ד.נ צפון יהודה,31.649486,35.115234,02-9935138,סגור,15:30-17:30,סגור,סגור,סגור,סגור,סגור,,קופת חולים כללית
אלחנאן,כפר עקב,ירושלים,ירושלים,כביש רמלה אל קודס,31.872486,35.225322,02-5853026,סגור,סגור,סגור,7:00-16:00,סגור,7:00-16:00,סגור,שבת 7:00-16:00,משרד הבריאות
אל אמל,כפר קאסם,מרכז,פתח תקווה,רח' בלאל בן רבאח,32.114093,34.972767,03-9071595,7:30-15:30,7:30-15:30,11:00-20:00,7:30-20:00,7:30-15:30,סגור,סגור,,משרד הבריאות
כפר קאסם א',כפר קאסם,מרכז,פתח תקווה,רח' סולטני,32.114093,34.972767,03-9071834,7:30-15:30,7:30-15:30,7:30-20:00,7:30-20:00,7:30-15:30,7:30-13:00,סגור,,משרד הבריאות
כפר קיש,כפר קיש,צפון,כנרת,ד.נ גליל תחתון,32.666087,35.44895,04-6765317,סגור,סגור,סגור,סגור,סגור,סגור,סגור,,קופת חולים כללית
קרע ב,כפר קרע,חיפה,חדרה,קרע,32.497446,35.063863,077-2031350,8:00-13:30,8:00-13:30,8:00-20:00,8:00-13:30,8:00-13:30,סגור,סגור,,משרד הבריאות
קרע ג,כפר קרע,חיפה,חדרה,קרע,32.497446,35.063863,04-6358076,8:00-13:30,8:00-13:30,8:00-13:30,8:00-13:30,8:00-13:30,סגור,סגור,,משרד הבריאות
כפר רופין,כפר רופין,צפון,יזרעאל,ד.נ בית שאן,32.457549,35.555673,04-6068201,סגור,סגור,סגור,סגור,סגור,סגור,סגור,,קופת חולים כללית
כפר תבור,כפר תבור,צפון,יזרעאל,כפר תבור,32.689563,35.419095,04-6766868,8:00-14:00,10:00-20:00,8:00-14:00,8:00-14:00,8:00-14:00,8:00-13:00,סגור,,משרד הבריאות
כרמי יוסף,כרמי יוסף,מרכז,רמלה,כרמי יוסף,31.846248,34.919592,08-9286006,סגור,8:00-13:00,8:00-13:00,סגור,8:00-10:00,סגור,סגור,,קופת חולים כללית
כרמיאל לאומית,כרמיאל,צפון,עכו,החרושת 17,32.9211957,35.3083666,04-9088019,8:00-16:00,סגור,88:00-16:00,סגור,8:00-18:00,סגור,סגור,,משרד הבריאות
כרמיאל,כרמיאל,צפון,עכו,בית הכרם 16 כרמיאל,32.9114616,35.286025,04-9087114,7:30-19:00,7:30-15:30,12:00-19:00,7:30-15:30,8:00-15:00,סגור,סגור,,קופת חולים מאוחדת
כרמיאל חבצלת,כרמיאל,צפון,צפון,חבצלת 3,32.9082717,35.2986933,04-9027222,8:00-20:00,8:00-20:00,8:00-20:00,8:00-20:00,8:00-20:00,8:00-11:30,סגור,,מכבי שרותי בריאות
חבצלת,כרמיאל,צפון,עכו,רח' חבצלת 2 כרמיאל,32.914671,35.292417,04-9883270,8:00-19:00,8:00-16:00,8:00-19:00,8:00-13:00,8:00-17:00,סגור,סגור,,קופת חולים כללית
כרמיאל דרום,כרמיאל,צפון,עכו,חבצלת 2 כרמיאל,32.906762,35.2991182,04-9883270,סגור,סגור,סגור,סגור,סגור,סגור,סגור,,קופת חולים כללית
כרמיאל מרכז,כרמיאל,צפון,עכו,משעול הרקפות 41,32.9167801,35.3045999,04-9900500,11:00-14:00,סגור,8:00-16:00,8:00-12:00,8:00-14:00,סגור,סגור,,קופת חולים כללית
כרמיאל רמת רבין,כרמיאל,צפון,עכו,חטיבת גבעתי 27,32.9065924,35.2810353,04-9589170,8:00-13:00,יחוסנו בחבצלת,סגור,סגור,8:00-13:30,8:00-12:00,סגור,,קופת חולים כללית
כרמיה,כרמיה,אשקלון,אשקלון,ד.נ חוף אשקלון,31.602695,34.540413,08-6479830,סגור,10:30-11:30,סגור,סגור,16:00-17:00,סגור,סגור,,קופת חולים כללית
כרמל,כרמל,דרום,באר שבע,ד.נ. הר חברון,31.432786,35.182268,,11:00-14:00,9:00-10:30,16:00-18:00,סגור,סגור,סגור,סגור,,קופת חולים לאומית
לב ביתר,ביתר עילית,ירושלים,ירושלים,הרן 20,31.7031425,35.1182188,02-5887000,8:00-19:00,8:00-17:00,8:30-15:30,8:30-19:00,8:00-12:00,8:00-12:00,סגור,,קופת חולים כללית
לביא,לביא,צפון,כנרת,ד.נ גליל תחתון,32.787648,35.440717,04-6799215,סגור,9:00-11:0015:30-17:30,סגור,9:00-11:00,סגור,סגור,סגור,,קופת חולים כללית
להב,להב,דרום,באר שבע,ד.נ הנגב,31.379363,34.871311,08-9913490,סגור,סגור,סגור,סגור,סגור,סגור,סגור,,קופת חולים כללית
להבות הבשן,להבות הבשן,צפון,צפת,ד.נ גליל עליון,33.141387,35.645095,04-6952134,7:30-8:30,סגור,7:00-8:30  15:00-17:00,7:00-8:30   15:00-17:00,סגור,7:30-9:30,סגור,,קופת חולים כללית
להבים,להבים,דרום,באר שבע,מרכז מסחרי,31.374504,34.809165,08-6510230,13:00-19:00,סגור,סגור,סגור,סגור,סגור,סגור,,מכבי שרותי בריאות
להבים,להבים,דרום,באר שבע,ת.ד 10 מרכז להבים,31.373835,34.816952,08-6681222,סגור,סגור,סגור,סגור,סגור,סגור,סגור,,קופת חולים כללית
גני אביב,לוד,מרכז,רמלה,צמרות 7,31.9577629,34.881171,08-9227239,8:00-16:00,8:00-16:00,12:00-20:00,8:00-16:00,8:00-16:00,8:00-13:00,סגור,,משרד הבריאות
נוה נוף,לוד,מרכז,רמלה,רותם 11,31.9507012,34.9028917,08-9255548,8:00-20:00,8:00-20:00,8:00-20:00,8:00-20:00,8:00-20:00,8:00-13:00,סגור,בית נחמיה בית עריף כפר טרומן,משרד הבריאות
אורנים,לוד,מרכז,רמלה,בן חקון 1 פינת אינשטיין,31.947568,34.882391,08-9230133,8:00-20:00,8:00-20:00,8:00-20:00,8:00-20:00,8:00-20:00,8:00-13:00,סגור,,משרד הבריאות
שרת,לוד,מרכז,רמלה,ספרן מאיר 1,31.9517633,34.8893379,08-9231222,8:00-16:00,8:00-16:00,12:00-20:00,8:00-16:00,8:00-16:00,8:00-13:00,סגור,,משרד הבריאות
גבעת הזיתים,לוד,מרכז,רמלה,חללי מנכן 8,31.9467364,34.8951784,08-9246507,8:00-20:00,8:00-20:00,8:00-20:00,8:00-20:00,8:00-20:00,8:00-13:00,סגור,חדיד גימזו כפר דניאל בן שמן גנתון,משרד הבריאות
לוחמי הגטאות,לוחמי הגטאות,צפון,עכו,ד.נ אשרת,32.962661,35.096741,04-9933666,סגור,יחוסנו בטרומפלדור נהריה,סגור,סגור,8:00-12:00,סגור,סגור,,קופת חולים כללית
לימן,לימן,צפון,עכו,ד.נ גליל מערבי,33.058732,35.111815,04-9824236,סגור,סגור,סגור,8:00-12:00,סגור,סגור,סגור,,קופת חולים כללית
לכיש,לכיש,אשקלון,אשקלון,ד.נ לכיש דרום,31.560907,34.84409,08-6887976,9:00-12:00,סגור,סגור,סגור,סגור,סגור,סגור,,קופת חולים כללית
מרכז וורדון,לכיש,אשקלון,אשקלון,ד.נ. לכיש,31.560907,34.84409,08-8500670,סגור,סגור,סגור,סגור,סגור,סגור,סגור,,קופת חולים כללית
למפרט,כפר סבא,מרכז,פתח תקווה,המעפילים 5,32.1785134,34.8996264,09-7477400,8:00-12:0016:00-19:00,8:00-14:30,8:00-12:3016:00-19:00,7:30-14:0016:00-19:00,7:30-14:00,8:00-12:00,סגור,,קופת חולים כללית
לקייה א',לקייה,דרום,באר שבע,לקייה,31.324603,34.868095,08-6517479,8:00-16:00,8:00-16:00,8:00-16:00,8:00-16:00,8:00-16:00,סגור,סגור,,משרד הבריאות
לקייה ב',לקייה,דרום,באר שבע,לקייה,31.324603,34.868095,08-6512580,8:00-16:00,8:00-16:00,8:00-16:00,8:00-16:00,8:00-16:00,סגור,סגור,,משרד הבריאות
מאור,מאור,חיפה,חדרה,ד.נ מנשה,32.425832,35.005289,04-6372627,סגור,סגור,סגור,13:30-15:30,7:30-11:00,סגור,סגור,,קופת חולים כללית
מבוא חורון,מבוא חורון,מרכז,רמלה,ד.נ שמשון,31.849598,35.034977,08-9726782,סגור,8:00-13:00,סגור,סגור,16:00-19:00,סגור,סגור,,קופת חולים כללית
מבועים,מבועים,דרום,באר שבע,מבועים,31.446446,34.654165,08-9930061,סגור,סגור,8:00-16:00,8:00-20:00,סגור,סגור,סגור,,משרד הבריאות
הראל,מבשרת  ציון,ירושלים,ירושלים,דם המכבים 183,31.802202,35.146697,02-5700368,8:00-14:30,סגור,8:00-14:30,סגור,סגור,סגור,סגור,,משרד הבריאות
מג'דל שמס,מג'דל שמס,צפון,צפת,מג'דל שמס,33.2696495,35.7723526,04-6983183,8:00-20:00,8:00-16:00,סגור,8:00-16:00,8:00-16:00,סגור,סגור,,משרד הבריאות
מג'אר צפונית,מגאר,צפון,כנרת,מג'אר,32.890482,35.407665,04-6784630,8:00-20:00,8:00-14:30,8:00-14:30,8:00-14:30,סגור,7:30-14:30,סגור,,משרד הבריאות
מג'אר מערבית,מגאר,צפון,כנרת,מג'אר,32.890482,35.407665,04-6781165,7:30-14:30,סגור,סגור,8:00-18:00,סגור,סגור,סגור,,משרד הבריאות
מג'אר מנסורה,מגאר,צפון,כנרת,מג'אר,32.890482,35.407665,04-6783265,סגור,8:00-18:00,7:30-14:30,סגור,סגור,7:30-14:30,סגור,,משרד הבריאות
מג'אר ראסאלכביה,מגאר,צפון,כנרת,מג'אר,32.890482,35.407665,04-6781059,סגור,7:30-14:30,7:30-13:30,סגור,8:00-18:00,סגור,סגור,,משרד הבריאות
מג'אר מרכזית,מגאר,צפון,כנרת,מג'אר,32.890482,35.407665,04-6786132,8:00-20:00,7:30-15:00,8:00-20:00,8:00-20:00,8:00-20:00,7:30-14:30,סגור,,משרד הבריאות
מג'אר ג'משה,מגאר,צפון,כנרת,מג'אר,32.890482,35.407665,04-6780249,7:30-13:30,7:30-13:30,סגור,8:00-18:00,סגור,7:30-13:30,סגור,,משרד הבריאות
מגדים,מגדים,חיפה,חדרה,ד.נ חוף הכרמל,32.727734,34.960923,04-8574882,סגור,סגור,סגור,8:00-13:00,סגור,סגור,סגור,,קופת חולים כללית
מגדל,מגדל,צפון,כנרת,מגדל,32.839271,35.498943,04-6720742,8:00-15:00,סגור,8:00-20:00,סגור,סגור,8:00-13:00,סגור,,משרד הבריאות
נוף העמק,מגדל העמק,צפון,יזרעאל,מגדל העמק,32.676868,35.263487,04-6443808,8:00-14:00,8:00-14:00,8:00-20:00,8:00-14:00,8:00-14:00,8:00-13:00,סגור,,משרד הבריאות
מגדל העמק,מגדל העמק,צפון,יזרעאל,האלה 2,32.6769005,35.2397867,04-6447065,סגור,סגור,סגור,סגור,סגור,סגור,סגור,,קופת חולים כללית
מגידו,מגידו,צפון,יזרעאל,ד.נ מגידו,32.577899,35.179972,04-6525742,סגור,סגור,סגור,סגור,סגור,סגור,סגור,,קופת חולים כללית
מגל,מגל,חיפה,חדרה,ד.נ מנשה,32.385556,35.036147,04-6365965,8:00-12:00,סגור,8:00-12:00,8:00-12:00,סגור,סגור,סגור,,קופת חולים כללית
מגן,מגן,דרום,באר שבע,ד.נ הנגב,31.298108,34.427059,08-9983203,7-13,סגור,סגור,סגור,סגור,7-13,סגור,,קופת חולים כללית
מגן שאול,מגן שאול,צפון,יזרעאל,ד.נ גלבוע,32.521471,35.306431,04-6400115,סגור,סגור,סגור,סגור,סגור,סגור,סגור,,קופת חולים כללית
דוכיפת,מודיעין,מרכז,רמלה,הנביאים 23,31.9124393,35.0063226,08-9707512/266,8:00-20:00,8:00-20:00,8:00-20:00,8:00-20:00,8:00-20:00,8:00-13:00,סגור,,משרד הבריאות
נחל צלמון,מודיעין,מרכז,רמלה,נחל צלמון 17,31.8918354,35.0101891,08-9751553/2,8:00-20:00,8:00-20:00,8:00-20:00,8:00-20:00,8:00-20:00,8:00-13:00,סגור,"שילת כפר רות חשמונאים נילי נעלה לפיד כפר אורנים בית חורון מבוא חורון, מבוא מודיעין טלמון דולב",משרד הבריאות
עמק דותן,מודיעין,מרכז,רמלה,עמק דותן 53 מודיעין,31.8994251,35.0135645,08-9735666,8:00-20:00,8:30-13:30,13:00-18:30,8:00-13:30,8:00-13:0016:00-18:30,8:00-12:00,סגור,,מכבי שרותי בריאות
מודיעין עזריאלי,מודיעין,מרכז,רמלה,"בית אלעזר, קניון עזריאלי, לב העיר 110 מודיעין",31.90912,35.002462,08-9737004,8:00-20:00,8:00-20:00,8:00-16:00,8:00-20:00,8:00-16:00,8:00-13:00,סגור,,קופת חולים מאוחדת
ברכפלד,מודיעין עילית,מרכז,רמלה,רבי עקיבא  3,31.9397853,35.0386318,"08-9741988 ,08 -9741988",8:30-18:00,8:30-18:00,8:30-17:00,8:30-18:00,8:30-17:00,8:00-12:00,סגור,,קופת חולים כללית
חפציבה,מודיעין עילית,מרכז,רמלה,,31.932477,35.042265,04-6534100,סגור,סגור,סגור,סגור,סגור,סגור,סגור,,קופת חולים כללית
אבי עזרי,מודיעין עילית,מרכז,רמלה,"שדרות הרב מפוניביז, 12",31.9236156,35.0491288,08-9315270,סגור,8:00-13:0016:00-19:00,סגור,8:00-14:00,סגור,סגור,סגור,,קופת חולים כללית
נאות פסגה,מודיעין עילית,מרכז,רמלה,"הריטב""א 7/1",31.9280154,35.0488836,"08-9285330 ,08-9285330",8:30-12:00,סגור,8:30-14:30,8:30-16:00,סגור,סגור,סגור,,קופת חולים כללית
קרית ספר,מודיעין עילית,מרכז,רמלה,מסילת יוסף 34,31.9297051,35.0435471,08-9740318,8:00-18:00,9:00-19:30,8:00-15:00,8:00-14:00,אחת לשבועיים   8:00-13:00,אחת לשבועיים   8:00-12:00,סגור,,קופת חולים כללית
ברכלפלד,מודיעין עילית,מרכז,רמלה,רבי עקיבא 3 מודיעין עילית - ברכפלד,31.932477,35.042265,08-9743667,8:00-20:00,8:00-20:00,8:00-20:00,8:00-20:00,8:00-20:00,8:00-12:00,סגור,,קופת חולים מאוחדת
גרין פארק,מודיעין עילית,מרכז,מרכז,הרב מפונוביץ 3 מודיעין עילית - גרין פארק,31.923435,35.047093,08-6486266,8:00-16:00,8:00-16:00,8:00-16:00,8:00-16:00,8:00-15:00,8:00-12:00,סגור,,קופת חולים מאוחדת
קרית ספר,מודיעין עילית,מרכז,מרכז,אבני נזר 46 מודיעין עילית-קרית ספר,31.933159,35.043286,08-9144321,8:00-13:20  15:00-20:00,8:30-16:00,9:00-18:00,8:00-13:30  16:30-20:00,8:00-13:30,8:00-10:00,סגור,,קופת חולים מאוחדת
ברכפלד,מודיעין עילית,מרכז,רמלה,שד' יחזקאל 2,31.932477,35.042265,08-9132111,8:00-12:3016:00-18:00,8:00-12:3016:00-18:00,8:00-12:3016:00-18:00,8:00-12:3016:00-18:00,8:00-12:3016:00-18:30,סגור,סגור,,מכבי שרותי בריאות
מולדת,מולדת,צפון,יזרעאל,ד.נ גלבוע,32.586196,35.438941,04-6532294,סגור,סגור,סגור,סגור,סגור,סגור,סגור,,קופת חולים כללית
מוסמוס,מוסמוס,חיפה,חדרה,מוסמוס,32.545905,35.155581,04-6311384,8:00-20:00,סגור,8:00-13:30,סגור,8:00-13:30,סגור,סגור,,משרד הבריאות
מוקייבלה,מוקייבלה,צפון,יזרעאל,מוקייבלה,32.514807,35.296685,04-6407385,8:00-14:00,8:00-14:00,8:00-14:00,8:00-14:00,8:00-20:00,8:00-13:00,סגור,,משרד הבריאות
מורן,מורן,צפון,עכו,ד.נ בקעת בית הכרם,32.921637,35.39481,04-6988997,סגור,סגור,סגור,סגור,סגור,סגור,סגור,,קופת חולים כללית
מזור,מזור,מרכז,פתח תקווה,מושב מזור,32.050698,34.931373,03-9327885,בנחלים,בנחלים,סגור,סגור,סגור,סגור,סגור,,קופת חולים כללית
מזכרת בתיה,מזכרת בתיה,מרכז,רחובות,הרקפת 3,31.853167,34.842421,08-9340341,8:00-20:00,7:30-17:00,7:30-17:00,7:30-17:00,7:30-17:00,7:30-13:00,סגור,בודדים מיציץ וגני יוחנן,משרד הבריאות
מזרע,מזרע,צפון,יזרעאל,,32.649879,35.286404,04-6429809,סגור,סגור,סגור,סגור,סגור,סגור,סגור,,קופת חולים כללית
מזרעה,מזרעה,צפון,עכו,מזרעה,32.983205,35.096684,04-9829178,סגור,8:00-18:00,8:00-16:00,סגור,סגור,סגור,סגור,,משרד הבריאות
מחולה,מחולה,צפון,יזרעאל,ד.נ בית שאן,32.365285,35.51602,04-6480115,סגור,סגור,סגור,סגור,סגור,סגור,סגור,,קופת חולים כללית
מחניים,מחניים,צפון,צפת,ד.נ גליל עליון,32.988845,35.570375,"04-6933777 ,04-6933777",סגור,סגור,8:00-11:30,סגור,סגור,סגור,סגור,,קופת חולים כללית
מי עמי,מי עמי,צפון,חדרה,ד.נ מנשה,32.504963,35.146425,"04-6351048 ,04-6372627",סגור,10:30-12:30,סגור,15:00-17:00,סגור,סגור,סגור,,קופת חולים כללית
מיסר,מיסר,חיפה,חדרה,מיסר,32.443859,35.042545,04-6381447,8:00-13:30,8:00-13:30,8:00-13:30,8:00-13:30,8:00-13:30,סגור,סגור,,משרד הבריאות
מירב,מירב,צפון,יזרעאל,ד.נ גלבוע,32.452041,35.422479,04-6539155,סגור,סגור,סגור,סגור,סגור,סגור,סגור,,קופת חולים כללית
מרום בגליל,מירון,צפון,צפת,מ.א. מרום הגליל,32.985226,35.441643,04-6987898,8:00-14:00,8:00-14:00,8:00-14:00,8:00-14:00,8:00-14:00,סגור,סגור,,משרד הבריאות
מיתר,מיתר,דרום,באר שבע,מרכז מסחרי מיתר,31.327011,34.943213,08-6510034,8:00-12:00  16:00-19:00,8:00-12:00,8:00-12:00,8:00-12:00,8:00-12:00,סגור,סגור,,מכבי שרותי בריאות
מיתר,מיתר,דרום,באר שבע,רח' המייסדים,31.327011,34.943213,08-9558222,סגור,סגור,סגור,סגור,סגור,סגור,סגור,,קופת חולים כללית
מלכיה,מלכיה,צפון,צפת,ד.נ מרום גליל,33.098589,35.509624,"04-6943698 ,04-6946708",סגור,8:00-12:00 לסירוגין,סגור,סגור,סגור,סגור,סגור,,קופת חולים כללית
מנחמיה,מנחמיה,צפון,כנרת,מנחמיה,32.665983,35.555817,04-6752539,8:00-18:00,סגור,סגור,סגור,סגור,סגור,סגור,,משרד הבריאות
מנרה,מנרה,צפון,צפת,ד.נ גליל עליון,33.195375,35.543728,04-6908101,11:00-13:00,סגור,סגור,סגור,סגור,סגור,סגור,,קופת חולים כללית
מנשית זבדה,מנשית זבדה,צפון,יזרעאל,מנשית זבדה,32.701906,35.191531,04-6415420,סגור,סגור,8:00-14:00,סגור,8:00-20:00,סגור,סגור,"תחנת סגורה עד לתאריך 22/8, ניתן לקבל שירות בתחנות טיפת החלב בכפר כעבייה או חג'אג'רה הסמוכות.",משרד הבריאות
מסד,מסד,צפון,כנרת,ד.נ גליל תחתון,32.844172,35.423166,04-6784814,סגור,סגור,סגור,סגור,סגור,8:30-11:00,סגור,,קופת חולים כללית
אזורית עמק הירדן,מסדה,צפון,כנרת,ד.נ בית שאן,32.682305,35.597657,04-6655300,סגור,סגור,סגור,סגור,סגור,סגור,סגור,,קופת חולים כללית
מסילות,מסילות,צפון,יזרעאל,ד.נ מנשה,32.497362,35.474651,04-6066400,סגור,סגור,סגור,סגור,סגור,סגור,סגור,,קופת חולים כללית
מסעדה,מסעדה,צפון,צפת,מסעדה,33.232673,35.756898,04-6983319,8:00-16:00,סגור,8:00-20:00,8:00-16:00,8:00-16:00,8:00-13:00,סגור,,משרד הבריאות
מעגן מיכאל,מעגן מיכאל,חיפה,חדרה,ד.נ מנשה,32.55871,34.917816,"04-6399582 ,04-6399582",8:15-13:00,סגור,8:15-13:00,סגור,סגור,8:15-13:00,סגור,,קופת חולים כללית
מעוז חיים,מעוז חיים,צפון,יזרעאל,ד.נ בית שאן,32.49407,35.550767,04-6064750,סגור,סגור,סגור,סגור,סגור,סגור,סגור,,קופת חולים כללית
מבשרת,מבשרת ציון,ירושלים,ירושלים,החוצבים 3,31.793372,35.145097,02-5344414,8:00-14:00,8:00-14:00,8:00-14:00,8:00-18:00,8:00-15:00,8:00-12:00,סגור,"גבעת יערים, בית זית, הר הדר, מעלה החמישה, מוצא, בית נקופה, קרית ענבים, צובה, אורה, עמינדב,  אבן ספיר",משרד הבריאות
מעונה,מעונה,צפון,עכו,ד.נ מעונה,33.016894,35.263626,04-9979948,15:00-16:00,יחוסנו בתרשיחא,סגור,סגור,סגור,סגור,סגור,,קופת חולים כללית
מעיליא,מעיליא,צפון,עכו,מעיליא,33.0285276,35.2530036,04-9870530,סגור,סגור,סגור,סגור,סגור,סגור,סגור,,משרד הבריאות
יהלום,מעלה אדומים,ירושלים,ירושלים,כיכר קדם (ליד טרם),31.777369,35.297955,02-5352848,8:00-14:30,8:00-14:30,8:00-14:30,7:30-19:30,7:30-19:30,8:00-12:00,סגור,,משרד הבריאות
צמח השדה,מעלה אדומים,ירושלים,ירושלים,הצפצפה 2,31.7672453,35.3012656,02-5352810,8:00-14:30,8:00-14:30,8:00-14:30,7:30-19:30,7:30-19:30,8:00-12:00,סגור,"אלון, קידר, כפר אדומים, נופי פרת, מישור אדומים, בית הערבה, מצפה יריחו, אבנת, נתיב-העשרה, קבוץ גלגל, קיבוץ קליה, מבא יריחו, ורד יריחו.",משרד הבריאות
כיכר היהלום,מעלה אדומים,ירושלים,ירושלים,כיכר היהלום 891,31.773363,35.29812,02-5913200,8:00-20:00,8:30-13:30,13:00-18:30,8:00-14:30,8:00-14:30,סגור,סגור,,מכבי שרותי בריאות
מעלה אפריים,מעלה אפרים,ירושלים,ירושלים,ד.נ מזרח בנימין,32.071304,35.4039,"02-5425400 ,02-5425400",10:30-13:3015:30-19:30,סגור,7:30-12:30,11:00-16:00,סגור,סגור,סגור,,קופת חולים כללית
מעלה גלבוע,מעלה גלבוע,צפון,יזרעאל,ד.נ גלבוע,32.476065,35.420637,04-6067506,סגור,סגור,סגור,סגור,סגור,סגור,סגור,,קופת חולים כללית
מעלות,מעלות,צפון,צפון,ירושלים 18 מעלות,33.015026,35.276017,04-9079107,10:00-18:00,8:00-16:00,8:00-16:00,11:00-19:00,8:00-16:00,סגור,סגור,,קופת חולים מאוחדת
מעלות מרכז,מעלות,צפון,עכו,בן גוריון,33.013111,35.287102,04-9578555,8:00-13:0016:00-19:00,8:00-16:00,8:00-19:00,8:00-13:00,8:00-16:00,8:00-12:00,סגור,,קופת חולים כללית
מעלות צפון,מעלות,צפון,עכו,ירושלים  קניון הרקפות,33.015026,35.276017,"04-9573151 ,04-9578556",15:00-19:00,8:00-13:00,סגור,סגור,סגור,סגור,סגור,,קופת חולים כללית
מעלות לאומית,מעלות,צפון,עכו,מעלות,33.014578,35.28277,04-9077003,8:00-18:00,8:00-16:00,סגור,סגור,8:00-16:00,סגור,סגור,,משרד הבריאות
תרשיחא,מעלות תרשיחא,צפון,עכו,בן גוריון,33.013111,35.287102,04-9578555,7:30-15:30,10:00-18:00,7:30-15:30,7:30-15:30,7:30-15:30,8:00-12:00,סגור,,קופת חולים כללית
מענית,מענית,חיפה,חדרה,ד.נ מנשה,32.457992,35.026573,04-6375333,סגור,15:00-18:00,סגור,8:00-14:00,סגור,סגור,סגור,,קופת חולים כללית
מצפה יריחו,מצפה יריחו,ירושלים,ירושלים,,31.815688,35.395409,02-5906330,סגור,7:30-12:30,7:30-12:30,7:30-13:30,7:30-10:00,סגור,סגור,,קופת חולים מאוחדת
מצפה יריחו,מצפה יריחו,מרכז,רמלה,ד.נ  ערבות ירדן,31.815688,35.395409,02-5353411,סגור,10:00-14:00,סגור,8:00-14:00,סגור,סגור,סגור,,קופת חולים כללית
מצפה נטופה,מצפה נטופה,צפון,צפון,יישוב קהילתי מצפה נטופה,32.801748,35.383501,,10:00-11:00,סגור,16:00-17:00,סגור,סגור,סגור,סגור,,קופת חולים לאומית
מצפה רמון,מצפה רמון,דרום,באר שבע,נחל גרופית,30.607375,34.803426,08-6588773,8:00-16:00,8:00-16:00,8:00-16:00,8:00-16:00,8:00-20:00,סגור,סגור,,משרד הבריאות
מצפה שלם,מצפה שלם,ירושלים,ירושלים,ד.נ ים המלח,31.568875,35.400367,02-9945400,בתאום מראש,סגור,סגור,סגור,סגור,סגור,סגור,,קופת חולים כללית
מצר,מצר,חיפה,חדרה,ד.נ מנשה,32.440186,35.047702,04-6387000,11:00-13:00,8:30-10:30,סגור,סגור,סגור,סגור,סגור,,קופת חולים כללית
מרום גולן (אזורית),מרום גולן,צפון,צפת,ד.נ רמת הגולן,33.132583,35.777071,"04-6960114 ,04-9855700",8:00-14:00,סגור,סגור,8:00-14:00,8:00-14:00,סגור,סגור,,קופת חולים כללית
מרחביה קיבוץ,מרחביה קיבוץ,צפון,יזרעאל,ד.נ יזרעאל,32.605823,35.307384,04-6598800,סגור,סגור,סגור,סגור,סגור,סגור,סגור,,קופת חולים כללית
מרכז שפירא,מרכז שפירא,דרום,באר שבע,ד.נ לכיש צפון,31.696927,34.707319,08-8580540,8:00-10:30,8:00-14:00,9:00-12:00,8:00-12:00,14:00-15:30,8:00-12:00,סגור,,קופת חולים כללית
משאבי שדה,משאבי שדה,דרום,באר שבע,ד.נ. חלוצה,31.004042,34.785029,08-6565367,סגור,סגור,סגור,סגור,סגור,סגור,סגור,,קופת חולים כללית
משגב עם,משגב עם,צפון,צפת,ד.נ גליל עליון,33.247572,35.548499,04-6953126,סגור,12:00-14:00,סגור,סגור,סגור,סגור,סגור,,קופת חולים כללית
כפר משהד,משהד,צפון,נצרת,משהד,32.740391,35.324018,04-6519510,8:00-16:00,8:00-16:00,8:00-19:00,8:00-16:00,8:00-16:00,8:00-13:00,סגור,,משרד הבריאות
משואות יצחק,משואות יצחק,חיפה,חדרה,ד.נ שדה גת,31.70261,34.689968,08-8607314,סגור,סגור,8:30-11:30,סגור,סגור,סגור,סגור,,קופת חולים כללית
משמר הנגב,משמר הנגב,דרום,באר שבע,ד.נ.הנגב,31.364796,34.717968,08-9911208,סגור,סגור,סגור,סגור,סגור,סגור,סגור,,קופת חולים כללית
משמר העמק,משמר העמק,צפון,יזרעאל,ד.נ משמר העמק,32.610063,35.142673,04-9896110,פרטני,פרטני,7:30-8:30,פרטני,פרטני,סגור,סגור,,קופת חולים כללית
מתן,מתן,מרכז,פתח תקווה,הדר 38,32.1557354,34.9736044,"03-9028200 ,03-9028200",8:00-13:30,8:00-13:30,8:00-13:0016:00-18:00,9:30-11:00,סגור,סגור,סגור,,קופת חולים כללית
נאות מרדכי,נאות מרדכי,צפון,צפת,ד.נ גליל עליון,33.159785,35.595602,04-6948121,סגור,8:00-12:00 לסירוגין,סגור,סגור,סגור,סגור,סגור,,קופת חולים כללית
נעורה,נאעורה,צפון,יזרעאל,נעורה,32.614466,35.393234,04-6070068,8:00-14:00,סגור,8:00-18:00,8:00-14:00,סגור,8:00-13:00,סגור,,משרד הבריאות
נגבה,נגבה,אשקלון,אשקלון,ד.נ לכיש צפון,31.662547,34.679561,08-6774905,סגור,7:00-11:00,סגור,7:00-10:00,סגור,סגור,סגור,,קופת חולים כללית
מרכז נהורה,נהורה,אשקלון,אשקלון,ד.נ. לכיש דרום,31.621321,34.704496,08-6622222,8:00-12:00,סגור,16:00-19:00,8:00-12:00,8:00-12:00,סגור,סגור,,קופת חולים כללית
נהלל,נהלל,צפון,יזרעאל,ד.נ עמק יזרעאל,32.690807,35.19609,04-6515012,סגור,סגור,סגור,סגור,סגור,סגור,סגור,,קופת חולים כללית
נהריה אוסישקין,נהריה,צפון,עכו,יפה נוף 28,32.9990466,35.100843,04-9824079,12:00-15:00,12:00-15:00,10:00-12:00,8:00-14:00,13:00-15:00,10:00-12:00,סגור,,קופת חולים כללית
נהריה טרומפלדור,נהריה,צפון,עכו,זמנהוף 2,33.0237013,35.1083068,04-9822712,8:00-12:006:00-19:00,סגור,16:00-19:00,סגור,סגור,סגור,סגור,,קופת חולים כללית
נהריה יוספטל,נהריה,צפון,עכו,השרון 15,33.0061377,35.1034351,04-9821292,16:00-19:00,סגור,16:00-19:00,סגור,סגור,סגור,סגור,,קופת חולים כללית
נהריה עמידר,נהריה,צפון,עכו,ההגנה 29,33.0210222,35.0968708,04-9922352,12:00-16:00,8:00-14:00,15:00-19:00,8:00-12:00,8:00-12:00,8:00-12:00,סגור,,קופת חולים כללית
נוג'ידאת,נוג'ידאת,צפון,כנרת,נוג'ידאת,32.812755,35.374468,04-6730984,סגור,סגור,7:30-14:30,7:30-17:00,סגור,7:30-14:30,סגור,,משרד הבריאות
נווה זאב,"נווה זאב ב""ש",דרום,באר שבע,שדרו יוהנה ז'בוטינסקי 30 באר -שבע,31.234266,34.768057,08-6416622,8:00-19:00,8:00-19:00,8:00-13:00,8:00-19:00,8:00-16:00,סגור,סגור,,מכבי שרותי בריאות
נוף העמק,מגדל העמק,צפון,יזרעאל,האיריס  מגדל העמק,32.675638,35.252244,04-6049200,סגור,סגור,סגור,סגור,סגור,סגור,סגור,,קופת חולים כללית
נופית,נופית,חיפה,חיפה,נופית,32.7585154,35.1479123,04-8807535,13:15-16:00,12:00-13:00,14:00-15:30,7:30-11:00,סגור,סגור,סגור,,קופת חולים כללית
נחל עוז,נחל עוז,אשקלון,אשקלון,ד.נ הנגב,31.47268,34.497675,08-6805214,10:00-12:00,סגור,10:00-12:00,סגור,סגור,סגור,סגור,,קופת חולים כללית
נחלים,נחלים,מרכז,פתח תקווה,נחלים,32.063802,34.908627,03-9093398,סגור,סגור,סגור,סגור,סגור,סגור,סגור,"בין התאריכים 25.8.13 - 29.8.13 התחנה סגורה, המטופלים יכולים לפנות לטיפות חלב סמוכות: יהוד, קרית סביונים, אור יהודה-גיורא ונווה מונסון",קופת חולים כללית
נחף א' + ב',נחף,צפון,עכו,נחף,32.934394,35.31837,04-9988084,8:00-16:00,8:00-18:00,8:00-16:00,8:00-16:00,8:00-16:00,8:00-13:00,סגור,,משרד הבריאות
נחשולים,נחשולים,חיפה,חדרה,ד.נ חוף הכרמל,32.61309,34.92225,04-6395500,סגור,סגור,סגור,סגור,סגור,סגור,סגור,,קופת חולים כללית
נחשונים,נחשונים,מרכז,פתח תקווה,קיבוץ נחשונים,32.063236,34.947011,"03-9386474 ,03-9386474",סגור,8:00-10:00,סגור,סגור,סגור,סגור,סגור,,קופת חולים כללית
נין,נין,צפון,יזרעאל,נין,32.635419,35.34658,04-6592103,8:00-20:00,8:00-14:00,סגור,8:00-14:00,סגור,סגור,סגור,,משרד הבריאות
ניצן,ניצן,אשקלון,אשקלון,ד.נ אבטח,31.737518,34.630804,08-6897199,סגור,סגור,11:00-19:00,סגור,סגור,סגור,סגור,,קופת חולים כללית
ניצנה,ניצנה,דרום,באר שבע,ד.נ חלוצה,30.8851,34.4219972,08-6561460,סגור,סגור,9:00-12:00,סגור,סגור,סגור,סגור,,קופת חולים כללית
ניצנים,ניצנים,אשקלון,אשקלון,ד.נ אבטח,31.717845,34.634636,"08-6729463 ,08-6721022",סגור,סגור,סגור,16:00-18:00,סגור,סגור,סגור,,קופת חולים כללית
ניר גלים,ניר גלים,מרכז,רחובות,ד.נ אבטח,31.82552,34.68254,08-8510020,8:00-16:00,16:00-18:00,סגור,סגור,סגור,סגור,סגור,,קופת חולים כללית
ניר דוד,ניר דוד,צפון,יזרעאל,ד.נ בית שאן,32.504062,35.457622,04-6488909,סגור,סגור,סגור,סגור,סגור,סגור,סגור,,קופת חולים כללית
ניר יפה,ניר יפה,צפון,יזרעאל,ד.נ גלבוע,32.568982,35.244896,04-6591491,סגור,סגור,סגור,סגור,סגור,סגור,סגור,,קופת חולים כללית
ניר יצחק,ניר יצחק,דרום,באר שבע,ד.נ הנגב,31.23604,34.356702,08-9983427,סגור,10:00-12:00,סגור,10:00-12:00,סגור,סגור,סגור,,קופת חולים כללית
ניר ישראל,ניר ישראל,אשקלון,אשקלון,ד.נ שדה גת,31.692156,34.638071,08-6724650,סגור,16:00-19:00,סגור,סגור,סגור,סגור,סגור,,קופת חולים כללית
ניר עוז,ניר עוז,דרום,באר שבע,ד.נ הנגב,31.309697,34.402075,08-9983777,סגור,סגור,סגור,סגור,8:00-12:00,סגור,סגור,,קופת חולים כללית
ניר עם,ניר עם,אשקלון,אשקלון,ד.נ חוף אשקלון,31.518459,34.580544,08-6809977,סגור,סגור,סגור,10:00-13:00,סגור,סגור,סגור,,קופת חולים כללית
ניר עציון,ניר עציון,חיפה,חדרה,ד.נ חוף הכרמל,32.699125,34.992526,04-9845710,סגור,סגור,סגור,סגור,סגור,סגור,סגור,,קופת חולים כללית
נירים,נירים,דרום,באר שבע,ד.נ הנגב,31.33573,34.394087,08-9985489,15:00-19:00,סגור,סגור,סגור,סגור,סגור,סגור,,קופת חולים כללית
נס ציונה,נס ציונה,מרכז,מרכז,השייטת 4 נס ציונה,31.932111,34.801327,08-9377661,8:30-16:00,08:00-17:00,סגור,8:30-16:00,8:30-16:00,8:30-12:00,סגור,,קופת חולים מאוחדת
נורדאו,נס ציונה,ירושלים,ירושלים,נורדאו 31,31.927384,34.802912,08-9408422,08:00-20:00,08:00-20:00,08:00-20:00,08:00-20:00,08:00-20:00,08:00-12:00,סגור,,מכבי שרותי בריאות
נס ציונה,נס ציונה,מרכז,רחובות,"האירוסים 53, קניותר נס-ציונה",31.932111,34.801327,"08-9305420 ,08-9305420",7:30-19:00,7:30-19:00,7:00-15:00,7:30-19:00,7:30-19:00,סגור,סגור,,קופת חולים כללית
נען,נען,מרכז,רמלה,קיבוץ מען,31.883208,34.859237,08-9442821,סגור,8:00-16:00,סגור,10:00-14:00,סגור,סגור,סגור,,קופת חולים כללית
שכ' הפועלים-תחנה ב',נצרת,צפון,נצרת,נצרת,32.699635,35.303546,04-6463991,8:00-15:00,8:00-19:00,8:00-14:00,8:00-20:00,8:00-14:00,8:00-13:00,סגור,,משרד הבריאות
שכ' כרום,נצרת,צפון,נצרת,נצרת,32.699635,35.303546,04-6556939,8:00-16:00,8:00-16:00,8:00-16:00,8:00-16:00,8:00-19:00,סגורה,סגור,,משרד הבריאות
צומת קשלה-ספאפרה,נצרת,צפון,נצרת,נצרת,32.699635,35.303546,04-6565301,8:00-16:00,8:00-20:00,8:00-16:00,8:00-19:00,8:00-20:00,8:00-14:00,סגור,,משרד הבריאות
שכ' מזרחית -תאופיק זיאד,נצרת,צפון,נצרת,נצרת,32.699635,35.303546,04-6012066,סגור,8:00-14:00,8:00-14:00,8:00-16:00,8:00-16:00,8:00-16:00,סגור,,משרד הבריאות
שכ' מזרחית-חורש,נצרת,צפון,נצרת,נצרת,32.699635,35.303546,04-6552680,8:00-14:00,7:30-15:30,7:30-15:30,7:30-15:30,7:30-15:30,7:30-15:30,סגור,,משרד הבריאות
שכ' ביר אל אמיר,נצרת,צפון,נצרת,נצרת,32.699635,35.303546,04-6453612,7:30-14:00,7:30-14:00,7:30-14:00,7:30-14:00,7:30-14:00,7:30-14:00,סגור,,משרד הבריאות
תחנת שוק,נצרת,צפון,נצרת,נצרת,32.699635,35.303546,,סגור,סגור,סגור,סגור,סגור,סגור,סגור,,משרד הבריאות
נצרת עלית א',נצרת עילית,צפון,יזרעאל,רח' נרקיסים 14,32.7076974,35.3169781,04-6576784,סגור,סגור,סגור,סגור,סגור,סגור,סגור,,משרד הבריאות
נצרת עלית ג',נצרת עילית,צפון,יזרעאל,רח' סביון (שושנים) 2א,32.711539,35.324812,04-6564637,8:00-20:00,8:00-14:00,8:00-14:00,8:00-20:00,8:00-14:00,8:00-13:00,סגור,,משרד הבריאות
הר יונה,נצרת עילית,צפון,יזרעאל,"רח'עד עד, 18",32.711539,35.324812,04-6450979,8:00-15:00,סגור,8:00-14:00,8:00-20:00,8:00-14:00,8:00-13:00,סגור,,משרד הבריאות
נשר תל חנן,נשר,חיפה,חיפה,רח' ברק 9,32.7649,35.049191,077-7911155,8:00-13:30,סגור,8:00-13:30,סגור,סגור,סגור,סגור,יש לפנות לתחנת הורדים,משרד הבריאות
נשר התפוז,נשר,חיפה,חיפה,רח' התפוז 23,32.7649,35.049191,077-5252172,סגור,8:00-15:00,סגור,סגור,סגור,סגור,סגור,יש לפנות לתחנת הורדים,משרד הבריאות
נשר הורדים,נשר,חיפה,חיפה,רח' הורדים 22,32.7649,35.049191,04-8218214,8:00-15:00,8:00-15:00,8:00-15:00,8:00-20:00,8:00-20:00,סגור,סגור,,משרד הבריאות
נתיב הלה,נתיב הלה,ירושלים,ירושלים,ד.נ האלה,31.687184,34.982523,02-9900220,סגור,סגור,10:00-13:00,סגור,סגור,סגור,סגור,,קופת חולים כללית
נתיב העשרה,נתיב העשרה,אשקלון,אשקלון,ד.נ חוף אשקלון,31.572407,34.539322,08-6891848,סגור,13:00-19:00,סגור,סגור,סגור,סגור,סגור,,קופת חולים כללית
נתיבות ב',נתיבות,דרום,באר שבע,אלפסי,31.426292,34.599754,08-9932833,8:00-16:00,8:00-20:00,8:00-16:00,8:00-16:00,8:00-20:00,סגור,סגור,,משרד הבריאות
נתיבות ג',נתיבות,דרום,באר שבע,הרב צבאן,31.417546,34.581189,08-9931213,8:00-20:00,8:00-20:00,8:00-16:00,8:00-16:00,8:00-20:00,סגור,סגור,,משרד הבריאות
איכלוב,נתניה,מרכז,השרון,איכלוב 8,32.3391303,34.8580405,09-8610904,8:00-20:00,8:00-16:00,8:00-16:00,8:00-16:00,8:00-20:00,8:00-12:00,סגור,"בית ינאי, ויתקין ,מכמורת, גבעת שפירא, גבעת חן",משרד הבריאות
סלע,נתניה,מרכז,השרון,יוספטל 28,32.3268536,34.8666938,09-8824926,8:00-16:00,8:00-20:00,8:00-16:00,8:00-16:00,8:00-16:00,סגור,סגור,,משרד הבריאות
אזורים,נתניה,מרכז,השרון,קריניצי 2,32.2939748,34.8494091,09-8354334,8:00-16:00,8:00-20:00,8:00-20:00,8:00-16:00,8:00-20:00,8:00-12:00,סגור,,משרד הבריאות
נווה דוד,נתניה,מרכז,השרון,הרצוג14,32.3417817,34.8568509,09-844477,8:00-19:00,8:00-19:00,8:00-16:00,8:00-19:00,8:00-16:00,8:00-12:00,סגור,"אביחייל, צוקי ים, בית חרות, ביתן אהרון, גבעת חיים, חבצלת השרון",משרד הבריאות
קרית נורדאו,נתניה,מרכז,השרון,נתן  המשורר,32.280076,34.849128,09-8359939,8:00-20:00,8:00-16:00,8:00-16:00,8:00-20:00,8:00-17:00,8:00-12:00,סגור,,משרד הבריאות
ארוסים,נתניה,מרכז,השרון,רותם 129,32.2854724,34.8505761,09-8356928,8:00-20:00,8:00-16:00,8:00-16:00,8:00-19:00,8:00-16:00,8:00-12:00,סגור,"אבן יהודה, אודים, געש, בית יהושע, תל יצחק, רשפון, תל מונד, מ.א. לב השרון",משרד הבריאות
ותיקים,נתניה,מרכז,השרון,אונטרמן 7,32.3098742,34.879363,09-8873774,8:00-20:00,8:00-20:00,8:00-16:00,8:00-16:00,8:00-16:00,8:00-12:00,סגור,"בית יצחק, נורדיה, הדר עם, כפר ידידיה, מ.א. עמק חפר מרכז",משרד הבריאות
דגניה,נתניה,מרכז,השרון,דגניה 92,32.296044,34.8732676,09-8322714,8:00-20:00,8:00-17:00,8:00-20:00,8:00-16:00,8:00-17:00,8:00-12:00,סגור,,משרד הבריאות
הנביאים,נתניה,מרכז,השרון,ירמיהו,32.300454,34.855291,09-8648800,סגור,8:00-16:00,8:00-13:0016:00-19:00,8:00-14:30,8:00-16:00,סגור,סגור,,קופת חולים כללית
נאות גנים,נתניה,מרכז,השרון,זמבה  שיכון ותיקים,32.317675,34.88721,09-8616245,סגור,סגור,סגור,סגור,סגור,סגור,סגור,,קופת חולים כללית
קרית השרון,נתניה,מרכז,השרון,טום לנטוס,32.303444,34.86961,"09-8821922 ,09-7497700",7:30-13:00  16:00-19:30,7:30-16:30,8:00-13:00,7:30-16:30,7:30-16:30,8:00-12:00,סגור,,קופת חולים כללית
סאסא,סאסא,צפון,צפת,ד.נ מרום הגליל,33.02866,35.394569,"04-6988521 ,04-6988521",סגור,סגור,10:00-13:30,סגור,סגור,סגור,סגור,,קופת חולים כללית
סג'ור,סג'ור,צפון,עכו,סג'ור,32.936913,35.355971,04-9583250,8:00-16:00,8:00-18:00,8:00-14:00,8:00-16:00,8:00-16:00,8:00-14:00,סגור,,משרד הבריאות
סולם,סולם,צפון,יזרעאל,סולם,32.608813,35.3318365,04-6420289,8:00-14:00,8:00-14:00,8:00-14:00,8:00-18:00,8:00-14:00,8:00-13:00,סגור,,משרד הבריאות
סחנין א,סח'נין,צפון,עכו,סחנין,32.862983,35.292776,04-6741103,8:00-16:00,8:00-16:00,8:00-16:00,8:00-18:00,8:00-16:00,סגור,סגור,,משרד הבריאות
סחנין ב',סח'נין,צפון,עכו,סחנין,32.862983,35.292776,04-6743551,8:00-16:00,8:00-16:00,8:00-16:00,8:00-16:00,8:00-16:00,סגור,סגור,,משרד הבריאות
סחנין ג',סח'נין,צפון,עכו,סחנין,32.862983,35.292776,04-6743028,8:00-16:00,8:00-16:00,8:00-16:00,8:00-18:00,8:00-16:00,8:00-13:00,סגור,,משרד הבריאות
סחנין ד',סח'נין,צפון,עכו,סחנין,32.862983,35.292776,04-6746151,8:00-16:00,8:00-18:00,8:00-16:00,8:00-16:00,8:00-16:00,סגור,סגור,,משרד הבריאות
ספיר,ספיר,דרום,באר שבע,ד.נ הערבה,30.613623,35.184144,"08-6592223 ,08-6592234",סגור,סגור,8:30-11:30,סגור,סגור,סגור,סגור,,קופת חולים כללית
עבדון,עבדון,צפון,עכו,ד.נ גליל מערבי,33.048792,35.179128,"04-9807720 ,04-9807720",7:00-16:00,7:00-18:00,7:00-16:00,7:00-15:00,7:00-14:00  15:30-19:00,7:00-11:00,סגור,,קופת חולים כללית
עבלין א,עבלין,צפון,עכו,עבלין,32.822533,35.192265,04-9866024,8:00-18:00,8:00-16:00,8:00-16:00,8:00-16:00,8:00-16:00,סגור,סגור,,משרד הבריאות
עבלין ב',עבלין,צפון,עכו,עבלין,32.822533,35.192265,04-9502339,8:00-16:00,8:00-16:00,8:00-16:00,8:00-16:00,8:00-16:00,סגור,סגור,,משרד הבריאות
עברון,עברון,צפון,עכו,ד.נ אושרת,32.991149,35.100031,04-9857888,סגור,סגור,סגור,סגור,סגור,סגור,סגור,,קופת חולים כללית
עוזיר,עוזייר,צפון,יזרעאל,עוזיר,32.807105,35.26571,04-6517587,8:00-14:00,8:00-14:00,סגור,8:00-20:00,8:00-14:00,8:00-13:00,סגור,,משרד הבריאות
עומר,עומר,דרום,באר שבע,רותם 10,31.2657015,34.8490799,08-6253225,סגור,סגור,סגור,סגור,סגור,סגור,סגור,,קופת חולים כללית
עיר הכרמל - עוספיה א',עוספיה,חיפה,חיפה,,32.720737,35.059087,04-8391813,8:00-14:00,8:00-14:00,8:00-14:00,8:00-16:00,8:00-16:00,סגור,סגור,,משרד הבריאות
עיר הכרמל - עוספיה ב',עוספיה,חיפה,חיפה,,32.720737,35.059087,04-8390069,8:00-14:00,8:00-14:00,8:00-14:00,8:00-14:00,8:00-14:00,8:00-12:30,סגור,,משרד הבריאות
עידן,עידן,דרום,באר שבע,ד.נ הערבה,30.806291,35.299946,08-6581033,סגור,9:00-13:00,סגור,סגור,9:00-12:00,סגור,סגור,,קופת חולים כללית
עילבון,עיילבון,צפון,כנרת,עילבון,32.838541,35.398486,04-6784544,7:30-14:30,8:00-17:00,8:00-17:00,8:00-15:00,7:30-14:30,7:30-13:00,סגור,,משרד הבריאות
עילוט,עילוט,צפון,נצרת,עילוט,32.717382,35.271342,04-6461702,8:00-14:00,8:00-16:00,8:00-16:00,8:00-16:00,8:00-20:00,סגור,סגור,,משרד הבריאות
עין אברהים,עין אברהים,חיפה,חדרה,עין אברהים,32.535879,35.145327,04-6114183,8:00-13:30,8:00-13:30,8:00-13:30,8:00-13:30,8:00-13:30,סגור,סגור,,משרד הבריאות
עין אל אסד,עין אל אסד,צפון,צפת,עין אל אסד,32.938908,35.39906,04-6980392,סגור,8:00-14:00,סגור,סגור,סגור,סגור,סגור,,משרד הבריאות
עין גב,עין גב,צפון,כנרת,"עין גב,ד.נ עמק הירדן 14940",32.783393,35.640119,04-6658105,סגור,סגור,10:00-12:00,10:00-12:00,סגור,סגור,סגור,,קופת חולים כללית
עין גדי,עין גדי,דרום,באר שבע,ד.נ ים המלח,31.451191,35.383571,02-6594743,בתאום מראש,סגור,סגור,סגור,סגור,סגור,סגור,,קופת חולים כללית
עין דור,עין דור,צפון,יזרעאל,ד.נ גליל תחתון,32.655468,35.416388,04-6770409,סגור,סגור,סגור,סגור,סגור,סגור,סגור,,קופת חולים כללית
עין הבשור,עין הבשור,דרום,באר שבע,מושב עין הבשור,31.280895,34.443446,08-9982228,סגור,8:00-13:00,סגור,סגור,סגור,סגור,סגור,,מכבי שרותי בריאות
עין החורש,עין החורש,מרכז,השרון,ד.נ עמק חפר,32.385871,34.939994,"04-6127316 ,04-6127316",סגור,13:00-13:00,8:00-10:00,סגור,סגור,סגור,סגור,,קופת חולים כללית
עין המפרץ,עין המפרץ,צפון,עכו,ד.נ אושרת,32.902581,35.09304,"04-9852222 ,04-9852222",סגור,8:00-16:00,סגור,8:00-13:00,סגור,סגור,סגור,,קופת חולים כללית
עין הנציב,עין הנציב,צפון,יזרעאל,ד.נ בית שאן,32.47071,35.501973,04-6062907,סגור,סגור,סגור,סגור,סגור,סגור,סגור,,קופת חולים כללית
עין השופט,עין השופט,צפון,יזרעאל,עין השופט,32.597439,35.100205,"04-9895229 ,04-9895229",7:30-13:00,סגור,15:00-18:00,סגור,סגור,9:30-11:00,סגור,,קופת חולים כללית
עין השלושה,עין השלושה,דרום,באר שבע,ד.נ הנגב,31.351722,34.403471,08-9985704,סגור,סגור,סגור,סגור,סגור,סגור,סגור,,קופת חולים כללית
עין חרוד איחוד,עין חרוד איחוד,צפון,יזרעאל,דואר עין חרוד,32.563099,35.391666,04-6486716,סגור,סגור,סגור,סגור,סגור,סגור,סגור,,קופת חולים כללית
עין חרוד מאוחד,עין חרוד מאוחד,צפון,יזרעאל,דואר עין חרוד,32.556806,35.392995,04-6485310,סגור,סגור,סגור,סגור,סגור,סגור,סגור,,קופת חולים כללית
עין יהב,עין יהב,דרום,באר שבע,ד.נ הערבה,30.658757,35.239656,08-6581073,סגור,סגור,10:00-12:00,סגור,סגור,סגור,סגור,,קופת חולים כללית
עין יעקב,עין יעקב,צפון,עכו,ד.נ מעלה יוסף,33.009312,35.229024,"04-9976486 ,04-9976486",סגור,יחוסנו במלות מרכז,סגור,8:00-10:00,סגור,סגור,סגור,,קופת חולים כללית
עין מאהל א',עין מאהל,צפון,נצרת,עין מאהל,32.723224,35.352582,04-6470884,סגור,8:00-14:00,8:00-14:00,8:00-14:00,8:00-14:00,8:00-14:00,סגור,,משרד הבריאות
עין מאהל ב',עין מאהל,צפון,נצרת,עין מאהל,32.723224,35.352582,04-6455537,8:00-14:00,8:00-12:00,8:00-14:00,8:00-14:00,8:00-14:00,סגור,סגור,,משרד הבריאות
עין נקובא,עין נקובא,ירושלים,ירושלים,ככר המסגד,31.79391,35.119683,02-5332435,סגור,8:00-14:30,סגור,8:00-16:00,סגור,סגור,סגור,,משרד הבריאות
עין קניא,עין קניא,צפון,צפת,עין קניא,33.2370087,35.7304612,04-6984253,סגור,סגור,8:00-14:00,סגור,8:00-15:00,סגור,סגור,,משרד הבריאות
עין שמר,עין שמר,חיפה,חדרה,ד.נ מנשה,32.461917,35.00673,04-6374161,סגור,סגור,סגור,סגור,סגור,סגור,סגור,,קופת חולים כללית
עינת,עינת,מרכז,פתח תקווה,קיבוץ עינת,32.081948,34.937514,03-9385175,סגור,16:00-18:00,סגור,סגור,9:00-11:00,סגור,סגור,,קופת חולים כללית
עכו לאומית,עכו,צפון,עכו,לוחמי הגיטאות 23,32.9283353,35.0728726,04-9559405,8:00-16:00,8:00-16:00,8:00-16:00,8:00-16:00,8:00-18:00,סגור,סגור,,משרד הבריאות
עכו,עכו,צפון,עכו,בן עמי 39 עכו,32.9262348,35.0759204,04-9017106,8:30-16:00,8:30-16:00,11:00-19:00,סגור,8:30-15:30,סגור,סגור,,קופת חולים מאוחדת
הארבעה,עכו,צפון,עכו,דרך הארבעה 41,32.9281023,35.0796853,04-9851158,8:00-11:3016:00-18:30,8:00-13:0017:00-18:30,8:00-12:30,12:30-18:30,8:00-11:30,סגור,סגור,,מכבי שרותי בריאות
עכו חומש,עכו,צפון,עכו,שלמה בן יוסף 8,32.9269764,35.0700221,04-9911745,10:00-16:00,7:30-14:00,7:30-18:00,8:00-14:00,7:30-14:00,סגור,סגור,,קופת חולים כללית
עכו עמידר,עכו,צפון,עכו,בורלה,32.933052,35.082678,04-9810089,11:30-19:00,7:30-15:00,7:30-15:00,8:00-12:30,7:30-15:00,סגור,סגור,,קופת חולים כללית
עכו צפון,עכו,צפון,עכו,ינוש קורצק 14,32.9298936,35.0784735,04-9817941,10:00-16:00,9:00-18:00,9:00-14:00,סגור,סגור,סגור,סגור,,קופת חולים כללית
עכו קוטב,עכו,צפון,עכו,שפירא 24,32.9372266,35.0776763,04-9813650,8:00-15:30,10:30-18:00,8:00-15:30,8:00-13:00,8:00-15:30,סגור,סגור,,קופת חולים כללית
עלומים,עלומים,דרום,באר שבע,ד.נ הנגב,31.453049,34.514711,08-9937280,10:00-12:00,סגור,10:00-12:00,10:00-12:00,10:00-12:00,סגור,סגור,,קופת חולים כללית
האורן,עלי,ירושלים,ירושלים,האורן 10 ב',32.071177,35.266859,02-9947313,8:00-12:00,8:00-12:00,סגור,8:00-12:00  16:00-19:00,8:00-13:00,סגור,סגור,,מכבי שרותי בריאות
עלי,עלי,מרכז,רמלה,ד.נ אפרים,32.071177,35.266859,02-9947070,7:30-13:3016:30-20:00,8:00-16:00,11:00-15:00,8:00-9:30,פעמיים בחודש 7:30 -14:00 פעמיים בחודש  12:00-14:00,8:00-12:00 פעמיים בחודש,סגור,,קופת חולים כללית
עמינדב,עמינדב,ירושלים,ירושלים,ד.נ. הרי יהודה 90885,31.751705,35.142428,02-6438275,סגור,סגור,14:00-18:00,8:00-16:00,סגור,סגור,סגור,,קופת חולים כללית
עמיעד,עמיעד,צפון,צפת,ד.נ גליל עליון,32.930354,35.540521,04-6909566,סגור,סגור,סגור,סגור,סגור,סגור,סגור,,קופת חולים כללית
עמיר,עמיר,צפון,צפת,ד.נ גליל עליון,33.178725,35.622082,"04-6954242 ,04-6954101",סגור,סגור,סגור,12:00-16:00,סגור,סגור,סגור,,קופת חולים כללית
עמנואל,עמנואל,מרכז,פתח תקווה,"כיכר הרמב""ם",32.160994,35.135913,"09-7921535 ,09-7921535",9:30-13:0016:00-18:00,8:00-13:00,9:30-13:0015:00-17:00,8:00-16:00,9:30-13:00,8:00-12:00,סגור,,קופת חולים כללית
עפולה ב',עפולה,צפון,יזרעאל,רח' וולפסון עפולה,32.610493,35.287922,"04-6527615, 04-6594930",8:00-20:00,8:00-20:00,8:00-20:00,8:00-20:00,8:00-20:00,8:00-13:00,סגור,,משרד הבריאות
דרוקר,עפולה,צפון,יזרעאל,גבעת המורה שכ' דרוקר,32.62071,35.324461,04-6596887,8:00-14:00,8:00-14:00,8:00-20:00,8:00-14:00,8:00-14:00,8:00-13:00,סגור,,משרד הבריאות
עפרה,עפרה,מרכז,רמלה,"ט' באייר, עפרה",31.954771,35.261495,"02-9706888 ,02-9706888",8:00-13:00,11:00-18:30,סגור,סגור,8:00-13:00,8:00-12:00 אחת לחודש,סגור,,קופת חולים כללית
עראבה א',עראבה,צפון,עכו,עראבה,32.85421,35.33339,04-6741929,8:00-16:00,8:00-18:00,8:00-16:00,8:00-16:00,8:00-16:00,סגור,סגור,,משרד הבריאות
עראבה ב',עראבה,צפון,עכו,עראבה,32.85421,35.33339,04-6743441,8:00-16:00,8:00-16:00,8:00-16:00,8:00-16:00,8:00-16:00,8:00-16:00,סגור,,משרד הבריאות
עראבה ג',עראבה,צפון,עכו,עראבה,32.85421,35.33339,04-6744184,8:00-16:00,8:00-16:00,8:00-16:00,8:00-16:00,8:00-16:00,8:00-13:00,סגור,,משרד הבריאות
עראבה ד',עראבה,צפון,עכו,עראבה,32.85421,35.33339,04-6742650,8:00-16:00,8:00-16:00,8:00-18:00,8:00-16:00,8:00-16:00,8:00-13:00,סגור,,משרד הבריאות
עראמשה,עראמשה,צפון,עכו,עראמשה,33.083193,35.224084,,8:00-14:00,8:00-14:00,8:00-14:00,8:00-16:00,סגור,סגור,סגור,,משרד הבריאות
ערב אל נעים,ערב אל נעים,צפון,עכו,ערב אל נעים,32.888073,35.290128,050-6622403,8:00-16:00,8:00-16:00,סגור,סגור,סגור,סגור,סגור,,משרד הבריאות
ערד א',ערד,דרום,באר שבע,חן 21,31.2581961,35.2120719,08-9957029,8:00-20:00,8:00-16:00,8:00-16:00,8:00-16:00,8:00-16:00,סגור,סגור,,משרד הבריאות
ערד ב',ערד,דרום,באר שבע,הקנאים 43,31.2587815,35.2056555,08-9950989,8:00-16:00,8:00-16:00,8:00-16:00,8:00-16:00,8:00-16:00,סגור,סגור,,משרד הבריאות
ערוגות,ערוגות,אשקלון,אשקלון,ד.נ שקמים,31.732798,34.77624,"08-8581904 ,08-8580743",12:00-19:00,סגור,7:00-14:00,7:00-14:00,סגור,סגור,סגור,,קופת חולים כללית
ערערה א,ערערה,חיפה,חדרה,ערערה,32.49663,35.098052,04-6351106,8:00-13:30,8:00-13:30,8:00-13:30,8:00-13:30,8:00-20:00,סגור,סגור,,משרד הבריאות
עשרת,עשרת,מרכז,רחובות,,31.824913,34.747459,"08-8591766 ,08- 8591766",8:00-14:00,7:30-15:00,12:00-19:00,8:00-12:00,סגור,סגור,סגור,,קופת חולים כללית
עתלית,עתלית,חיפה,חדרה,חרוב 62,32.68836,34.941099,"04-9037300 ,04-9037300",8:00-16:00,7:30-16:00,15:00-19:00,7:30-14:00,12:00-19:00,8:00-14:30,סגור,,קופת חולים כללית
עתניאל,עתניאל,דרום,באר שבע,ד.נ הר חברון,31.438812,35.028163,,סגור,9:30-10:30,סגור,9:30-10:30,9:30-10:30,סגור,סגור,,קופת חולים לאומית
פארן,פארן,דרום,באר שבע,ד.נ הערבה,30.362646,35.155149,08-6581075,סגור,סגור,סגור,סגור,סגור,סגור,סגור,,קופת חולים כללית
פדואל,פדואל,ירושלים,ירושלים,"פדואל, ד.נ מודיעין",32.062479,35.052619,,15:30-19:30,10:30-12:30,סגור,סגור,סגור,סגור,סגור,,קופת חולים לאומית
נווה עובד,פורייה - נווה עובד,צפון,כנרת,נווה עובד,32.747114,35.537757,04-6752043,סגור,8:00-14:00,סגור,8:00-18:00,סגור,סגור,סגור,,משרד הבריאות
פסגות,פסגות,מרכז,רמלה,ד.נ מזרח בנימין,31.899984,35.223923,"02-9973205 ,02-9973025",12:00-13:00,סגור,סגור,סגור,8:00-13:00,סגור,סגור,,קופת חולים כללית
פסוטה,פסוטה,צפון,עכו,פסוטה,33.049562,35.307991,04-9870530,11:00-16:00,8:00-16:00,11:00-16:00,8:00-18:00,8:00-14:00,סגור,סגור,,משרד הבריאות
הדר,פרדס חנה-כרכור,חיפה,חדרה,שכ' גאולה,32.475398,34.954992,04-6378940,8:00-15:30,8:00-15:30,8:00-15:30,8:00-15:30,8:00-15:30,סגור,סגור,,משרד הבריאות
כרכור,פרדס חנה-כרכור,חיפה,חדרה,המייסדים כרכור,32.477678,34.990917,077-9400704,8:00-20:00,8:00-15:30,8:00-15:30,8:00-15:30,8:00-15:30,סגור,סגור,"כפר פינס, עין עירון, גן השומרון",משרד הבריאות
מושבה,פרדס חנה-כרכור,חיפה,חדרה,35'רחוב המעלה,32.473272,34.972198,077-3378842,8:00-15:30,8:00-15:30,8:00-20:00,8:00-15:30,8:00-15:30,סגור,סגור,"חריש, קציר, תלמי אלעזר,",משרד הבריאות
נוה מרחב,פרדס חנה-כרכור,חיפה,חדרה,רחוב עציון פינת דביר,32.46995,34.962239,077-7292652,8:00-15:30,8:00-15:30,8:00-15:30,8:00-20:00,8:00-15:30,סגור,סגור,,משרד הבריאות
פרדסיה,פרדסיה,מרכז,השרון,שבזי1,32.3028787,34.9107672,09-8945102,8:00-20:00,8:00-15:00,8:00-15:00,8:00-15:00,8:00-15:00,סגור,סגור,"צורן, אליכין, חוגלה, בני ציון, כפר הרוא""ה, גאולי תימן",משרד הבריאות
נוה עוז,פתח תקווה,מרכז,פתח תקווה,אלכסנדר זייד 34,32.0773276,34.8640224,03-5254100,7:30-20:00,7:30-20:00,7:30-15:30,7:30-15:30,7:30-15:30,8:00-13:00,סגור,,משרד הבריאות
אם המושבות,פתח תקווה,מרכז,פתח תקווה,נס ציונה 5,32.1025886,34.8732684,03-9241885,8:00-20:00,8:00-20:00,8:00-20:00,7:30-20:00,8:00-20:00,סגור,סגור,,משרד הבריאות
הדר גנים,פתח תקווה,מרכז,פתח תקווה,מנחם בגין 50,32.0732075,34.9068678,03-9323857,7:30-20:00,7:30-20:00,7:30-20:00,7:30-20:00,7:30-20:00,8:00-13:00,סגור,,משרד הבריאות
"כ""ט בנובמבר",פתח תקווה,מרכז,פתח תקווה,"כ""ט בנובמבר 1",32.0942825,34.8953218,03-9342888,7:30-15:30,7:30-20:00,7:30-20:00,7:30-20:00,7:30-20:00,8:00-13:00,סגור,,משרד הבריאות
אחד העם,פתח תקווה,מרכז,פתח תקווה,אחד העם 33,32.0842581,34.8877808,03-9315212,7:30-20:00,7:30-20:00,7:30-13:00,7:30-20:00,7:30-15:30,7:30-13:00,סגור,,משרד הבריאות
בייליס,פתח תקווה,מרכז,פתח תקווה,בייליס 14,32.0945052,34.8814461,03-9309614,7:30-20:00,8:00-16:00,8:00-16:00,7:30-13:30,7:30-15:30,8:00-20:00,סגור,,משרד הבריאות
היבנר,פתח תקווה,מרכז,פתח תקווה,היבנר 3,32.0802359,34.8785906,03-9213958,7:30-20:00,8:00-20:00,7:30-20:00,7:30-15:30,7:30-20:00,8:00-13:00,סגור,,משרד הבריאות
יוספטל,פתח תקווה,מרכז,פתח תקווה,קהילת פרג 5,32.092367,34.9056084,03-9306962,7:30-15:30,8:00-20:00,8:00-16:00,7:30-15:30,7:30-16:00,8:00-13:00,סגור,,משרד הבריאות
קריית הרב סלומון,פתח תקווה,מרכז,פתח תקווה,אונטרמן 4,32.0996197,34.899113,03-9300542,7:30-15:30,7:30-20:00,7:30-15:30,7:30-20:00,7:30-15:30,סגור,סגור,,משרד הבריאות
שיכון עובדי בילינסון,פתח תקווה,מרכז,פתח תקווה,פרופ' טור 5,32.0863012,34.8697079,03-9219847,7:30-20:00,7:30-16:00,7:30-20:00,7:30-20:00,7:30-20:00,8:00-13:00,סגור,,משרד הבריאות
,פתח תקווה,מרכז,פתח תקווה,החמישה 2,32.0720649,34.8934239,03-9321292,7:30-20:00,7:30-20:00,7:30-15:30,7:30-15:30,7:30-20:00,08:00-13:00,סגור,,משרד הבריאות
,צאלים,דרום,באר שבע,ד.נ חלוצה,31.203909,34.533359,08-9989252,סגור,סגור,9:00-12:00,סגור,סגור,סגור,סגור,,קופת חולים כללית
,צובה,ירושלים,ירושלים,ד.נ ערי יהודה,31.784352,35.117952,"02-5347701 ,02-5347701",סגור,סגור,סגור,סגור,14:00-17:00,סגור,סגור,,קופת חולים כללית
,צוחר,דרום,באר שבע,ד.נ הנגב,31.23717,34.426444,08-9118222,10-13/16-19,8-15,10-13/16-19,סגור,10-13:30,סגור,סגור,,קופת חולים כללית
,צופר,דרום,באר שבע,ד.נ הערבה,30.559394,35.181474,08-6582030,סגור,סגור,סגור,8:00-10:00,סגור,סגור,סגור,,קופת חולים כללית
,צור יגאל,מרכז,פתח תקווה,"שד' הדקלים, צור יגאל",32.209761,34.987756,"09-7499800 ,09-7499800",16:00-19:00,9:30-12:3016:00-19:00,9:30-12:30,9:30-12:30,9:30-12:3016:30-19:00,8:00-12:00,סגור,,קופת חולים כללית
,צור יצחק,מרכז,פתח תקווה,,32.241478,34.997998,09-8930800,7:30-13:30,7:30-13:00,16:00-19:00,סגור,7:30-13:00,סגור,סגור,,קופת חולים כללית
,צוריאל,צפון,עכו,ד.נ.מעלה הגליל,33.006488,35.31479,"04-9971557 ,04-9971557",סגור,סגור,סגור,סגור,סגור,סגור,סגור,,קופת חולים כללית
,צורן,מרכז,השרון,דרך לב השרון,32.287673,34.945224,"09-8947205 ,09-8947205",7:30-13:00 17:30-19:00,8:00-11:3016:00-19:00,17:30-19:00,8:00-13:00,7:30-11:3016:00-19:00,סגור,סגור,,קופת חולים כללית
,ציפורי,צפון,יזרעאל,ד.נ גליל תחתון,32.746748,35.276351,04-6464460,סגור,סגור,סגור,סגור,סגור,סגור,סגור,,קופת חולים כללית
,צפת,צפון,צפת,רח' אנילביץ',32.964648,35.495997,04-6970140,סגור,8:00-15:00,סגור,8:00-20:00,8:00-18:00,סגור,סגור,,משרד הבריאות
,צפת,צפון,צפת,מרכז קליטה סביוני כנען,32.964648,35.495997,04-6921476,סגור,סגור,סגור,סגור,סגור,סגור,סגור,,משרד הבריאות
,צפת,צפון,צפת,"צה""ל 12 
מרכז קליטה צה""ל 9",32.964648,35.495997,04-6974292,סגור,סגור,סגור,סגור,סגור,סגור,סגור,,משרד הבריאות
,צפת,צפון,צפת,"רח' צה""ל 7",32.964648,35.495997,04-6973420,8:00-14:00,8:00-20:00,8:00-14:00,סגור,8:00-14:00,סגור,סגור,,משרד הבריאות
,צפת,צפון,צפת,שכונת כנען,32.97128,35.506822,04-6920984,8:00-20:00,8:00-16:00,8:00-20:00,8:00-16:00,8:00-16:00,8:00-13:00,סגור,,משרד הבריאות
,צפת,צפון,צפת,שכונת מנחם בגין,32.97128,35.506822,04-6923769,8:00-16:00,8:00-15:00,8:00-20:00,סגור,8:00-18:00,סגור,סגור,,משרד הבריאות
,צפת,צפון,צפת,רח' הרצל,32.964648,35.495997,04-6921081,8:00-19:00,8:00-16:00,8:00-16:00,8:00-16:00,8:00-18:00,סגור,סגור,,משרד הבריאות
,צרופה,חיפה,חדרה,ד.נ.חוף הכרמל,32.647822,34.946455,"04-9840667 ,04-9840667",7:30-15:00,8:00-11:00,7:30-15:30,7:30-14:30,סגור,סגור,סגור,,קופת חולים כללית
,צרעה,ירושלים,ירושלים,ד.נ שמשון,31.762653,34.966931,"02-9908520 ,02-9908520",סגור,8:00-11:00,סגור,8:00-16:00,סגור,סגור,סגור,,קופת חולים כללית
,קבוצת יבנה,מרכז,רחובות,קבוצת יבנה,31.8155449,34.7218882,08-8548300,סגור,סגור,9:00-13:00,סגור,סגור,סגור,סגור,,קופת חולים כללית
,קדומים,ירושלים,ירושלים,"קדומים, רח יהלום 3",32.21239,35.157388,,סגור,8:00-16:00,11:00-13:00,11:00-17:00,סגור,סגור,סגור,,קופת חולים לאומית
,קדומים,מרכז,פתח תקווה,ד.נ שומרון,32.21239,35.157388,"09-7921311 ,09-7921311",סגור,8:00-15:00,סגור,8:00-15:00,7:30-15:00,סגור,סגור,,קופת חולים כללית
,קדימה,מרכז,השרון,בן צבי,32.277811,34.911157,"09-8315500 ,09/8315500",8:00-12:00,8:00-11:30,סגור,8:00-12:30,8:00-15:00,סגור,סגור,,קופת חולים כללית
,קדמת צבי,צפון,צפת,קדמת צבי,33.028822,35.697686,"04-6963258 ,04-6963258",סגור,סגור,12:00-15:30,סגור,סגור,סגור,סגור,,קופת חולים כללית
,קדרים,צפון,צפת,ד.נ מרום הגליל,32.898886,35.471565,"04-6986225 ,04-6986225",סגור,סגור,סגור,8:00-9:00,סגור,סגור,סגור,,קופת חולים כללית
,קוממיות,אשקלון,אשקלון,ד.ה שדה גת,31.662583,34.7293,08-6814406,סגור,סגור,8:00-12:30,סגור,סגור,סגור,סגור,,קופת חולים כללית
,סעד,דרום,באר שבע,קיבוץ סעד,31.47375,34.533243,08-6800412,9:00-14:00  16:00-18:00,9:00-14:00  16:00-18:00,9:00-10:00,8:00-15:00,7:30-9:00,7:30-9:00,סגור,,מכבי שרותי בריאות
,קליה,ירושלים,ירושלים,ד.נ חבל יריחו,31.749896,35.466131,02-9936255,סגור,סגור,14:30-15:30,סגור,סגור,9:00-10:00,סגור,,קופת חולים כללית
,קלנסואה,מרכז,השרון,קלנסואה,32.285344,34.985738,09-8780387,8:00-20:00,8:00-16:00,8:00-20:00,8:00-16:00,8:00-20:00,8:00-12:00,סגור,,משרד הבריאות
,קלנסואה,מרכז,השרון,קלנסואה,32.285344,34.985738,09-8780271,8:00-16:00,8:00-20:00,8:00-16:00,8:00-20:00,8:00-16:00,8:00-12:00,סגור,,משרד הבריאות
,קציר,חיפה,חדרה,ד.נ מנשה,32.487656,35.104082,04-62535995,10:00-11:30 ; 15:30-17:00,10:00-11:30 ; 15:30-17:00,סגור,8:30-10:00,10:00-11:30,סגור,סגור,,קופת חולים כללית
,קצרין,צפון,צפת,המשושים 26,32.9928237,35.686225,04-6962819,סגור,8:00-15:00,סגור,8:00-15:00,סגור,סגור,סגור,,משרד הבריאות
,קצרין,צפון,צפת,מרכז מסחרי איתן,32.990998,35.689865,,סגור,סגור,סגור,סגור,7:30-13:30,סגור,סגור,,קופת חולים לאומית
,קצרין,צפון,צפת,מרכז קצרין ת.ד 55,32.990998,35.689865,"04-6961510 ,04-6851300",8:00-13:00,8:00-13:00,סגור,8:00-13:00,16:00-19:00,סגור,סגור,,קופת חולים כללית
קרית אונו,קרית אונו,תל אביב,תל אביב,ירושלים 39 קניון ק. אונו,32.054863,34.858858,03-5304111,8:00-18:00,8:00-15:00,8:00-18:00,8:00-15:00,8:00-15:00,סגור,סגור,,מכבי שרותי בריאות
,קרית מלאכי,דרום,באר שבע,מנחם בגין 1,31.7311736,34.7529155,08-8501460,8:00-13:00,8:00-13:00,13:00-17:00,14:00-16:00,14:00-16:00,סגור,סגור,,מכבי שרותי בריאות
,קרית  מלאכי,דרום,באר שבע,"בית גיל,רחוב ז'בוטינסקי 22",31.7304282,34.7466873,,8:00-14:30,8:00-14:30,8:00-19:00,8:00- 14:30,8;00-13:00,8:00-12:30,סגור,,קופת חולים לאומית
קרית אונו ב',קרית אונו,תל אביב,תל אביב,הכלנית  4,32.0563528,34.8636285,03-5344995,8:00-13:0016:00-19:00,8:00-13:00,8:00-13:3016:00-19:00,8:00-13:0016:00-19:00,8-13:00,8:00-12:00,סגור,,קופת חולים כללית
,קרית ארבע,ירושלים,ירושלים,בנין המרכז הרפואי,31.529326,35.115625,02-9961755,8:00-15:00,8:00-15:00,8:00-13:00,8:00-19:30,8:00-15:00,סגור,סגור,"הישוב היהודי בחברון, נגוהות, מעלה חבר, בית חגי, תלם, אדורה. כרמל, מעון, אביגיל, עשהאל, סוסיא, עותניאל, טנא-עומרים",משרד הבריאות
,קרית אתא,חיפה,חיפה,רח' פינסקר 11,32.8079169,35.1069703,077-7292567,סגור,סגור,סגור,סגור,סגור,סגור,סגור,התחנה בשיפוצים,משרד הבריאות
,קרית אתא,חיפה,חיפה,רח' הרצוג 7,32.809144,35.119773,04-8444647,8:00-15:00,8:00-15:00,8:00-15:00,8:00-15:00,8:00-15:00,סגור,סגור,,משרד הבריאות
,קרית אתא,חיפה,חיפה,רח' קיבוץ גלויות,32.802956,35.093039,04-8448396,8:00-14:30,8:00-14:30,8:00-14:30,8:00-15:00,8:00-15:00,סגור,סגור,,משרד הבריאות
,קרית ביאליק,חיפה,חיפה,רח' בורלא 7,32.832154,35.088407,04-8764367,8:00-15:00,8:00-15:00,8:00-15:00,8:00-13:00,8:00-14:00,סגור,סגור,,משרד הבריאות
,קרית ביאליק,חיפה,חיפה,השקדים 5,32.8349445,35.089647,04-8761327,8:00-15:00,8:00-15:00,8:00-15:00,8:00-14:00,8:00-20:00,סגור,סגור,,משרד הבריאות
,קרית ביאליק,חיפה,חיפה,"רח' קק""ל 75",32.832154,35.088407,04-8724447,8:00-15:00,8:00-15:00,8:00-15:00,8:00-20:00,8:00-16:00,סגור,סגור,,משרד הבריאות
,קרית גת,דרום,באר שבע,מלכי ישראל 178,31.6035962,34.7590258,,8:00-13:0016:00-19:00,8:00-13:00,8:00-13:00,8:00-13:00,8:00-13:00,סגור,סגור,,קופת חולים לאומית
,קרית גת,דרום,באר שבע,גאון הירדן 41,31.6103922,34.7547519,08-6815314,11:00-18:00,8:00-15:30,8:00-15:30,סגור,סגור,8:00-10:30,סגור,,קופת חולים מאוחדת
,קרית גת,דרום,באר שבע,העצמאות 64 ק.גת,31.611148,34.768459,08-6602611,8:30-19:00,8:30-15:00,8:00-16:30,8:30-14:30,8:30-13:30,סגור,סגור,,מכבי שרותי בריאות
,קרית גת,דרום,באר שבע,ענתות,31.612903,34.755315,08-6817411,15:00-19:00,סגור,סגור,סגור,סגור,סגור,סגור,,קופת חולים כללית
,קרית גת,דרום,באר שבע,שד' העצמאות,31.611148,34.768459,08-6670333,8-13/16-19,8:00-16:00,8:00-19:00,8:00-13:00,8:00-13:0016:00-19:00,סגור,סגור,,קופת חולים כללית
,קרית חיים,חיפה,חיפה,רח' השיירה 46,32.825595,35.067606,04-8417830,8:00-15:00,8:00-15:00,8:00-15:00,8:00-16:00,8:00-20:00,סגור,סגור,,משרד הבריאות
,קרית חיים,חיפה,חיפה,שדר'  דגניה 30,32.825595,35.067606,077-7041319,8:00-15:00,8:00-15:00,8:00-15:00,8:00-15:00,8:00-15:00,סגור,סגור,,משרד הבריאות
,קרית טבעון,חיפה,חיפה,רח' החורש 1,32.7217687,35.1303008,04-9832976,8:00-14:00,8:00-14:00,8:00-14:00,8:00-14:00,8:00-14:00,סגור,סגור,בוסמת טבעון,משרד הבריאות
,קרית טבעון,חיפה,חיפה,מרכז זייד ליד קולנוע זהר,32.716221,35.127483,077-2030426,8:00-14:00,8:00-14:00,8:00-14:00,8:00-15:00,8:00-15:00,סגור,סגור,,משרד הבריאות
,קרית ים,חיפה,חיפה,רח' אלון 3,32.842214,35.065251,077-9616784,8:00-20:00,8:00-15:00,8:00-15:00,8:00-15:00,8:00-15:00,סגור,סגור,,משרד הבריאות
,קרית יערים,ירושלים,ירושלים,הריף 7,31.8021584,35.0973123,02-5341815,8:00-14:00,8:00-14:00,8:00-14:00,8:00-15:30,8:00-15:30,סגור,סגור,"שורש, נטף, בית נקופה, שואבה, קרית ענבים, מבשרת ציון, הר אדר, נווה אילן, בית מאיר, יד שמונה, בית זית, מעלה החמישה, בית הילדים אבו גוש, מוצא עילית, עין רפא, ירושלים",משרד הבריאות
,קרית מוצקין,חיפה,חיפה,רח' חשמונאים 40,32.838202,35.079523,077-9525795,8:00-15:00,8:00-15:00,8:00-15:00,8:00-18:00,8:00-14:00,8:00-12:30,סגור,,משרד הבריאות
,קרית מוצקין,חיפה,חיפה,רח' קדיש לוז 55,32.8460551,35.0898912,077-2259145,8:00-15:00,8:00-15:00,8:00-15:00,8:00-14:00,8:00-14:00,סגור,סגור,,משרד הבריאות
,קרית מלאכי,אשקלון,אשקלון,המ.ג,31.729764,34.740722,"08-8601250 ,08-8589200",8:00-13:30  14:00-17:30,8:00-17:00,8:00-14:00,8:00-14:00,8:00-13:30,סגור,סגור,,קופת חולים כללית
,קרית ספר,ירושלים,ירושלים,"קרית ספר, רח רשב""י 1",31.933159,35.043286,,8:00-15:30,8:00-15:00,8:00-15:00  8:00-16:00,8:30-15:00,8:00-12:3013:00-14:30,8:30-12:30,סגור,,קופת חולים לאומית
,קרית ספר,ירושלים,ירושלים,"קרית ספר, רח שדה חמד",31.933159,35.043286,,8:00-13:00,8:00-17:45,9:15-15:30,10:30-15:00,8:00-13:00,סגור,סגור,,קופת חולים לאומית
,קרית עקרון,מרכז,רחובות,"חללי צה""ל   4",31.857544,34.822257,"08-9415004 ,08-9375207",13:00-19:00,7:30-13:30,7:30-13:30,7:30-13:3016:00-19:00,7:30-13:30,סגור,סגור,,קופת חולים כללית
,קרית עקרון,מרכז,רחובות,אלי כהן 9 קרית עקרון,31.857544,34.822257,08-9372104,13:00-19:00,8:00-15:00,8:00-15:00,8:00-13:30,8:00-15:00,8:00-12:30,סגור,,קופת חולים מאוחדת
,קרית שמואל,חיפה,חיפה,שדר'ות וורבורג 114,31.76939,35.211325,04-8759759,8:00-14:00,8:00-14:00,8:00-14:00,8:00-15:00,8:00-15:00,סגור,סגור,,משרד הבריאות
,קרית שמונה,צפון,צפת,רח' שפרינצק,33.207933,35.570246,04-6941653,8:00-13:00,סגור,8:00-18:00,סגור,סגור,8:00-13:00,סגור,,משרד הבריאות
,קרית שמונה,צפון,צפת,הלבנון 4,33.2213713,35.572138,04-6940481,סגור,8:00-16:00,8:00-16:00,10:00-18:00,8:00-20:00,8:00-13:00,סגור,,משרד הבריאות
,קרית שמונה,צפון,צפת,"מרכז בריאות ע""ש קנ""ב",33.207933,35.570246,04-6902333,8:00-15:00,8:00-20:00,8:00-15:00,8:00-15:00,8:00-15:00,8:00-13:00,סגור,,משרד הבריאות
,קרית שמונה,צפון,צפת,שכונת הורדים,33.216001,35.580842,04-6959194,8:00-20:00,8:00-15:00,8:00-15:00,8:00-15:00,סגור,8:00-13:00,סגור,,משרד הבריאות
,קרני שומרון,מרכז,פתח תקווה,קיבוץ גלויות  16,32.1703553,35.0968883,"09-7929116 ,09-7929116",סגור,14:30-18:00,8:00-12:00,10:00-12:00,8:00-12:00,סגור,סגור,,קופת חולים כללית
,קשת,צפון,כנרת,ד.נ. רמת הגולן,32.980388,35.808484,"04-6960518 ,04-6960518",9:00-15:00,סגור,סגור,סגור,סגור,סגור,סגור,,קופת חולים כללית
,ראמה,צפון,עכו,ראמה,32.932185,35.369042,04-9586512,8:00-16:00,8:00-18:00,8:00-16:00,8:00-16:00,8:00-16:00,8:00-13:00,סגור,,משרד הבריאות
,ראש הנקרה,צפון,עכו,ד.נ גליל מערבי,33.08609,35.113455,"04-9857484 ,04-9857484",סגור,סגור,סגור,7:30-12:30,סגור,סגור,סגור,,קופת חולים כללית
,ראש העין,מרכז,פתח תקווה,שבזי 18,32.0973507,34.9428822,03-9380807,8:00-20:00,8:00-20:00,8:00-20:00,7:30-20:00,7:30-15:30,8:00-13:00,סגור,,משרד הבריאות
ראש העין ד',ראש העין,מרכז,פתח תקווה,ה' באייר 22,32.0947737,34.9727381,03-9021186,סגור,סגור,סגור,סגור,סגור,סגור,סגור,"תחנת רה""ע ד' תהיה סגורה עד ה-9.9.13 והשרות יינתן בטיפת חלב ברה""ע א' (רחוב שבזי 18)",משרד הבריאות
,ראש פינה,צפון,צפת,ראש פינה,32.968266,35.551335,04-6934332,8:00-14:00,סגור,8:00-14:00,8:00-14:00,8:00-17:00,8:00-13:00,סגור,,משרד הבריאות
,ראשון לציון,מרכז,רחובות,גורדון 24,31.9666048,34.7953971,03-9652211,8:00-20:00,8:00-20:00,8:00-20:00,8:00-20:00,8:00-18:00,7:30-13:00,סגור,,משרד הבריאות
,ראשון לציון,מרכז,רחובות,רופין 5,31.957933,34.8028255,03-9657722,8:00-20:00,8:00-20:00,8:00-20:00,8:00-20:00,8:00-20:00,7:30-13:00,סגור,,משרד הבריאות
,ראשון לציון,מרכז,רחובות,התזמורת 30,31.9665466,34.775504,03-9412574,8:00-20:00,8:00-20:00,8:00-17:00,8:00-20:00,8:00-17:00,7:30-13:00,סגור,,משרד הבריאות
,ראשון לציון,מרכז,רחובות,בן סרוק 3,31.9758298,34.7735783,03-9410904,8:00-20:00,8:00-20:00,8:00-20:00,8:00-20:00,8:00-20:00,7:30-13:00,סגור,,משרד הבריאות
,ראשון לציון,מרכז,רחובות,חיל הים 10,31.9960708,34.7382582,03-9621636,סגור,7:30-17:00,7:30-17:00,סגור,08:00-20:00,7:30-13:00,סגור,,משרד הבריאות
,ראשון לציון,מרכז,רחובות,יואל סגל 6,31.9706913,34.8135998,03-9468648,8:00-20:00,8:00-20:00,8:00-18:00,8:00-20:00,8:00-18:00,7:30-13:00,סגור,,משרד הבריאות
,ראשון לציון,מרכז,רחובות,שדה נחום 16,31.963936,34.7795103,03-9622236,7:30-17:00,8:00-20:00,7:30-17:00,7:30-17:00,8:00-20:00,7:30-13:00,סגור,,משרד הבריאות
,ראשון לציון,מרכז,רחובות,הרב טולדנו 4,31.9714017,34.803407,03-9650123,8:00-20:00,8:00-20:00,8:00-20:00,8:00-20:00,8:00-20:00,7:30-13:00,סגור,,משרד הבריאות
,ראשון לציון,מרכז,רחובות,הנחשול 26,31.9871088,34.7841643,03-9614480,8:00-20:00,8:00-20:00,8:00-20:00,8:00-20:00,8:00-17:00,7:30-13:00,סגור,,משרד הבריאות
,ראשון לציון,מרכז,רחובות,שיבת ציון 4,31.9620197,34.8116629,03-9659665,8:00-20:00,8:00-20:00,8:00-20:00,8:00-17:30,8:00-20:00,7:30-13:00,סגור,,משרד הבריאות
,ראשון לציון,מרכז,רחובות,עזרא 39,31.9519317,34.8226688,03-9455566,8:00-20:00,8:00-20:00,8:00-20:00,8:00-20:00,8:00-20:00,7:30-13:00,סגור,,משרד הבריאות
,רביבים,דרום,באר שבע,ד.נ חלוצה,31.045195,34.721086,08-6562520,סגור,8:00-10:00,סגור,8:00-10:00,סגור,סגור,סגור,,קופת חולים כללית
,רגבה,צפון,עכו,ד.נ אושרת,32.977493,35.099129,"04-9529012 ,04-9529012",סגור,סגור,15:00-19:00,סגור,סגור,סגור,סגור,,קופת חולים כללית
,רהט,דרום,באר שבע,שכונה 7,31.39479,34.763631,08-9918333,8:00-16:00,8:00-16:00,8:00-16:00,8:00-16:00,8:00-16:00,סגור,סגור,,משרד הבריאות
,רהט,דרום,באר שבע,שכונה 17,31.390336,34.739518,08-9918334,8:00-20:00,8:00-16:00,8:00-16:00,8:00-16:00,8:00-16:00,סגור,סגור,,משרד הבריאות
,רהט,דרום,באר שבע,שכונה 24,31.393238,34.760387,08-9910246,8:00-16:00,8:00-16:00,8:00-16:00,8:00-16:00,8:00-16:00,סגור,סגור,,משרד הבריאות
,רהט,דרום,באר שבע,שכונה 8,31.393018,34.766697,08-9910613,8:00-16:00,8:00-16:00,8:00-16:00,8:00-16:00,8:00-20:00,סגור,סגור,,משרד הבריאות
,רהט,דרום,באר שבע,שכונה 11,31.393238,34.760387,08-6217963,8:00-16:00,8:00-16:00,8:00-16:00,8:00-16:00,8:00-16:00,סגור,סגור,,משרד הבריאות
,רוחמה,אשקלון,אשקלון,ד.נ חוף אשקלון,31.497378,34.705165,08-6807100,סגור,9:00-12:00,סגור,9:00-12:00,סגור,סגור,סגור,,קופת חולים כללית
,רומאנה,צפון,יזרעאל,רומאנה,32.786682,35.309063,04-6517587,סגור,סגור,סגור,סגור,סגור,סגור,סגור,מתקבלים בתחנה בעוזיר,משרד הבריאות
,רחובות,מרכז,רחובות,אהרוני 21,31.9007001,34.8139442,08-9466544,8:00-20:00,8:00-20:00,8:00-20:00,8:00-18:00,8:00-20:00,7:30-13:00,סגור,,משרד הבריאות
,רחובות,מרכז,רחובות,טרומפלדור 6,31.8798796,34.8194136,08-9410952,8:00-20:00,8:00-20:00,8:00-20:00,8:00-20:00,8:00-18:00,7:30-13:00,סגור,,משרד הבריאות
,רחובות,מרכז,רחובות,בתיה מקוב 16,31.8911154,34.8106092,08-9451804,8:00-18:00,8:00-18:00,8:00-18:00,8:00-18:00,8:00-18:00,7:30-13:00,סגור,,משרד הבריאות
,רחובות,מרכז,רחובות,פרשני 8,31.8878965,34.8246461,08-9459553,8:00-20:00,8:00-20:00,8:00-18:00,8:00-20:00,8:00-20:00,7:00-13:00,סגור,,משרד הבריאות
,רחובות,מרכז,רחובות,סטולבוב 8,31.888304,34.789089,08-9465910,8:00-20:00,8:00-18:00,8:00-18:00,8:00-20:00,8:00-20:00,7:30-13:00,סגור,,משרד הבריאות
,רחובות,מרכז,רחובות,שבזי 14,31.8893737,34.815909,08-9458572,8:00-20:00,8:00-20:00,8:00-20:00,8:00-20:00,8:00-18:00,7:30-13:00,סגור,,משרד הבריאות
,ריינה,צפון,נצרת,ריינה,32.722501,35.31532,04-6577003,8:00-14:00,8:00-14:00,8:00-19:00,8:00-14:00,8:00-14:00,8:00-13:00,סגור,,משרד הבריאות
,ריינה,צפון,נצרת,ריינה,32.722501,35.31532,04-6470645,8:00-14:00,8:00-14:00,8:00-14:00,8:00-14:00,8:00-14:00,סגור,סגור,,משרד הבריאות
,ריינה,צפון,נצרת,ריינה,32.722501,35.31532,04-6469005,8:00-15:30,סגור,8:00-15:30,8:00-15:30,8:00-15:30,8:00-13:00,סגור,,משרד הבריאות
,רכסים,חיפה,חיפה,דרך הרב 1 רכסים,32.749265,35.099581,,8:00-16:00,סגור,סגור,סגור,סגור,סגור,סגור,,קופת חולים לאומית
רכסים,רכסים,חיפה,חיפה,הרקפות 7,32.7527317,35.100913,04-9847995,8:00-12:0016:00-18:00,8:00-12:0016:00-19:00,8:00-12:0016:00-18:30,8:00-11:0016:00-18:00,8:00-12:0016:00-18:30,סגור,סגור,,מכבי שרותי בריאות
,רכסים,חיפה,חיפה,כפר חסידים,32.749265,35.099581,"04-9846511 ,04-8807525",7:00-14:00,8:00-15:00,7:00-14:00,8:00-14:00,8:00-15:00,סגור,סגור,,קופת חולים כללית
,רמות,צפון,כנרת,רמות,32.8511208,35.66825,04-6731332,8:00-10:00,סגור,סגור,סגור,10:00-12:00,סגור,סגור,,קופת חולים כללית
,רמות מנשה,צפון,יזרעאל,ד.נ מגידו,32.597042,35.057177,04-9895777,סגור,סגור,סגור,77:30-12:00,17:00-19:00,סגור,סגור,,קופת חולים כללית
,רמלה,מרכז,רמלה,אהרון בוגנים 11,31.9336914,34.8523452,08-9292229,8:00-20:00,8:00-20:00,8:00-20:00,8:00-20:00,8:00-20:00,8:00-13:00,סגור,מצליח ישרש סתריה רמות מאיר גני הדר נען משמר דוד יציץ חולדה,משרד הבריאות
,רמלה,מרכז,רמלה,חיים לנדאו 4,31.9391474,34.8754757,08-9219078,8:00-16:00,8:00-16:00,8:00-20:00,8:00-16:00,8:00-16:00,8:00-13:00,סגור,עזריה בית חשמונאי משמר אילון כפר שמואל בית עוזיאל שעלבים קיבוץ גזר כרמי יוסף יד רמבם פתחיה פדיה אחיסמך,משרד הבריאות
,רמלה,מרכז,רמלה,אחד במאי 10,31.9335473,34.8715413,08-9229585,8:00-20:00,8:00-20:00,8:00-20:00,8:00-20:00,8:00-20:00,8:00-13:00,סגור,,משרד הבריאות
,רמלה,מרכז,רמלה,הורדים 17,31.931566,34.872938,08-9248172,8:00-20:00,8:00-20:00,8:00-20:00,8:00-20:00,8:00-16:00,8:00-13:00,סגור,,משרד הבריאות
,רמלה,מרכז,רמלה,כפר גואריש,31.931566,34.872938,08-9221134,שירות ינתן בתחנת רמת דן,שירות ינתן בתחנת רמת דן,שירות ינתן בתחנת רמת דן,שירות ינתן בתחנת רמת דן,שירות ינתן בתחנת רמת דן,שירות ינתן בתחנת רמת דן,סגור,,משרד הבריאות
,רמת-גן,תל אביב,תל אביב,המעגל 24,32.0819639,34.8132573,03-6701270,7:30-19:00,7:30-15:30,8:00-16:00,8:00-16:00,8:00-16:00,8:00-13:00,סגור,,משרד הבריאות
,רמת-גן,תל אביב,תל אביב,שמעוני 8,32.0512023,34.8177795,03-6311319,7:30-19:00,7:30-15:30,8:00-16:00,8:00-16:00,8:00-16:00,8:00-13:00,סגור,,משרד הבריאות
,רמת-גן,תל אביב,תל אביב,החייל 16,32.0673427,34.8233513,03-6771286,7:30-19:00,7:30-15:30,8:00-20:00,8:00-20:00,8:00-20:00,8:00-13:00,סגור,,משרד הבריאות
,רמת-גן,תל אביב,תל אביב,פומפדיתא 11,32.0684416,34.8353637,03-6742521,סגור,סגור,סגור,סגור,סגור,סגור,סגור,,משרד הבריאות
,רמת-גן,תל אביב,תל אביב,המרגנית 10,32.0936886,34.8130165,03-7513783,7:30-15:30,7:30-19:00,8:00-20:00,8:00-20:00,8:00-20:00,8:00-13:00,סגור,,משרד הבריאות
,רמת-גן,תל אביב,תל אביב,"שד' ק""מ 10",32.068424,34.824785,03-6777686,7:30-15:30,7:30-19:00,8:00-16:00,8:00-16:00,8:00-16:00,8:00-13:00,סגור,,משרד הבריאות
,רמת-גן,תל אביב,תל אביב,משורר 27,32.0575586,34.8494062,03-5349758,סגור,סגור,סגור,סגור,סגור,סגור,סגור,,משרד הבריאות
,רמת אביב,מרכז,מרכז,רח' אחימאיר 26,32.107476,34.795951,,סגור,סגור,סגור,סגור,סגור,סגור,סגור,,קופת חולים לאומית
,רמת דוד,צפון,יזרעאל,דואר נהלל,32.678991,35.204036,04-6549000,סגור,סגור,סגור,סגור,סגור,סגור,סגור,,קופת חולים כללית
,רמת הכובש,מרכז,פתח תקווה,קיבוץ רמת הכובש,32.218313,34.93829,"09-7474509 ,09-7474509",סגור,סגור,סגור,סגור,סגור,סגור,סגור,,קופת חולים כללית
,רמת השופט,צפון,יזרעאל,רמת השופט,32.610789,35.095591,04-9898222,סגור,סגור,סגור,8:00-12:00,סגור,סגור,סגור,,קופת חולים כללית
,רמת השרון,תל אביב,תל אביב,הנצח 3,32.138056,34.8437686,03-5484646,8:00-20:00,8:00-20:00,8:00-20:00,8:00-20:00,8:00-20:00,08:00-13:00,סגור,,מכבי שרותי בריאות
,רמת השרון,תל אביב,תל אביב,מוריה 31,32.1451094,34.8372319,"03-7607222 ,03-7607222",7:00-14:0016:00-19:00,8:00-14:00,8:00-14:0016:00-19:00,7:00-12:00,8:00-14:00,8:00-12:00,סגור,,קופת חולים כללית
,רמת השרון,תל אביב,תל אביב,בית הילל  6,32.1355608,34.8525934,"03-7600813 ,03-7600813",9:00-12:0016:00-19:00,9:00-12:00,9:00-12:00,סגור,9:00-12:00,סגור,סגור,,קופת חולים כללית
,רמת יוחנן,חיפה,חיפה,ד.נ כפר המכבי,32.793457,35.122208,04-8459223,8:00-12:00,יחוסנו באושה,סגור,סגור,סגור,סגור,סגור,,קופת חולים כללית
,רמת ישי,צפון,יזרעאל,רמת ישי,32.706899,35.172564,04-9534957,סגור,סגור,סגור,סגור,סגור,סגור,סגור,,קופת חולים כללית
,רמת צבי,צפון,יזרעאל,ד.נ גלבוע,32.591962,35.414497,04-6532340,סגור,סגור,סגור,סגור,סגור,סגור,סגור,,קופת חולים כללית
,רמת רחל,ירושלים,ירושלים,ד.נ הרי יהודה,31.740177,35.219548,02-6702951,סגור,סגור,7:30-12:00,סגור,סגור,סגור,סגור,,קופת חולים כללית
,רעות,מרכז,רמלה,מרכז מסחרי רעות,31.885983,35.017594,08-9263613,8:00-13:00,11:00-19:00,8:00-13:00,8:00-13:00,8:00-13:00,סגור,סגור,,קופת חולים כללית
,רעים,דרום,באר שבע,ד.נ הנגב,31.386159,34.458823,08-9940220,10:00-12:00,סגור,16:00-17:00,סגור,סגור,9:00-11:00,סגור,,קופת חולים כללית
,רעננה,מרכז,פתח תקווה,אחוזה 124,32.1807766,34.8737099,09-7470777,8:00-20:00,8:00-20:00,8:00-20:00,8:00-20:00,8:00-20:00,8:00-13:00,סגור,,מכבי שרותי בריאות
,רעננה,מרכז,פתח תקווה,הנוטרים 7,32.1832314,34.8661232,09-7707111,8:00-12:0016:00-19:00,8:00-13:0016:00-19:00,8:00-13:00,8:00-13:0016:00-19:00,8:00-14:00,8:00-12:00,סגור,,קופת חולים כללית
,רעננה,מרכז,פתח תקווה,הנשר 1,32.1898616,34.8548043,"09-7705500 ,09-7705500",9:00-12:00 16:00-19:00,הילדים מופנים למרפאת שועלי ולמרפאת הנוטרים,סגור,סגור,סגור,סגור,סגור,,קופת חולים כללית
,רעננה,מרכז,פתח תקווה,אליעזר יפה   8,32.1821195,34.875309,09-7477979,8:00-15:00,8:00-15:00,8:00-13:00,8:00-13:00,8:00-13:0016:00-19:00,8:00-11:30,סגור,,קופת חולים כללית
,רשפים,צפון,יזרעאל,ד.נ גליל תחתון,32.481235,35.47879,04-6065133,סגור,סגור,סגור,סגור,סגור,סגור,סגור,,קופת חולים כללית
,שבי ציון,צפון,עכו,דואר שבי ציון,32.982079,35.083005,04-9829231,6:30-12:00,6:00-12:00,6:00-13:00,6:00-12:00,6:00-11:30,7:30-11:00,סגור,,קופת חולים כללית
,שבלי,צפון,יזרעאל,שיבלי,32.693122,35.397544,04-6765070,8:00-14:00,8:00-14:00,8:00-20:00,8:00-14:00,8:00-14:00,8:00-13:00,סגור,,משרד הבריאות
,שגב שלום,דרום,באר שבע,שגב שלום,31.203665,34.840538,08-6230762,8:00-20:00,8:00-16:00,8:00-16:00,8:00-16:00,8:00-16:00,סגור,סגור,,משרד הבריאות
,שדה אילן,צפון,כנרת,ד.נ גליל תחתון,32.75051,35.422429,"04-6760104 ,04-6620282",8:00-11:00,10:00-12:00,סגור,11:00-13:00,18:00-20:00,סגור,סגור,,קופת חולים כללית
,שדה אליהו,צפון,יזרעאל,ד.נ בית שאן,32.441882,35.513803,04-6096500,סגור,סגור,סגור,סגור,סגור,סגור,סגור,,קופת חולים כללית
,שדה בוקר,דרום,באר שבע,ד.נ רמת הנגב,30.873611,34.793098,08-6532837,10:00-13:00,סגור,16:00-20:00,סגור,סגור,סגור,סגור,,קופת חולים כללית
,שדה בוקר,דרום,באר שבע,ד.נ לכיש דרום,30.873611,34.793098,08-6560333,10:00-12:00,סגור,10:00-12:00,10:00-12:00,10:00-12:00,סגור,סגור,,קופת חולים כללית
,שדה בוקר,דרום,באר שבע,מכללת בן גוריון,30.873611,34.793098,08-6261450,סגור,8:30-12:00,סגור,8:30-12:00,13:30-15:00,סגור,סגור,,מכבי שרותי בריאות
,שדה דוד,אשקלון,אשקלון,דואר שדה דוד,31.577476,34.683443,08-6848619,סגור,סגור,8:00-12:00,סגור,סגור,סגור,סגור,,קופת חולים כללית
,שדה יעקב,צפון,יזרעאל,ד.נ גליל עליון,32.69756,35.141315,04-9831247,סגור,סגור,סגור,סגור,סגור,סגור,סגור,,קופת חולים כללית
,שדה נחמיה,צפון,צפת,ד.נ גליל עליון,33.188234,35.62307,"04-6946916 ,04-6946916","אחה""צ לפי הזמנה",14:00-19:00,סגור,סגור,"אחה""צ לפי הזמנה",סגור,סגור,,קופת חולים כללית
,שדות ים,חיפה,חדרה,,32.492613,34.89315,04-6364370,8:00-14:00,סגור,8:00-14:00,סגור,סגור,סגור,סגור,,קופת חולים כללית
,שדמות מחולה,ירושלים,ירושלים,ד.נ. יהודה 90855,32.347731,35.530587,04-6099743,סגור,סגור,סגור,סגור,סגור,סגור,סגור,,קופת חולים כללית
שדרות א',שדרות,אשקלון,אשקלון,רח' משעול הגיא 10,31.522694,34.595581,08-6899889,8:00-20:00,8:00-20:00,8:00-20:00,8:00-20:00,8:00-20:00,8:00-12:00,סגור,,משרד הבריאות
שדרות ב',שדרות,אשקלון,אשקלון,רח' ברית ערים 4,31.522694,34.595581,08-6898171,8:00-20:00,8:00-20:00,8:00-20:00,8:00-20:00,8:00-20:00,8:00-12:00,סגור,,משרד הבריאות
,שואבה,ירושלים,ירושלים,ד.נ יהודה 90855,31.799369,35.079003,"02-5345016 ,02-5345016",סגור,7:30-15:30 שלוש בחודש 9:00-17:00 אחת לחודש,סגור,סגור,סגור,סגור,סגור,,קופת חולים כללית
,שובל,דרום,באר שבע,שד' עמק אילון,31.413734,34.745814,08-9916222,14:00-16:00,סגור,סגור,סגור,סגור,סגור,סגור,,קופת חולים כללית
,שוהם,מרכז,רמלה,ד.נ. הנגב,32.005389,34.946584,"03-9793323 ,03-9253681",סגור,9:00-12:00,9:00-12:00,9:00-12:00,סגור,סגור,סגור,,קופת חולים כללית
,שומריה,אשקלון,אשקלון,ד.נ הרי אפרים,31.432154,34.884095,08-9918129,10:00-12:00,11:00-14:00,14:00-17:00,סגור,סגור,סגור,סגור,,קופת חולים כללית
דנון,דנון,צפון,עכו,שייח' דנון,32.993519,35.146841,04-9820904,8:00-16:00,8:00-16:00,8:00-16:00,8:00-16:00,8:00-16:00,סגור,סגור,,משרד הבריאות
,שילה,ירושלים,ירושלים,,32.054405,35.29909,,סגור,סגור,סגור,סגור,סגור,סגור,סגור,,קופת חולים לאומית
,שילה,ירושלים,ירושלים,ד.נ אפרים,32.054405,35.29909,02-9941169,16:00-18:00,8:00-13:30 16:00-17:00,סגור,8:00-14:00,סגור,סגור,סגור,,קופת חולים כללית
,חורה,,,שכונה 9,31.300399,34.935688,08-6510178,סגור,סגור,סגור,סגור,סגור,סגור,סגור,,קופת חולים כללית
,שלוחות,צפון,יזרעאל,ז'בוטינסקי,32.472608,35.480488,04-6062121,סגור,סגור,סגור,סגור,סגור,סגור,סגור,,קופת חולים כללית
,שלומי,צפון,עכו,הרב חזן 105,33.072275,35.147263,04-9875016,8:00-16:00,8:00-14:00,8:00-16:00,8:00-18:00,סגור,סגור,סגור,,משרד הבריאות
,שלומי,צפון,עכו,ד.נ גליל עליון,33.072609,35.145945,04-9808516,8:00-17:00,8:00-18:00,8:00-14:00,8:00-12:00,8:00-17:00,8:00-12:00,סגור,,קופת חולים כללית
,שמיר,צפון,צפת,ד.נ אושרת,33.166754,35.659949,04-6947844,8:00-10:00,8:00-10:00,סגור,8:00-10:00,8:00-10:00,סגור,סגור,,קופת חולים כללית
,שמרת,צפון,עכו,מעיינות,32.95148,35.094955,04-9854790,8:00-13:00,8:00-18:00,8:00-13:00,8:00-13:00,8:00-13:00,8:00-12:00,סגור,,קופת חולים כללית
,שמשית,צפון,יזרעאל,ד.נ רמת הגולן,32.732527,35.246518,04-6021999,סגור,סגור,סגור,סגור,סגור,סגור,סגור,,קופת חולים כללית
,שניר,צפון,צפת,ד.נ שמשון,33.240338,35.677015,04-6952538,סגור,9:00-10:30,סגור,סגור,14:00-16:30,סגור,סגור,,קופת חולים כללית
,שעב,צפון,עכו,שעב,32.890435,35.241427,04-9883716,8:00-16:00,8:00-16:00,8:00-16:00,8:00-18:00,8:00-18:00,סגור,סגור,,משרד הבריאות
,שעלבים,מרכז,רמלה,דואר שער העמקים,31.870235,34.984304,"08-9259121 ,08-9259121",9:00-12:00,סגור,7:00-11:30,15:00-19:30,9:00-12:00,סגור,סגור,,קופת חולים כללית
,שער העמקים,חיפה,חיפה,יהלום - שערי תקווה,32.722621,35.110601,04-9839223,8:00-12:00,8:00-12:00,סגור,סגור,סגור,סגור,סגור,,קופת חולים כללית
,שפיים,מרכז,השרון,ד.נ. שריגים שריגים,32.216586,34.822409,"09-7523800 ,09-9523800",סגור,סגור,סגור,סגור,סגור,סגור,סגור,,קופת חולים כללית
,שפרעם,צפון,עכו,שפרעם,32.805765,35.169971,04-9865345,8:00-16:00,8:00-16:00,8:00-16:00,8:00-16:00,8:00-16:00,סגור,סגור,,משרד הבריאות
,שפרעם,צפון,עכו,שפרעם,32.805765,35.169971,04-9866449,8:00-16:00,8:00-18:00,8:00-16:00,8:00-16:00,8:00-16:00,סגור,סגור,,משרד הבריאות
,שפרעם,צפון,עכו,שפרעם,32.805765,35.169971,04-9866266,8:00-16:00,8:00-16:00,8:00-16:00,8:00-16:00,8:00-16:00,סגור,סגור,,משרד הבריאות
,שפרעם,צפון,עכו,שפרעם,32.805765,35.169971,04-9500784,8:00-16:00,8:00-16:00,8:00-18:00,8:00-16:00,8:00-16:00,סגור,סגור,,משרד הבריאות
,שפרעם,צפון,עכו,שפרעם,32.805765,35.169971,04-9501717,סגור,8:00-16:00,סגור,8:00-16:00,8:00-16:00,סגור,סגור,,משרד הבריאות
,שקד,מרכז,מרכז,ד.נ מנשה,32.473745,35.168448,,סגור,סגור,סגור,סגור,8:00-13:00,סגור,סגור,,קופת חולים לאומית
,שקף,דרום,באר שבע,מושב שקף,31.51489,34.937318,050-8806322,סגור,9:00-13:00  16:30-19:00,סגור,סגור,סגור,סגור,סגור,,מכבי שרותי בריאות
,משמר השרון,מרכז,השרון,,32.356305,34.904256,09-8661506,8:00-12:00 16:00-18:30,8:00-12:00,8:00-18:30,8:00-12:00,8:00-12:00,8:00-12:00,סגור,,קופת חולים כללית
,שריגים,ירושלים,ירושלים,ד.נ יזרעאל,31.678567,34.93509,"02-9914008 ,02-9911868",9:00-12:00,8:00-13:00,14:30-19:00,סגור,8:30-14:00 פעמיים בחודש 14:00-18:00 פעמיים בחודש,סגור,סגור,,קופת חולים כללית
,שריד,צפון,יזרעאל,ד.נ גלבוע,32.663059,35.224755,04-6546264,סגור,סגור,סגור,סגור,סגור,סגור,סגור,,קופת חולים כללית
בית שטראוס,תל אביב יפו,תל אביב,תל אביב,בלפור 14,32.0676064,34.7741299,03-5643411,7:30-19:30,11:00-19:00,7:30-19:30,7:30-19:30,7:30-19:30,8:00-13:00,סגור,,עיריית תל אביב יפו
דוידקה,תל אביב יפו,תל אביב,תל אביב,דוידקה 18,32.0548879,34.792816,03-7302367,7:00-19:00,7:00-19:00,7:00-19:00,7:00-19:00,7:00-19:00,8:00-13:00,סגור,,עיריית תל אביב יפו
קינג ג'ורג',תל אביב יפו,תל אביב,תל אביב,קינג ג'ורג' 33,32.0720528,34.7736066,03-7240366,7:00-15:00,11:00-19:00,7:00-15:00,7:00-15:00,7:00-15:30,סגור,סגור,,עיריית תל אביב יפו
תחנה מרכזית,תל אביב יפו,תל אביב,תל אביב,ראשון לציון 3,32.0568502,34.7815735,03-6871841,7:30-16:00,7:30-16:00,7:30-16:00,8:00-16:00,8:00-16:00,סגור,סגור,,עיריית תל אביב יפו
קרית שלום,תל אביב יפו,תל אביב,תל אביב,הקשת 8,32.0427402,34.7742247,03-5183167,7:30-15:30,7:30-15:00,7:30-15:30,11:00-19:00,7:00-15:00,8:00-13:00,סגור,,עיריית תל אביב יפו
נוה אליעזר,תל אביב יפו,תל אביב,תל אביב,ברלב 195,32.0451887,34.8088532,03-6318905,7:00-15:00,11:00-19:00,7:00-15:00,7:00-15:00,7:00-15:00,סגור,סגור,,עיריית תל אביב יפו
ביצרון,תל אביב יפו,תל אביב,תל אביב,קלמן שולמן 3,32.0686339,34.7971783,03-5622894,7:00-15:00,11:00-19:00,7:00-15:00,סגור,סגור,סגור,סגור,,עיריית תל אביב יפו
שכונת עזרא,תל אביב יפו,תל אביב,תל אביב,טבת 15,32.046408,34.7907562,03-6879540,7:00-15:00,11:00-19:00,סגור,סגור,7:30-15:00,סגור,סגור,,עיריית תל אביב יפו
עג'מי - מרכז הירש,תל אביב יפו,תל אביב,תל אביב,הערמון 8,32.0450578,34.7507521,03-6834564,7:30-15:30,7:30-15:30,7:30-18:30,10:00-18:00,7:30-15:30,סגור,סגור,,עיריית תל אביב יפו
יפו ג',תל אביב יפו,תל אביב,תל אביב,עירית 17,32.0357281,34.7499711,03-6596773,7:30-19:00,7:30-19:30,7:30-15:30,11:00-19:00,7:30-19:00,סגור,סגור,,עיריית תל אביב יפו
בבלי,תל אביב יפו,תל אביב,תל אביב,ירושלמי 14,32.0960586,34.8000699,03-6047653,7:00-19:00,11:00-19:00,7:00-19:00,7:00-19:00,7:00-19:00,8:00-13:00,סגור,,עיריית תל אביב יפו
נוה שרת,תל אביב יפו,תל אביב,תל אביב,פילדלפיה 6,32.1212659,34.8405209,03-6470817,7:00-15:00,11:00-19:00,7:00-15:00,7:00-15:00,סגור,סגור,סגור,,עיריית תל אביב יפו
שיכון ל',תל אביב יפו,תל אביב,תל אביב,בורלא 27,32.1083313,34.7905628,03-6991064,7:00-15:00,11:00-19:00,7:00-15:00,7:00-15:00,7:00-15:00,סגור,סגור,,עיריית תל אביב יפו
נאות אפקה,תל אביב יפו,תל אביב,תל אביב,למדן 20,32.1194401,34.82284,03-6483236,7:00-15:00,11:00-19:00,7:00-15:00,סגור,7:00-15:00,סגור,סגור,,עיריית תל אביב יפו
,תל יוסף,צפון,יזרעאל,מצדה,32.556704,35.398914,04-6534952,סגור,סגור,סגור,סגור,סגור,סגור,סגור,,קופת חולים כללית
,תל מונד,מרכז,השרון,השקד 4,32.2577207,34.9193366,09-7774600,8:00-12:00 16:00-18:00,8:00-12:00 16:00-18:00,8:00-12:00 16:00-18:00,8:00-12:00 16:00-18:00,8:00-12:00 16:00-18:00,סגור,סגור,,מכבי שרותי בריאות
,תל מונד,מרכז,השרון,ד.נ מגידו,32.256608,34.91846,"09-7779222 ,09-7779222",8:00-13:00 16:00-19:00,8:00-13:00,8:00-13:00 16:00-19:00,8:00-13:00,8:00-13:00,סגור,סגור,,קופת חולים כללית
,תל עדשים,צפון,יזרעאל,אהבת ישראל  כוכב יעקב,32.657358,35.302478,04-6591871,סגור,סגור,סגור,סגור,סגור,סגור,סגור,,קופת חולים כללית
,תל ציון,מרכז,רמלה,"תל ציון, אהבת אמת 19/8 ד.נ מזרח בנימין",31.8802223,35.239359,,10:00-12:00,9:30-12:00,10:0-12:00,10:00-12:00 14:30-17:00,10:00-12:00,8:00-10:00,סגור,,קופת חולים לאומית
,תל ציון,מרכז,רמלה,צומת שער הגולן - מסדה,31.880377,35.239097,"02-9705700 ,02-9705700",8:00-13:30,8:00-13:00,סגור,8:00-13:00 16:00-20:00,8:00-13:30,8:00-12:30,סגור,,קופת חולים כללית
,תל ציון,מרכז,רמלה,אהבת ישראל 2 תל ציון,31.880377,35.239097,02-9971360,8:00-16:00,8:00-20:00,8:00-16:00,8:00-20:00,8:00-16:00,סגור,סגור,,קופת חולים מאוחדת
,תל שבע,דרום,באר שבע,שכונה 2-  901,31.253103,34.858533,054-7302434,8:00-16:00,8:00-16:00,8:00-16:00,8:00-16:00,8:00-16:00,סגור,סגור,,משרד הבריאות
,תלמים,אשקלון,אשקלון,צומת שער הגולן - מסדה,31.563416,34.671998,08-6898155,סגור,סגור,סגור,סגור,סגור,סגור,סגור,,קופת חולים כללית
,תמרת,צפון,יזרעאל,,32.703801,35.225489,04-6542663,סגור,סגור,סגור,סגור,סגור,סגור,סגור,,קופת חולים כללית
,תפרח,דרום,באר שבע,תפרח,31.325391,34.675289,08-9926056,8:00-16:00,8:00-16:00,8:00-16:00,8:00-16:00,8:00-16:00,סגור,סגור,,משרד הבריאות
אור הנר,אור הנר,אשקלון,אשקלון,ד.נ. חוף אשקלון,31.556197,34.602305,08-6802500,סגור,סגור,סגור,סגור,8:30-13:30,סגור,סגור,,קופת חולים כללית
גיורא,אור יהודה,תל אביב,תל אביב,דוד אלעזר 21,32.0282154,34.8651328,03-5385200,8:00-13:00 16:00-19:00,8:00-13:00,8:00-13:00 16:00-19:00,8:00-13:00,8:00-13:00 16:00-19:00,סגור,סגור,,קופת חולים כללית
הסהר האדום - שער הפרחים,ירושלים,ירושלים,ירושלים,"רח' אל חרירי 6, ירושלים",31.768319,35.21371,02-6282116,8:00-14:00,8:00-14:00,8:00-14:00,8:00-14:00,8:00-14:00,סגור,סגור,שבת 8:00-14:00,משרד הבריאות
הסהר האדום - עקבת אל חלידה,ירושלים,ירושלים,ירושלים,"עקבת אל חלידה 38, ירושלים",31.768319,35.21371,02-6288187,8:00-14:00,8:00-14:00,8:00-14:00,8:00-14:00,8:00-14:00,סגור,סגור,שבת 8:00-14:00,משרד הבריאות
,איתמר,מרכז,ירושלים,איתמר. ד. לב השומרון,32.173869,35.308029,,8:00-13:30 פעם בשבועיים,סגור,סגור,סגור,סגור,סגור,סגור,,קופת חולים לאומית
,אלקנה,מרכז,פתח תקווה,אלקנה א. שומרון,32.110566,35.032054,,8:30-13:00 או 8:30-16:00 לסירוגין,החל מאוגוסט 13:30-18:30,סגור,סגור,סגור,סגור,סגור,,קופת חולים לאומית
,אריאל,מרכז,רמלה,"אריאל, רח נחשונים 41",32.104637,35.174514,,8:00-16:30,8:00-16:30,סגור,סגור,סגור,סגור,סגור,,קופת חולים לאומית
,בית אל,מרכז,רמלה,"בית אל, ד.נ מזרח בנימין",31.9416,35.222734,,8:00-14:30,8:00-13:45 8:00-13:30,8:00-14:00 8:00-12:00,8:00-12:00,סגור,סגור,סגור,,קופת חולים לאומית
,בית אריה,מרכז,רמלה,"בית אריה, רח הזית 1",32.03168,35.055913,,8:00-1300 16:00-19:00,8:00-14:30,סגור,סגור,סגור,סגור,סגור,,קופת חולים לאומית
,גבעת זאב,ירושלים,ירושלים,"גבעת זאב, רח הגיא 49",31.8586914,35.171852,,8:00-15:30,סגור,סגור,סגור,סגור,סגור,סגור,,קופת חולים לאומית
,גינות שומרון,מרכז,פתח תקווה,גינות שומרון,32.16948,35.08469,,7:30-13:00 16:00-18:30,7:30-12:30,7:30-14:00 16:00-19:00,7:30-14:00,סגור,סגור,סגור,,קופת חולים לאומית
,דולב,מרכז,רמלה,"דולב, ד.נ מודיעין",31.795905,35.076569,,8:00-11:00,10:00-13:00,סגור,סגור,סגור,סגור,סגור,,קופת חולים לאומית
,הר ברכה,מרכז,פתח תקווה,הר ברכה ד.נ לב השומרון,32.20439,35.273201,,9:00-11:00 13:00-19:00,14:00-19:00,9:00-13:00,8:00-14:00,סגור,סגור,סגור,,קופת חולים לאומית
,חלמיש,מרכז,פתח תקווה,"חלמיש, ד.נ מודיעין",32.483827,34.948104,,7:30-15:30 3 פעמים בחודש,סגור,סגור,סגור,סגור,סגור,סגור,,קופת חולים לאומית
,טלמון,מרכז,רמלה,טלמון. ד.נ מודיעין,31.939475,35.133131,,8:00-13:00,16:00-16:45,9:30-12:30,8:00-10:00,סגור,סגור,סגור,,קופת חולים לאומית
,יצהר,מרכז,פתח תקווה,"יצהר, ד.נ אפריים",31.738445,35.189187,,16:00-18:30,8:00-13:30 פעם בשבועיים,8:00-13:00,סגור,סגור,סגור,סגור,,קופת חולים לאומית
,יקיר,מרכז,פתח תקווה,"יקיר, ד.נ השומרון",32.149831,35.114631,,13:00-16:00,9:00-12:00,סגור,סגור,סגור,סגור,סגור,,קופת חולים לאומית
,כוכב השחר,מרכז,רמלה,"כוכב השחר, ד.נ מזרח בנימין",31.778293,34.639649,,9:00-17:00,9:00-14:00,9:00-12:00,סגור,סגור,סגור,סגור,,קופת חולים לאומית
,כוכב יעקב,מרכז,רמלה,"כוכב יעקב, ד.נ מזרח בנימין",31.877755,35.245172,,10:00-13:00,8:00-9:00 10:00-12:00,10:00-12:00,8:00-11:00,11:00-13:00,סגור,סגור,,קופת חולים לאומית
,מעלה אפרים,ירושלים,ירושלים,"מעלה אפריים, ד.נ מזרח בנימין",32.071304,35.4039,,9:00-12:00,סגור,סגור,סגור,סגור,סגור,סגור,,קופת חולים לאומית
,מעלה לבונה,מרכז,רמלה,"מעלה לבונה, ד.נ אפרים",32.276653,34.885558,,10:30-11:30,8:00-10:00,8:00-9:30,סגור,סגור,סגור,סגור,,קופת חולים לאומית
,נריה,מרכז,פתח תקווה,"נריה, ד.נ מודיעין",32.200269,35.007777,,8:30-12:00,10:00-12:00,8:30-10:30 16:00-18:00,סגור,סגור,סגור,סגור,,קופת חולים לאומית
,עטרת,מרכז,רמלה,"עטרת, ד.נ מודיעין",33.006966,35.600764,,7:00-15:30 פעם בחודש,סגור,סגור,סגור,סגור,סגור,סגור,,קופת חולים לאומית
,עמנואל,מרכז,פתח תקווה,"עמנואל, ד.נ לב השומרון",32.160688,35.136036,,9:30-13:00,8:00-13:00,9:30-11:0015:00-17:00,9:30-13:00,סגור,סגור,סגור,,קופת חולים לאומית
בני נצרים,בני נצרים,דרום,דרום,בני נצרים,31.143513,34.316403,08-6866350,8:00-13:00,16:00-19:00,סגור,סגור,סגור,סגור,סגור,,מכבי שרותי בריאות
אבו גוש,אבו גוש,ירושלים,ירושלים,הפול 17,31.8059723,35.1079105,"02-5342763 ,02-5704140",8:00-14:30,8:00-14:30,סגור,8:00-16:00,סגור,סגור,סגור,"הר אדר, נטף",משרד הבריאות
אבו סנאן א,אבו סנאן,צפון,עכו,אבו סנאן,32.959529,35.168596,04-9965339,סגור,8:00-16:00,8:00-16:00,8:00-16:00,8:00-18:00,8:00-15:00,סגור,,משרד הבריאות
אבו סנאן ג,אבו סנאן,צפון,עכו,אבו סנאן,32.959529,35.168596,04-9964520,8:00-16:00,8:00-16:00,8:00-16:00,8:00-16:00,8:00-16:00,סגור,סגור,,משרד הבריאות
אבו סנאן ד,אבו סנאן,צפון,עכו,אבו סנאן,32.959529,35.168596,04-9966757,סגור,8:00-16:00,8:00-16:00,8:00-16:00,8:00-16:00,8:00-16:00,סגור,,משרד הבריאות
אבן יהודה,אבן יהודה,מרכז,השרון,המייסדים  41,32.2694853,34.8904227,09-8917436,7:30-15:00,8:00-19:30,9:30-13:00,7:30-16:00,7:30-13:00,8:00-12:00,סגור,,קופת חולים מאוחדת
אבן יהודה,אבן יהודה,מרכז,השרון,"אסותא 2, אבן יהודה",32.276648,34.885087,"09-8915222 ,09-8915222",8:00-13:00  16:00-19:00,8:00-14:00,8:00-13:00   16:00-19:00,8:00-13:00,8:00-15:00,סגור,סגור,,קופת חולים כללית
אבן שמואל,אבן שמואל,אשקלון,אשקלון,ד.נ שדה גת,31.576429,34.762963,08-6857222,סגור,12:00-16:00,12:00-16:00,סגור,סגור,סגור,סגור,,קופת חולים כללית
מרכז אבשלום,אבשלום,דרום,באר שבע,ד.נ. הנגב 85488,31.195397,34.3312,08-9985025,9:00-12:00  16:00-19:00,7:00-12:00,סגור,סגור,9:00-12:00,סגור,סגור,,קופת חולים כללית
אדמית,אדמית,צפון,עכו,אדמית,33.079458,35.212213,04-9859113,סגור,סגור,סגור,סגור,סגור,סגור,סגור,,קופת חולים כללית
אום אל גאנם,אום אל-גנם,צפון,יזרעאל,אום אל גאנם,32.676642,35.391943,04-6769237,8:00-14:00,8:00-20:00,סגור,8:00-14:00,8:00-14:00,8:00-13:00,סגור,,משרד הבריאות
אום אלפחם ו,אום אלפחם,חיפה,חדרה,עין ג'ארר,32.510051,35.142063,04-6316730,8:00-13:30,8:00-20:00,8:00-13:30,סגור,סגור,סגור,סגור,,משרד הבריאות
אופקים ב',אופקים,דרום,באר שבע,"שכונת שרת, רחוב יוגב 19, מקלט 9",31.311337,34.622824,08-9922622,8:00-16:00,8:00-20:00,8:00-16:00,8:00-16:00,8:00-16:00,סגור,סגור,,משרד הבריאות
אופקים ג',אופקים,דרום,באר שבע,"שכונת בן גוריון, חפץ חיים 22",31.311337,34.622824,08-9922621,8:00-20:00,8:00-20:00,8:00-16:00,8:00-16:00,8:00-20:00,סגור,סגור,,משרד הבריאות
אור יהודה,אור יהודה,מרכז,מרכז,אופירה 1,32.0274752,34.8648857,03-5387222,7:30-18:30,7:30-18:00,7:30-15:45,8:00-13:00,8:00-13:00,סגור,סגור,,מכבי שרותי בריאות
אורות,אור עקיבא,חיפה,חדרה,האלון 100 אורות,32.500905,34.925589,077-7282635,8:00-13:30,8:00-13:30,8:00-13:30,8:00-13:30,8:00-13:30,סגור,סגור,קיסריה,משרד הבריאות
קנדי,אור עקיבא,חיפה,חדרה,השירות ניתן בבלפור,32.509965,34.920394,077-3361967,8:00-15:30,8:00-15:30,8:00-15:30,8:00-15:30,8:00-15:30,סגור,סגור,,משרד הבריאות
בלפור,אור עקיבא,חיפה,חדרה,רחוב בלפור,32.508682,34.918493,077-3361967,סגור,סגור,סגור,סגור,סגור,סגור,סגור,"קיסריה, תחנה סגורה זמנית בשל שיפוץ",משרד הבריאות
אורים,אורים,דרום,באר שבע,ד.נ הנגב,31.304094,34.524868,"08-9920211 ,08-9920500",סגור,סגור,9:00-12:00,סגור,סגור,סגור,סגור,,קופת חולים כללית
אורנית,אורנית,מרכז,השרון,מרכז מסחרי 1,32.131924,34.99081,03-7214100,8:00-12:00  16:00-18:30,8:00-12:00  16:00-18:30,8:00-12:00  16:00-18:30,8:00-12:00  16:00-18:30,16:00-18:30,סגור,סגור,,מכבי שרותי בריאות
אורנית,אורנית,מרכז,פתח תקווה,ליד המרכז המסחרי אורנית,32.131924,34.99081,"03-9085301 ,03-9085301",סגור,8:00-14:00,סגור,8:00-14:00,סגור,סגור,סגור,,קופת חולים כללית
אושה,אושה,חיפה,חיפה,ד.נ כפר המכבי,32.796458,35.114584,"04-8458579 ,04-8458579",8:00-12:00,סגור,סגור,סגור,סגור,סגור,סגור,,קופת חולים כללית
אזור,אזור,תל אביב,תל אביב,משה שרת 73,32.0265173,34.8068745,03-5586874,7:30-15:30,7:30-15:30,8:00-16:00,8:00-16:00,8:00-16:00,8:00-13:00,סגור,,משרד הבריאות
אחוזת ברק,אחוזת ברק,צפון,יזרעאל,אחוזת ברק,32.6436161,35.3374094,04-6421420,סגור,סגור,סגור,סגור,סגור,סגור,סגור,,קופת חולים כללית
אחיהוד,אחיהוד,צפון,עכו,ד.נ משגב,32.907405,35.171715,04-9964570,סגור,12:00-17:00,סגור,8:00-13:00,סגור,סגור,סגור,,קופת חולים כללית
אחיטוב,אחיטוב,מרכז,השרון,ד.נ חפר,32.387701,34.990826,04-6258153,סגור,9:30-15:00,סגור,15:00-16:30,סגור,סגור,סגור,,קופת חולים כללית
איבטין,איבטין,חיפה,חיפה,איבטין,32.761542,35.111591,04-8870530,סגור,9:00-14:00,9:00-15:00,8:00-13:00,9:00-14:00,סגור,סגור,,קופת חולים כללית
אייל,אייל,מרכז,פתח תקווה,ד.נ שרון תיכון,32.210711,34.978259,09-7639100,10:30-14:00,16:00-19:30,10:00-14:00,13:00-14:00,10:30-13:30,סגור,סגור,,קופת חולים כללית
איילת השחר,איילת השחר,צפון,צפת,ד.נ גליל עליון,33.021115,35.576732,04-6923222,סגור,סגור,סגור,סגור,סגור,סגור,סגור,,קופת חולים כללית
אילון,אילון,צפון,עכו,ד.נ גליל מערבי,33.062526,35.219162,04-9858222,8:30-10:30,סגור,8:00-10:00,סגור,סגור,סגור,סגור,,קופת חולים כללית
חבל אילות,אילות,דרום,באר שבע,ד.נ חבל אילות 88820,29.580548,34.963023,08-6355885,סגור,סגור,סגור,סגור,סגור,סגור,סגור,,קופת חולים כללית
אילניה,אילניה,צפון,כנרת,ד.נ גליל תחתון,32.753908,35.408188,04-6766110,16:00-18:00,סגור,16:00-18:00,8:30-10:00,סגור,סגור,סגור,,קופת חולים כללית
הדקל,אילת,דרום,באר שבע,"ברנע, מרכז הדקל",29.561948,34.947069,08-6341071,8:00-16:00,8:00-20:00,8:00-16:00,8:00-16:00,8:00-16:00,סגור,סגור,,משרד הבריאות
צאלים,אילת,דרום,באר שבע,שכ' צאלים,29.560463,34.935878,08-6318353,8:00-20:00,8:00-20:00,8:00-20:00,8:00-20:00,8:00-20:00,סגור,סגור,,משרד הבריאות
שחמון,אילת,דרום,באר שבע,אילת,29.509288,34.921023,08-6317236,8:00-20:00,8:00-20:00,8:00-20:00,8:00-20:00,8:00-20:00,סגור,סגור,,משרד הבריאות
אכסאל א',אכסאל,צפון,יזרעאל,אכסאל,32.679391,35.322258,04-6561450,8:00-14:00,8:00-14:00,8:00-20:00,8:00-14:00,8:00-14:00,8:00-13:00,סגור,,משרד הבריאות
אכסאל ב',אכסאל,צפון,יזרעאל,אכסאל,32.679391,35.322258,04-6461760,8:00-14:00,8:00-14:00,8:00-14:00,8:00-20:00,8:00-14:00,8:00-14:00,סגור,,משרד הבריאות
אל אטרש,אל אטרש,דרום,באר שבע,אל אטרש,31.264161,34.948716,054-9191684,8:30-14:00,8:30-14:00,8:30-14:00,8:30-14:00,8:30-14:00,סגור,סגור,,משרד הבריאות
אלומה,אלומה,אשקלון,אשקלון,ד.נ שדה גת,31.652041,34.742872,08-6887813,סגור,סגור,סגור,סגור,סגור,סגור,סגור,,קופת חולים כללית
אלומות,אלומות,צפון,כנרת,ד.נ גליל תחתון,32.706628,35.546088,04-6750802,סגור,סגור,סגור,סגור,סגור,8:00-10:00,סגור,,קופת חולים כללית
אלון הגליל,אלון הגליל,צפון,יזרעאל,אלון הגליל,32.759557,35.219545,04-9861614,סגור,סגור,סגור,סגור,סגור,סגור,סגור,,קופת חולים כללית
אלון מורה,אלון מורה,מרכז,פתח תקווה,אילון מורה,32.229383,35.331646,02-9973779,10:00-13:00,סגור,8:30-13:00,8:30-13:00,10:00-13:00,סגור,סגור,,קופת חולים כללית
אלון שבות,אלון שבות,ירושלים,ירושלים,"מגיני הגוש, אלון שבות",31.654871,35.125256,02-9939775,סגור,7:00-19:00,8:30-18:00,8:00-13:00,7:30-15:30,סגור,סגור,,קופת חולים מאוחדת
אלון שבות,אלון שבות,ירושלים,ירושלים,מרכז מסחרי אלון שבות,31.654871,35.125256,02-9931467,7:30-12:30,8:00-13:30 16:00-19:00,סגור,8:00-13:30,סגור,סגור,סגור,,קופת חולים כללית
אלוני הבשן,אלוני הבשן,צפון,כנרת,ד.נ רמת הגולן,33.044087,35.838507,04-6960012,9:30-10:30,8:00-9:00,סגור,15:30-16:30,סגור,סגור,סגור,,קופת חולים כללית
אלונים,אלונים,צפון,יזרעאל,דואר אלונים,32.721459,35.143399,04-9838111,סגור,סגור,סגור,סגור,סגור,סגור,סגור,,קופת חולים כללית
אליכין,אליכין,מרכז,השרון,שלום שבזי 26,32.4076009,34.92507,04-6365831,סגור,11:00-15:30,7:00-12:00,7:30-13:30,13:00-18:30,סגור,סגור,,קופת חולים כללית
אלמוג,אלמוג,ירושלים,ירושלים,ד.נ. ערבות הירדן,31.790034,35.461968,02-9945222,סגור,סגור,סגור,8:00-11:00,14:30-15:30,סגור,סגור,,קופת חולים כללית
אלעד א',אלעד,מרכז,פתח תקווה,שמאי 4,32.0507833,34.9498062,03-9087880,8:00-20:00,8:00-20:00,8:00-16:00,8:00-20:00,8:00-16:00,8:00-13:00,סגור,,משרד הבריאות
אלעד ב',אלעד,מרכז,פתח תקווה,רבי מאיר 11,32.04953,34.95075,03-9320759,8:00-20:00,8:00-20:00,8:00-20:00,8:00-20:00,8:00-20:00,8:00-13:00,סגור,ביום ה' 22/8 שירות יינתן בתחנה אלעד א' עד שעה 20:00,משרד הבריאות
אלפי מנשה,אלפי מנשה,מרכז,השרון,מ. מסחרי לב הישוב,32.170631,35.014858,09-7949200,8:00-12:00  16:00-18:30,8:00-12:00  16:00-18:30,8:00-12:00  16:00-18:30,8:00-12:00  16:00-18:30,8:00-12:00  16:00-18:30,סגור,סגור,,מכבי שרותי בריאות
אלפי מנשה,אלפי מנשה,מרכז,השרון,גלבוע 118,32.1707223,35.0140438,"09-7925227 ,09-7925227",7:00-15:00,7:00-15:00,10:30-13:00 16:00-19:00,7:00-15:00,10:30-12:00,7:00-12:00,סגור,,קופת חולים כללית
אלקוש,אלקוש,צפון,עכו,ד.נ מעלה הגליל,33.034294,35.326348,04-9870449,סגור,9:00-12:00,סגור,סגור,סגור,סגור,סגור,,קופת חולים כללית
אלקנה,אלקנה,מרכז,פתח תקווה,מרכז מסחרי אלקנה,32.110566,35.032054,"03-9077400 ,03-9077400",8:00-13:00  16:00-20:00,8:00-13:00,סגור,8:00-13:00,סגור,8:00-12:00,סגור,,קופת חולים כללית
אמציה,אמציה,דרום,באר שבע,ד.נ לכיש,31.531176,34.914463,,סגור,8:00-13:00,סגור,סגור,סגור,סגור,סגור,,קופת חולים לאומית
אפק,אפק,צפון,עכו,ד.נ אפק,32.838316,35.12778,04-8784088,סגור,יחוסנו באושה,סגור,סגור,סגור,סגור,סגור,,קופת חולים כללית
אפרת,אפרת,ירושלים,ירושלים,שד' דוד המלך אפרת,31.653589,35.149934,02-5619888,15:00-18:00,8:00-16:00,8:00-15:00,8:00-18:30,8:00-19:00,סגור,סגור,,קופת חולים מאוחדת
אפרת,אפרת,ירושלים,ירושלים,ת.ד 1041,31.653589,35.149934,02-9932140,8:00-14:00,סגור,9:00-12:00 16:00-18:30,9:00-12:00 16:00-18:30,8:00-13:00,8:00-13:00,סגור,,מכבי שרותי בריאות
אפרת,אפרת,ירושלים,ירושלים,רח' התאנה אפרת,31.653589,35.149934,"02-9931955 ,02-9937555",8:00-13:00,8:00-13:00,8:00-13:00 14:00-19:00,8:00-13:00,8:00-13:00,8:00-12:00,סגור,,קופת חולים כללית
ארבל,ארבל,צפון,כנרת,ד.נ גליל תחתון,32.812247,35.486453,04-6793879,סגור,סגור,סגור,סגור,11:00-14:30,סגור,סגור,,קופת חולים כללית
ארז,ארז,אשקלון,אשקלון,ד.נ חוף אשקלון,31.55984,34.564889,08-6801222,סגור,סגור,17:00-19:00,10:00-12:00,סגור,סגור,סגור,,קופת חולים כללית
אריאל,אריאל,מרכז,השרון,הערבה 1,32.1047166,35.1872407,03-9065050,8:00-12:00  16:00-18:30,8:00-12:00  16:00-18:30,8:00-12:00  16:00-18:30,8:00-12:00  16:00-18:30,8:00-12:00  16:00-18:30,סגור,סגור,,מכבי שרותי בריאות
אריאל,אריאל,מרכז,השרון,אורי בר און,32.104637,35.174514,"03-9065200 ,03-9065200",8:00-12:30  16:00-19:00,8:00-13:00,8:00-12:30  16:00-19:00,8:00-12:30,8:00-12:30,סגור,סגור,,קופת חולים כללית
אשדוד א',אשדוד,אשקלון,אשקלון,רח' שבי ציון 14,31.804381,34.655314,08-8523739,8:00-20:00,8:00-20:00,8:00-20:00,8:00-20:00,8:00-20:00,8:00-12:00,סגור,,משרד הבריאות
אשדוד ד',אשדוד,אשקלון,אשקלון,רח' השייטים 14,31.804381,34.655314,08-8551181,8:00-20:00,8:00-20:00,8:00-20:00,8:00-20:00,8:00-20:00,8:00-12:00,סגור,,משרד הבריאות
אשדוד ה',אשדוד,אשקלון,אשקלון,רח' נאות ספיר 13,31.804381,34.655314,08-8552544,8:00-20:00,8:00-20:00,8:00-20:00,8:00-20:00,8:00-20:00,8:00-12:00,סגור,,משרד הבריאות
אשדוד ו',אשדוד,אשקלון,אשקלון,רח' חיים חורי 5,31.804381,34.655314,08-8553707,8:00-20:00,8:00-20:00,8:00-20:00,8:00-20:00,8:00-20:00,8:00-12:00,סגור,,משרד הבריאות
אשדוד ז',אשדוד,אשקלון,אשקלון,רח' שמאי 5,31.804381,34.655314,08-8671894,8:00-20:00,8:00-20:00,8:00-20:00,8:00-20:00,8:00-20:00,8:00-12:00,סגור,,משרד הבריאות
אשדוד ח',אשדוד,אשקלון,אשקלון,רח' מבוא העירית 3,31.804381,34.655314,08-8551113,8:00-20:00,8:00-20:00,8:00-20:00,8:00-20:00,8:00-20:00,8:00-12:00,סגור,,משרד הבריאות
אשדוד יא',אשדוד,אשקלון,אשקלון,רח' כנרת 29,31.804381,34.655314,08-8558524,8:00-20:00,8:00-20:00,8:00-20:00,8:00-20:00,8:00-20:00,8:00-12:00,סגור,,משרד הבריאות
אשדוד יג',אשדוד,אשקלון,אשקלון,רח' שלמה המלך 25,31.804381,34.655314,08-8643326,8:00-20:00,8:00-20:00,8:00-20:00,8:00-20:00,8:00-20:00,8:00-12:00,סגור,,משרד הבריאות
אשדוד ב',אשדוד,אשקלון,אשקלון,רח' סטרומה 14,31.804381,34.655314,08-8523707,סגור,סגור,סגור,סגור,סגור,סגור,סגור,בשיפוצים מקבלים בתחנה א',משרד הבריאות
אשדוד ג',אשדוד,אשקלון,אשקלון,רח' חטיבת הנגב 2,31.804381,34.655314,08-8522823,סגור,סגור,סגור,סגור,סגור,סגור,סגור,בשיפוצים מקבלים בתחנה ז',משרד הבריאות
ברנע,אשקלון,אשקלון,אשקלון,רח' קרייתי 9,31.665945,34.559464,08-6717770,8:00-20:00,8:00-20:00,8:00-20:00,8:00-20:00,8:00-20:00,8:00-12:00,סגור,,משרד הבריאות
נווה דקלים,אשקלון,אשקלון,אשקלון,רח' אקסודוס 12,31.665945,34.559464,08-6780176,8:00-20:00,8:00-20:00,8:00-20:00,8:00-20:00,8:00-20:00,8:00-12:00,סגור,,משרד הבריאות
שמשון,אשקלון,אשקלון,אשקלון,רח' ההסתדרות 10,31.665945,34.559464,08-6766074,סגור,סגור,סגור,סגור,סגור,סגור,סגור,סגורה השירות מתחלק לנווה דקלים וברנע.,משרד הבריאות
אשקלון-נאות אשקלון,אשקלון,אשקלון,אשקלון,יהדות בריטניה,31.662745,34.576964,08-6796222,9:00-13:00  16:00-19:00,9:00-13:00,9:00-13:00  16:00-19:00,9:00-13:00,9:00-13:00,סגור,סגור,,קופת חולים כללית
אשקלון -דרום,אשקלון,אשקלון,אשקלון,אסף הרופא,31.655709,34.583385,"08-6798222 ,08-6798222",16:00-19:00,9:00-12:30,9:00-12:30,9:00-12:00 לסירוגין,9:00-12:00,סגור,סגור,,קופת חולים כללית
אשקלון -העיר צפון,אשקלון,אשקלון,אשקלון,הנחל קניון חוצות,31.665945,34.559464,08-6770711,9:00-12:30  16:00-18:00,סגור,9:00-10:30,סגור,סגור,סגור,סגור,,קופת חולים כללית
אשקלון -מרכז הילד,אשקלון,אשקלון,אשקלון,הסתדרות,31.657719,34.560505,"08-6830222 ,08-6830228",8:00-13:00  16:00-19:00,8:00-16:00,8:00-13:00  16:00-19:00,8:00-13:00,8:00-16:00,סגור,סגור,,קופת חולים כללית
מרכז בריאות טל,באר טוביה,אשקלון,אשקלון,דואר באר טוביה,31.737127,34.72557,08-8581008,8:00-13:00,8:00-13:00,8:00-13:00,8:00-13:00,סגור,סגור,סגור,,קופת חולים כללית
באר יעקב,באר יעקב,מרכז,רמלה,יהודה 6,31.9441276,34.8373161,08-9282168,8:00-20:00,8:00-20:00,8:00-20:00,8:00-20:00,8:00-20:00,8:00-13:00,סגור,ניר צבי נצר סרני,משרד הבריאות
תחנה ג',באר שבע,דרום,באר שבע,וינגייט 8,31.256477,34.8095024,08- 6233875,8:00-16:00,8:00-16:00,8:00-16:00,8:00-16:00,8:00-16:00,סגור,סגור,,משרד הבריאות
תחנה ו',באר שבע,דרום,באר שבע,הוברמן 7,31.2534438,34.7904054,08-6433511,8:00-16:00,8:00-16:00,8:00-16:00,8:00-16:00,8:00-16:00,סגור,סגור,,משרד הבריאות
"תחנה י""ד",באר שבע,דרום,באר שבע,סנהדרין 113,31.2689761,34.7878402,08-6413897,8:00-16:00,8:00-16:00,8:00-16:00,8:00-16:00,8:00-16:00,סגור,סגור,,משרד הבריאות
טבנקין,באר שבע,דרום,באר שבע,טבנקין,31.255057,34.773988,08-6411166,8:00-16:00,8:00-16:00,8:00-16:00,8:00-16:00,8:00-16:00,סגור,סגור,,משרד הבריאות
יונתן,באר שבע,דרום,באר שבע,"רד""ק 21",31.2563399,34.7725246,08-6419677,8:00-16:00,8:00-16:00,8:00-16:00,8:00-16:00,8:00-16:00,סגור,סגור,,משרד הבריאות
רמות,באר שבע,דרום,באר שבע,רוברטו ברני 5,31.2705406,34.8085068,08-6481257,8:00-16:00,8:00-20:00,8:00-16:00,8:00-16:00,8:00-20:00,סגור,סגור,,משרד הבריאות
נחל בקע,באר שבע,דרום,באר שבע,גיבתון – מקלט 10,31.252973,34.791462,08-6279768,8:00-16:00,8:00-16:00,8:00-16:00,8:00-16:00,8:00-16:00,סגור,סגור,,משרד הבריאות
אבורביע,באר שבע,דרום,באר שבע,ש.בני עין חרוד,31.238146,34.791533,08-6233853,8:00-20:00,8:00-16:00,8:00-16:00,8:00-20:00,8:00-16:00,סגור,סגור,,משרד הבריאות
נווה זאב,באר שבע,דרום,באר שבע,יוהנה ז'בוטינסקי,31.239795,34.775267,08-9113228,סגור,סגור,סגור,סגור,סגור,סגור,סגור,,קופת חולים כללית
בארותיים,בארותיים,מרכז,השרון,ד.נ לב השרון,32.321039,34.98343,09-8986366,סגור,15:00-19:30,סגור,7:30-13:00,סגור,סגור,סגור,,קופת חולים כללית
בארי,בארי,דרום,באר שבע,ד.נ. הנגב 85135,41.1171432,16.8718715,08-9949444,10:00-14:00,סגור,10:00-14:00,סגור,סגור,סגור,סגור,,קופת חולים כללית
בוסתן הגליל,בוסתן הגליל,צפון,עכו,ד.נ אושרת,32.948636,35.080688,04-9819411,סגור,סגור,סגור,סגור,סגור,סגור,סגור,,קופת חולים כללית
בועיינה,בועיינה,צפון,כנרת,בועיינה,32.804166,35.363107,04-6730380,8:00-16:00,8:00-16:00,8:00-16:00,8:00-16:00,8:00-19:00,8:00-13:00,סגור,,משרד הבריאות
בוקעתה,בוקעתה,צפון,צפת,בוקעתה,33.204585,35.772288,04-6981183,סגור,8:00-16:00,8:00-16:00,8:00-16:00,8:00-16:00,סגור,סגור,,משרד הבריאות
ביצרון,ביצרון,אשקלון,אשקלון,מושב ביצרון,31.795406,34.72911,08-8573095,סגור,7:30-14:30,9:00-13:00,סגור,סגור,סגור,סגור,,קופת חולים כללית
ביר אל מקסור מקמן,ביר אל-מכסור,צפון,עכו,ביר אל מקסור,32.772294,35.214565,04-9502842,8:00-16:00,סגור,סגור,8:00-16:00,88:00-16:00,סגור,סגור,,משרד הבריאות
ביר אל מקסור,ביר אל-מכסור,צפון,עכו,ביר אל מקסור,32.772294,35.214565,04-9866202,8:00-16:00,8:00-16:00,8:00-16:00,8:00-16:00,8:00-16:00,סגור,סגור,,משרד הבריאות
בית אל,בית אל,מרכז,רמלה,"דרך החלוצים,פינת כנפי נשרים",31.936285,35.221508,02-9975318,10:00-13:00,8:00-13:00,10:00-16:00,8:00-15:00,10:00-13:00,סגור,סגור,,קופת חולים כללית
בית אלפא,בית אלפא,צפון,יזרעאל,מרכז קליטה,32.516357,35.430499,04-6070212,8:00-14:00,סגור,8:00-14:00,סגור,8:00-14:00,8:00-13:00,סגור,,משרד הבריאות
בית אלפא,בית אלפא,צפון,יזרעאל,ד.נ גלבוע,32.516357,35.430499,04-6533900,סגור,סגור,סגור,סגור,סגור,סגור,סגור,,קופת חולים כללית
בית גוברין,בית גוברין,אשקלון,אשקלון,ד.נ לכיש דרום,31.61288,34.895568,"08-6874219 ,08-6874219",סגור,10:00-12:00,סגור,סגור,סגור,סגור,סגור,,קופת חולים כללית
בית דגן,בית דגן,מרכז,רמלה,בגין 25,32.002902,34.8325189,09-9600854,8:00-16:00,8:00-16:00,8:00-20:00,8:00-16:00,8:00-16:00,8:00-13:00,סגור,משמר השבעה גנות חמד,משרד הבריאות
בית העמק,בית העמק,צפון,עכו,מעלה הגליל,32.970683,35.144845,"04-9960666 ,04-9960666",סגור,יחוסנו בנהריה עמידר,סגור,10:00-12:00,סגור,10:00-12:00,סגור,,קופת חולים כללית
בית השיטה,בית השיטה,צפון,יזרעאל,דואר בית השיטה,32.550874,35.439351,04-6536788,סגור,סגור,סגור,סגור,סגור,סגור,סגור,,קופת חולים כללית
בית זית,בית זית,ירושלים,ירושלים,ד.נ. הרי יהודה 90815,31.783058,35.161117,"02-5346616 ,02-5346616",8:00-13:00,סגור,סגור,סגור,סגור,סגור,סגור,,קופת חולים כללית
בית יוסף ירדנה,בית יוסף ירדנה,צפון,יזרעאל,,32.558698,35.552773,04-6588996,סגור,סגור,סגור,סגור,סגור,סגור,סגור,,קופת חולים כללית
בית ניר,בית ניר,אשקלון,אשקלון,שד.נ שדה גת,31.647627,34.873107,08-6874316,סגור,סגור,16:00-18:00,סגור,סגור,7:30-11:00,סגור,,קופת חולים כללית
בית קמה,בית קמה,דרום,באר שבע,ד.נ הנגב,31.446566,34.762248,08-9915222,סגור,סגור,סגור,סגור,סגור,סגור,סגור,,קופת חולים כללית
בית רימון,בית רימון,צפון,יזרעאל,ד.נ גליל תחתון,32.781845,35.327738,04-6509640,סגור,סגור,סגור,סגור,סגור,סגור,סגור,,קופת חולים כללית
בית שאן,בית שאן,צפון,יזרעאל,שאול המלך 61,32.5045095,35.4933088,04-6481180,8:00-12:00  16:00-18:30,16:00-18:30,סגור,8:00-12:00,סגור,8:00-11:00,סגור,,מכבי שרותי בריאות
בית שאן מ.בריאות הילד,בית שאן,צפון,יזרעאל,שכונת אליהו,32.491438,35.496156,04-6061200,סגור,סגור,סגור,סגור,סגור,סגור,סגור,,קופת חולים כללית
היובל,בית שמש,ירושלים,ירושלים,הגליל 2,31.7478378,34.9923222,02-9991631,8:00-15:00,8:00-15:00,8:00-15:00,7:30-19:00,7:30-15:00,סגור,סגור,,משרד הבריאות
גבעת שרת א',בית שמש,ירושלים,ירושלים,הנורית 2,31.739029,34.9815555,02-9912582,8:30-16:00,8:30-14:00,8:30-14:00,8:00-19:30,8:00-15:00,סגור,סגור,"אביעזר, אדרת, אשתאול, גבעת ישעיהו, גיזו-צלפון, דיר ראפאת, הראל, זכריה, זנוח, כפר אוריה, לוזית, ליאון, מחסיה, מע, מסילת ציון, נווה מיכאל, נווה שלום, נחושה, נוחם, נס הרים, נתיב הל""ה עג'ור, צלפון, צפרירים, צרעה, שדות מיכה, תירוש, תעוז, תרום.",משרד הבריאות
לכיש/עדן,בית שמש,ירושלים,ירושלים,נחל לכיש 32,31.7130602,34.9929347,02-9917506,8:00-15:00,8:00-15:30,8:00-15:00,8:00-14:00,8:00-17:00,סגור,סגור,,משרד הבריאות
מעיין,בית שמש,ירושלים,ירושלים,שבטי ישראל 4,31.74092,34.988454,02-9990027,12:00-18:30,8:00-15:00,8:00-15:00,8:00-19:00,8:00-15:00,8:00-12:00,סגור,,משרד הבריאות
מרגלית,בית שמש,ירושלים,ירושלים,אור החיים 2,31.747041,34.988099,02-6312277/8,8:00-15:00,8:00-15:00,8:00-15:00,8:00-16:00,8:00-19:00,8:00-12:00,סגור,,משרד הבריאות
בית שקמה,בית שקמה,אשקלון,אשקלון,ד.נ חוף אשקלון,31.637735,34.610074,08-6752749,סגור,סגור,8:00-13:00,סגור,סגור,סגור,סגור,,קופת חולים כללית
ביתר מקצועית,ביתר,ירושלים,ירושלים,רבי עקיבא 11 ביתר עלית,32.441117,34.905096,02-5887555,11:00-19:00,8:30-15:30,8:00-16:00,8:00-16:00,8:00-16:00,סגור,סגור,,קופת חולים כללית
הדס,ביתר עילית,ירושלים,ירושלים,הבאבא סאלי 10,31.693493,35.118036,5800106 - 02,8:00-14:00,8:00-14:00,8:00-14:00,8:00-19:00,8:00-14:00,8:00-12:00,סגור,"צור הדסה, בר גיורא, נס הרים, מבא ביתר",משרד הבריאות
הגפן,ביתר עילית,ירושלים,ירושלים,"חב""ד 2",31.6997731,35.1119205,5804462 - 02,8:00-14:00,8:00-14:00,8:00-14:00,8:00-19:30,8:00-19:30,סגור,סגור,,משרד הבריאות
בן עמי,בן עמי,צפון,עכו,ד.נ אושרת,33.005369,35.122218,04-9823029,7:00-11:00,15:00-19:00,12:00-16:00,7:00-12:00,7:00-11:00,סגור,סגור,,קופת חולים כללית
הרצוג,בני-ברק,תל אביב,תל אביב,הרצוג 20,32.0883449,34.8253677,03-5704619,7:30-15:30,7:30-15:30,8:00-20:00,8:00-20:00,8:00-20:00,8:00-13:00,סגור,,משרד הבריאות
לנדאו,בני-ברק,תל אביב,תל אביב,רח' לנדאו יעקב 4,32.084932,34.835226,03-5704098,7:30-14:30,7:30-14:30,8:00-20:00,8:00-20:00,8:00-20:00,8:00-13:00,סגור,,משרד הבריאות
נויפלד,בני-ברק,תל אביב,תל אביב,נויפלד 15,32.0968661,34.841098,03-5709720,7:30-19:00,7:30-15:30,8:00-20:00,8:00-20:00,8:00-20:00,8:00-13:00,סגור,,משרד הבריאות
שיכון ו',בני-ברק,תל אביב,תל אביב,עמרם גאון 4,32.0706459,34.8390835,03-5742684,7:30-19:00,7:30-15:30,8:00-20:00,8:00-20:00,8:00-20:00,8:00-13:00,סגור,,משרד הבריאות
יואל,בני-ברק,תל אביב,תל אביב,יואל 18,32.0901928,34.8365277,03-6185662,7:30-15:30,7:30-15:30,8:00-20:00,8:00-20:00,8:00-20:00,8:00-13:00,סגור,,משרד הבריאות
פרדס כץ,בני-ברק,תל אביב,תל אביב,ז'בוטינסקי 57,32.0919736,34.8320773,03-6183470,7:30-15:30,7:30-19:00,8:00-20:00,8:00-20:00,8:00-20:00,8:00-13:00,סגור,,משרד הבריאות
חפץ חיים,בני-ברק,תל אביב,תל אביב,חפץ חיים 7,32.0845835,34.8327929,03-6188551,8:00-19:00,7:30-15:30,8:00-20:00,8:00-20:00,8:00-20:00,8:00-13:00,סגור,,משרד הבריאות
מצדה,בני-ברק,תל אביב,תל אביב,רובינוב 28,32.084932,34.835226,03-5708223,7:30-15:30,7:30-15:30,8:00-20:00,8:00-20:00,8:00-20:00,8:00-13:00,סגור,,משרד הבריאות
בני דרום,בני דרום,מרכז,רחובות,בני דרום,31.821964,34.6923251,08-8515543,סגור,סגור,סגור,סגור,8:00-12:00,סגור,סגור,,קופת חולים כללית
בני יהודה,בני יהודה,צפון,כנרת,,32.798262,35.69107,"04-6762017 ,04-6605500",סגור,13:00-18:00,8:00-13:00,8:00-13:00,סגור,סגור,סגור,,קופת חולים כללית
בנימינה,בנימינה,חיפה,חדרה,העצמאות 90,32.5277516,34.9367673,077-7801427,8:00-14:30,8:00-14:30,8:00-14:30,8:00-14:30,8:00-14:30,סגור,סגור,בית חנניה,משרד הבריאות
בוסמת טבעון,בסמת טבעון,צפון,יזרעאל,בוסמת טבעון,32.737406,35.154557,04-9837866,8:00-14:00,8:00-14:00,8:00-14:00,8:00-20:00,8:00-14:00,8:00-13:00,סגור,,משרד הבריאות
בענה,בענה,צפון,עכו,בענה,32.932673,35.27441,04-9988464,8:00-16:00,8:00-16:00,8:00-18:00,8:00-16:00,8:00-16:00,סגור,סגור,,משרד הבריאות
בקוע,בקוע,ירושלים,ירושלים,בקוע,31.825192,34.929786,08-9251156,סגור,סגור,סגור,12:00-14:30,סגור,סגור,סגור,,קופת חולים כללית
בקעות +רועי,בקעות,ירושלים,ירושלים,ד.נ חבל יריחו,32.24207,35.452636,"02-9941811 ,02-9941071",סגור,סגור,סגור,12:00-13:00,סגור,10:00-12:00,סגור,,קופת חולים כללית
ברור חיל,ברור חיל,אשקלון,אשקלון,ד.נ חוף אשקלון 79152,31.556985,34.646547,"08-6803661 ,08-6803659",10:00-12:00,סגור,סגור,סגור,סגור,8:00-10:00,סגור,,קופת חולים כללית
ברטעה,ברטעה,חיפה,חדרה,ברטעה,32.475484,35.091973,04-6253296,8:00-13:30,8:00-13:30,8:00-13:30,8:00-13:30,8:00-13:30,סגור,סגור,,משרד הבריאות
ברעם,ברעם,צפון,צפת,,33.058979,35.433235,04-6988119,סגור,סגור,7:30-9:00,סגור,סגור,סגור,סגור,,קופת חולים כללית
ברקאי,ברקאי,חיפה,חדרה,,32.476096,35.031044,"04-6387142 ,04-6387142",סגור,8:00-12:00,סגור,סגור,סגור,10:00-12:00,סגור,,קופת חולים כללית
מעפילים,בת-ים,תל אביב,תל אביב,מעפילים 16,32.0265302,34.7558931,03-5073079,7:30-15:30,7:30-15:30,8:00-20:00,8:00-20:00,8:00-20:00,8:00-13:00,סגור,,משרד הבריאות
גלעד,בת-ים,תל אביב,תל אביב,בלפור 152,32.0116902,34.7419319,03-5526771,7:30-19:00,7:30-15:30,8:00-20:00,8:00-20:00,8:00-20:00,8:00-13:00,סגור,,משרד הבריאות
הבנים,בת-ים,תל אביב,תל אביב,הבנים 7,32.0069193,34.7526262,03-5512816,7:30-15:30,7:30-15:30,8:00-16:00,8:00-16:00,8:00-16:00,8:00-13:00,סגור,,משרד הבריאות
חרושת,בת-ים,תל אביב,תל אביב,הנביאים 1/א,32.0145571,34.7488475,03-5516865,סגור,סגור,סגור,סגור,סגור,סגור,סגור,,משרד הבריאות
התבור,בת-ים,תל אביב,תל אביב,התבור 7,32.0123846,34.7576846,03-5512327,8:00-16:00,8:00-16:00,8:00-20:00,8:00-20:00,8:00-20:00,8:00-13:00,סגור,,משרד הבריאות
קדושי קהיר,בת-ים,תל אביב,תל אביב,קדושי קהיר 4,32.0239159,34.7468179,03-5063536,8:00-19:00,8:00-16:00,8:00-16:00,8:00-16:00,8:00-16:00,8:00-13:00,סגור,,משרד הבריאות
בת חפר,בת חפר,מרכז,השרון,,32.333714,35.013729,"09-8782138 ,09-887900",סגור,סגור,סגור,סגור,סגור,סגור,סגור,,קופת חולים כללית
ג'דידה-מכר,ג'דידה-מכר,צפון,עכו,ג'דידה-מכר,32.933388,35.140976,04-9562572,8:00-16:00,8:00-16:00,8:00-18:00,8:00-16:00,8:00-16:00,8:00-16:00,סגור,,משרד הבריאות
ג'לג'וליה,ג'לג'וליה,מרכז,פתח תקווה,רח' 131 מס' 24,32.155469,34.950714,03-9396237,8:00-16:00,8:00-16:00,8:00-19:00,8:00-20:00,8:00-20:00,8:00-13:00,סגור,,משרד הבריאות
ג'ת,ג'ת,צפון,עכו,ג'ת,32.400767,35.037092,04-9804645,סגור,סגור,סגור,סגור,8:00-18:00,12:00-16:00,סגור,,משרד הבריאות
ג'ת א,ג'ת,חיפה,חדרה,גת,32.400767,35.037092,077-2031338,8:00-20:00,8:00-13:30,8:00-13:30,8:00-13:30,8:00-13:30,סגור,סגור,,משרד הבריאות
ג'ת ב,ג'ת,חיפה,חדרה,ג'ת,32.400767,35.037092,077-4030677,8:00-13:30,8:00-13:30,8:00-13:30,8:00-13:30,8:00-13:30,סגור,סגור,,משרד הבריאות
גבים,גבים,אשקלון,אשקלון,ד.נ חוף אשקלון,31.506273,34.598949,"08-6802100 ,08-6802100",סגור,סגור,סגור,סגור,10-12,סגור,סגור,,קופת חולים כללית
גבע,גבע,צפון,יזרעאל,,32.56653,35.37216,04-6535773,סגור,סגור,סגור,סגור,סגור,סגור,סגור,,קופת חולים כללית
גבעת אבני,גבעת אבני,צפון,כנרת,,32.775382,35.436154,"04-6799193 ,04-6657000",סגור,סגור,7:30-15:00,סגור,סגור,סגור,סגור,,קופת חולים כללית
גבעת אלה,גבעת אלה,צפון,יזרעאל,,32.722007,35.244822,04-6515155,סגור,סגור,סגור,סגור,סגור,סגור,סגור,,קופת חולים כללית
גבעת ברנר,גבעת ברנר,מרכז,רחובות,גבעת ברנר,31.860451,34.807673,"08-9443555 ,08-9443555",סגור,12:00-19:00,7:00-12:00,סגור,סגור,סגור,סגור,,קופת חולים כללית
גבעת השלושה,גבעת השלושה,מרכז,פתח תקווה,קיבוץ גבעת השלושה,32.09634,34.920628,"03-9374900 ,03-9374900",סגור,8:00-12:00,סגור,סגור,סגור,סגור,סגור,,קופת חולים כללית
גבעת זאב,גבעת זאב,ירושלים,ירושלים,המכבים 48 גבעת זאב,31.8643615,35.1676988,02-5360336,8:00-18:00,8:00-19:00,8:00-16:00,8:00-19:00,8:00-16:00,8:00-11:00,סגור,,קופת חולים מאוחדת
גבעת זאב,גבעת זאב,ירושלים,ירושלים,המכבים,31.863876,35.167509,02-5360444,8:00-18:00,8:00-15:00,8:00-15:00,8:00-15:00,8:00-15:00 פעמיים בחודש  10:30- פעמיים בחודש15:00,8:00-12:00 שלוש בחודש,סגור,,קופת חולים כללית
גבעת זאב גן האיילות,גבעת זאב,ירושלים,ירושלים,האיילות 2,31.8646182,35.1432378,02-5360400,9:00-12:00,סגור,סגור,9:00-12:00,סגור,סגור,סגור,,קופת חולים כללית
גבעת חיים איחוד,גבעת חיים איחוד,מרכז,השרון,,32.396745,34.932978,04-6369525,סגור,סגור,8:00-12:00,8:00-12:00,סגור,סגור,סגור,,קופת חולים כללית
גבעת חיים מאוחד,גבעת חיים מאוחד,מרכז,השרון,,32.392148,34.929447,"04-6368493 ,04-6368132",סגור,סגור,סגור,סגור,סגור,סגור,סגור,,קופת חולים כללית
גבעת עדה,גבעת עדה,חיפה,חדרה,רחוב חי,32.516059,35.005196,077-7850830,8:00-13:30,8:00-13:30,8:00-13:30,8:00-13:30,8:00-13:30,סגור,סגור,"כפר גליקסון, רגבים, עמיקם, גבעת נילי ואביאל",משרד הבריאות
גבעת עוז,גבעת עוז,צפון,יזרעאל,,32.555934,35.198004,04-6524888,סגור,סגור,סגור,סגור,סגור,סגור,סגור,,קופת חולים כללית
גבעת רם,כרמיאל,צפון,עכו,,32.914671,35.292417,04-8807565,12:00-14:00,10:00-12:00,12:00-14:00,8:00-10:00,10:00-11:00,סגור,סגור,,קופת חולים כללית
גבעת שמואל,גבעת שמואל,מרכז,פתח תקווה,דוד אלעזר 6,32.0797073,34.8469516,03-5324947,8:00-18:00,7:30-20:00,7:30-15:30,7:30-15:30,7:30-15:30,8:00-13:00,סגור,,משרד הבריאות
גבעתיים,גבעתיים,מרכז,מרכז,בן גוריון 182,32.0747065,34.8184752,03-5734620,8:00-20:00,8:00-16:00,8:00-20:00,8:00-20:00,8:00-15:00,סגור,סגור,,מכבי שרותי בריאות
המעורר,גבעתים,תל אביב,תל אביב,המעורר 24,32.0770369,34.8080469,"03-6790217 ,03-6790217",7:00-18:00,7:00-14:30,7:00-13:30,8:00-15:00,8:00-13:30,סגור,סגור,,קופת חולים כללית
גברעם,גברעם,אשקלון,אשקלון,ד.נ חוף אשקלון,31.591461,34.612156,08-6770422,סגור,סגור,סגור,8:00-10:00,סגור,סגור,סגור,,קופת חולים כללית
גבת,גבת,צפון,יזרעאל,,32.67656,35.213151,04-6549807,סגור,סגור,סגור,סגור,סגור,סגור,סגור,,קופת חולים כללית
גדות,גדות,צפון,צפת,,33.018208,35.619547,04-6939124,סגור,סגור,סגור,14:00-17:00,סגור,סגור,סגור,,קופת חולים כללית
גדרה,גדרה,מרכז,מרכז,שד' מנחם בגין 48 גדרה,31.817531,34.785101,08-8681165,8:15-15:30,8:30-19:00,8:30-16:00,8:15-16:00,8:30-13:30,8:30-13:00,סגור,,קופת חולים מאוחדת
גדרה,גדרה,מרכז,רחובות,פינס 5,31.8161888,34.7775563,,8:00-12:00  16:00-18:30,8:00-15:00  16:00-18:30,8:00-13:00,8:00-15:00  16:00-20:00,8:30-18:00,8:00-12:30,סגור,,מכבי שרותי בריאות
גדרה,גדרה,מרכז,רחובות,ויצמן 8,31.8185403,34.7746263,"08-8593322 ,08-8593322",7:30-19:00,7:00-19:00,7:00-12:00,8:00-13:00,7:30-14:00,11:00-15:00,סגור,,קופת חולים כללית
גדרה הצעירה,גדרה,מרכז,רחובות,שד מנחם בגין 42,31.8037057,34.7841821,08-8681165,8:00-15:45,8:00-15:45,11:00-19:00,8:00-15:45,8:00-15:45,סגור,סגור,,קופת חולים כללית
גונן,גונן,צפון,צפת,,33.123564,35.647701,04-6955202,סגור,16:00-19:00,סגור,סגור,סגור,סגור,סגור,,קופת חולים כללית
גזית,גזית,צפון,יזרעאל,,32.639307,35.446239,04-6768807,16:00-20:00,8:00-15:00,סגור,סגור,סגור,סגור,סגור,,קופת חולים כללית
גיניגר,גיניגר,צפון,יזרעאל,ד.נ עמק יזרעאל,32.663419,35.259861,04-6549104,סגור,סגור,סגור,סגור,סגור,סגור,סגור,,קופת חולים כללית
גן יבנה,גן יבנה,מרכז,רחובות,הרצל 42,31.7858039,34.7079576,08-8574131,8:00-14:00,13:00-19:00,8:00-16:00,12:00-19:00,12:00-19:00,8:00-12:00,סגור,,מכבי שרותי בריאות
גן יבנה,גן יבנה,מרכז,רחובות,הרצל 41,31.7818759,34.7051899,08-8574131,8:00-19:00,סגור,7:30-15:30,7:30-14:00,סגור,8:00-12:00,סגור,,קופת חולים כללית
גן יבנה,גן יבנה,מרכז,רחובות,העצמאות 8,31.7894333,34.7140094,08-8687113,8:30-16:00,8:30-15:00,8:30-16:00,8:00-12:00,12:00-19:00,8:00-12:00,סגור,,קופת חולים מאוחדת
גן נר,גן נר,צפון,יזרעאל,ד.נ גלבוע,32.528706,35.336254,04-6400483,סגור,סגור,סגור,סגור,סגור,סגור,סגור,,קופת חולים כללית
גן שמואל,גן שמואל,חיפה,חדרה,ד.נ חפר,32.452911,34.949311,"04-6320003 ,04-6320000",8:00-10:00,8:00-10:00,8:00-10:00,סגור,8:00-10:00,סגור,סגור,,קופת חולים כללית
גנוסר,גנוסר,צפון,כנרת,,32.848666,35.523152,"04-6798866 ,04-6798866",סגור,סגור,סגור,סגור,9:30-12:00,סגור,סגור,,קופת חולים כללית
געש,געש,מרכז,השרון,קיבוץ געש,32.228477,34.824411,"09-9521152 ,09-9521152",8:30-12:00,סגור,8:30-12:00,סגור,סגור,סגור,סגור,,קופת חולים כללית
געתון,געתון,צפון,עכו,ד.נ גליל מערבי,33.006075,35.213831,"04-7858415 ,04-7858415",סגור,9:00-18:00,סגור,סגור,סגור,סגור,סגור,,קופת חולים כללית
גפן,גפן,ירושלים,ירושלים,ד.נ האלה,31.740766,34.878563,"08-8503184 ,08-8503184",סגור,8:00-10:00,סגור,סגור,סגור,סגור,סגור,,קופת חולים כללית
גשר,גשר,צפון,יזרעאל,ד.נ עמק הירדן,32.621205,35.550376,04-6758777,סגור,סגור,סגור,סגור,סגור,סגור,סגור,,קופת חולים כללית
גשר הזיו,גשר הזיו,צפון,עכו,ד.נ גליל מערבי,33.040532,35.110563,"04-9958458 ,04-9958458",8:00-17:00,7:30-12:00,8:00-13:00,סגור,7:30-13:00,9:00-12:00,סגור,,קופת חולים כללית
גת,גת,אשקלון,אשקלון,ד.נ שדה גת,31.627796,34.794112,"08-6871281 ,08-6871220",11:30-12:30,12:00-13:00,11:00-12:00,סגור,סגור,סגור,סגור,,קופת חולים כללית
דבורה,דבורה,צפון,יזרעאל,,32.552895,35.263853,04-6499379,סגור,סגור,סגור,סגור,סגור,סגור,סגור,,קופת חולים כללית
דבוריה,דבורייה,צפון,יזרעאל,דבוריה,32.693673,35.381713,04-8139425,8:00-20:00,8:00-14:00,8:00-14:00,8:00-14:00,8:00-14:00,8:00-13:00,סגור,,משרד הבריאות
דביר,דביר,דרום,באר שבע,ד.נ הנגב,31.411699,34.825177,08-9111222,סגור,סגור,סגור,סגור,סגור,סגור,סגור,,קופת חולים כללית
דור,דור,חיפה,חדרה,ד.נ חוף הכרמל,32.607802,34.923316,"04-6391254 ,04-6391254",סגור,סגור,סגור,סגור,סגור,סגור,סגור,,קופת חולים כללית
דורות,דורות,אשקלון,אשקלון,ד.נ חוף אשקלון,31.507207,34.645725,"08-6808844 ,08-6808844",14:00-15:00,14:00-15:00,14:00-15:00,סגור,14:00-15:00,סגור,סגור,,קופת חולים כללית
דיר חנא א,דייר חנא,צפון,עכו,דיר חנא,32.862139,35.369229,"04-6786829,04-6780616",8:00-16:00,8:00-18:00,8:00-16:00,8:00-16:00,8:00-16:00,סגור,סגור,,משרד הבריאות
דיר חנא ב,דייר חנא,צפון,עכו,דיר חנא,32.862139,35.369229,04-6783224,8:00-16:00,8:00-16:00,8:00-16:00,8:00-16:00,8:00-16:00,8:00-13:00,סגור,,משרד הבריאות
דימונה א',דימונה,דרום,באר שבע,שבעת המינים,31.065377,35.026881,08-6559381,8:00-20:00,8:00-16:00,8:00-16:00,8:00-16:00,8:00-16:00,סגור,סגור,,משרד הבריאות
דימונה ה',דימונה,דרום,באר שבע,הניצחון א',31.069419,35.033363,08-6553750,8:00-16:00,8:00-20:00,8:00-16:00,8:00-16:00,8:00-16:00,סגור,סגור,,משרד הבריאות
דיר אל אסד א,דיר אל אסד,צפון,עכו,דיר אל אסד,32.934785,35.269721,04-9881056,8:00-16:00,8:00-16:00,8:00-18:00,8:00-16:00,8:00-16:00,8:00-13:00,סגור,,משרד הבריאות
דיר אל אסד ב',דיר אל אסד,צפון,עכו,דיר אל אסד,32.934785,35.269721,04-9081248,8:00-16:00,8:00-16:00,8:00-16:00,8:00-16:00,8:00-16:00,סגור,סגור,,משרד הבריאות
דליה,דליה,צפון,יזרעאל,קיבוץ דליה,32.58925,35.076965,"04-9897555 ,04-9897555",8:00-13:30,8:00-13:30,8:00-13:30,14:30-19:00,8:00-13:30,סגור,סגור,,קופת חולים כללית
דן,דן,צפון,צפת,ד.נ גליל עליון,33.239637,35.653953,"04-6953039 ,04-6953839",סגור,סגור,15:30-18:30,סגור,סגור,8:00-14:00,סגור,,קופת חולים כללית
דפנה,דפנה,צפון,צפת,ד.נ גליל עליון,33.23075,35.638268,"04-6945701 ,04-6945781",סגור,סגור,סגור,סגור,סגור,9:00-12:00,סגור,,קופת חולים כללית
דריג'את,דריג'את,דרום,באר שבע,דריג'את,31.301885,35.076793,054-9191694,סגור,סגור,8:00-16:00,סגור,סגור,סגור,סגור,,משרד הבריאות
הגושרים,הגושרים,צפון,צפת,ד.נ גליל עליון,33.221485,35.623028,"04-6956278 ,04-6956278",סגור,סגור,סגור,8:30-14:30,סגור,סגור,סגור,,קופת חולים כללית
הוד השרון,הוד השרון,מרכז,פתח תקווה,הבנים 14,32.1557441,34.8911331,09-7469266,7:30-18:00,7:30-18:00,7:30-18:00,7:30-16:00,7:30-16:00,סגור,סגור,,משרד הבריאות
מגדיאל - הוד השרון,הוד השרון,מרכז,פתח תקווה,חנקין 14. הוד השרון,32.17027,34.901554,"09-7624600 ,09-7624600",7:00-13:00  16:30-19:30,7:00-12:00  16:30-19:30,7:00-14:00  16:30-19:30,7:00-13:00,7:00-13:00,סגור,סגור,,קופת חולים כללית
רמתיים ילדים,הוד השרון,מרכז,פתח תקווה,השחר 13. הוד השרון,32.17027,34.901554,"09-7620600 ,09-7620600",7:00-13:00  16:00-19:00,7:00-13:00,7:00-13:00  16:00-19:00,7:00-13:00  16:00-19:00,8:00-12:00,סגור,סגור,,קופת חולים כללית
הוד השרון,הוד השרון,מרכז,פתח תקווה,יהושע בן גמלא 25 א' הוד השרון,32.17027,34.901554,09-7619606,8:00-16:00,8:00-16:00,8:00-15:00,7:30-15:00,8:00-13:00,סגור,סגור,,קופת חולים מאוחדת
הודיה,הודיה,אשקלון,אשקלון,ד.נ שדה גת,31.676356,34.639275,08-6723635,סגור,סגור,סגור,8:00-11:00,סגור,סגור,סגור,,קופת חולים כללית
הושעיה,הושעיה,צפון,יזרעאל,,32.757927,35.295225,04-6452262,סגור,סגור,סגור,סגור,סגור,סגור,סגור,,קופת חולים כללית
הזורע,הזורע,צפון,יזרעאל,הזורע,32.6438645,35.1200231,04-9899100,סגור,16:00-18:00,סגור,סגור,סגור,7:30-10:30,סגור,,קופת חולים כללית
הזורעים,הזורעים,צפון,כנרת,ד.נ גליל תחתון,32.74814,35.499922,04-6793779,סגור,סגור,סגור,7:30-15:00,סגור,סגור,סגור,,קופת חולים כללית
החותרים,החותרים,חיפה,חדרה,ד.נ חוף הכרמל,32.752311,34.957545,04-8571610,סגור,סגור,סגור,סגור,סגור,סגור,סגור,,קופת חולים כללית
היוגב,היוגב,צפון,יזרעאל,,32.612753,35.207483,04-9893679,סגור,סגור,סגור,סגור,סגור,סגור,סגור,,קופת חולים כללית
המעפיל,המעפיל,מרכז,השרון,ד.נ עמק חפר,32.378035,34.983146,04-6367009,סגור,סגור,8:00-12:00,סגור,סגור,סגור,סגור,,קופת חולים כללית
הסוללים,הסוללים,צפון,יזרעאל,,32.751802,35.238022,04-6406511,סגור,סגור,סגור,סגור,סגור,סגור,סגור,,קופת חולים כללית
הר אדר,הר אדר,מרכז,רמלה,האלון 259,31.825121,35.133598,02-5706444,סגור,8:00-14:00,סגור,16:00-20:00,סגור,סגור,סגור,,קופת חולים כללית
הרצוג,הרצליה,תל אביב,תל אביב,רח' הרצוג 13,32.162413,34.844675,,סגור,סגור,סגור,סגור,7:30-11:30,סגור,סגור,,קופת חולים לאומית
הרצליה,הרצליה,תל אביב,תל אביב,סוקולוב 10,32.1669793,34.8398731,09-99721300,8:00-20:00,8:00-20:00,8:00-20:00,8:00-20:00,8:00-20:00,8:00-13:00,סגור,,מכבי שרותי בריאות
גוטפריד,הרצליה,תל אביב,תל אביב,טשרניחובסקי,32.169382,34.841322,09-9594555,סגור,סגור,סגור,סגור,סגור,סגור,סגור,,קופת חולים כללית
הנדיב,הרצליה,תל אביב,תל אביב,הנדיב 71,32.1708019,34.8314028,09-9735500,7:30-13:00 16:00-19:00,7:30-15:30,7:30-15:30,7:30-13:00 16:00-19:00,7:30-15:30,8:00-12:00,סגור,,קופת חולים כללית
הרצליה פיתוח,הרצליה,תל אביב,תל אביב,שאול המלך 3,32.1717687,34.8129966,09-9729800,7:30-12:00,סגור הילדים מופנים למרפאת הנדיב,9:00-12:30,9:00-12:30,סגור,סגור,סגור,,קופת חולים כללית
הרצליה,הרצליה,מרכז,מרכז,לנצ'ט 6 הרצליה,32.1654385,34.8419786,09-9706125,8:00-15:00,7:30:13:00  16:00-20:00,7:30-16:00,7:30:14:00  16:00-19:00,8:00-16:00,7:30-13:00,סגור,,קופת חולים מאוחדת
זבדיאל,זבדיאל,אשקלון,אשקלון,ד.נ שדה גת,31.65756,34.759336,"08-8580301 ,08-8580301",13:00-15:00,סגור,9:00-12:00,סגור,סגור,סגור,סגור,,קופת חולים כללית
זיקים,זיקים,אשקלון,אשקלון,ד.נ חוף אשקלון,31.607204,34.520968,"08-6746504 ,08-6746504",סגור,16:00-17:00,סגור,16:00-17:00,סגור,סגור,סגור,,קופת חולים כללית
זכרון מושבה.,זכרון יעקב,חיפה,חדרה,קדושי שואה 8,32.5730968,34.9494879,077-7292549,8:00-13:30,8:00-13:30,8:00-13:30,8:00-13:30,8:00-13:30,סגור,סגור,,משרד הבריאות
שכון דרום,זכרון יעקב,חיפה,חדרה,קיבוץ גלויות 4,32.5609858,34.9614314,04-6399158,8:00-13:30,8:00-13:30,8:00-13:30,8:00-13:30,8:00-13:30,סגור,סגור,ישובי חוף כרמל שאינם מבוטחים בכללית,משרד הבריאות
זלפה,זלפה,חיפה,חדרה,זלפה,32.549975,35.183497,077-7292549,8:00-15:30,8:00-15:30,8:00-15:30,8:00-15:30,8:00-15:30,סגור,סגור,סאלם,משרד הבריאות
זרזיר,זרזיר,צפון,יזרעאל,זרזיר,32.7280556,35.2130556,04-6515683,8:00-14:00,8:00-20:00,8:00-14:00,8:00-14:00,8:00-14:00,8:00-13:00,סגור,,משרד הבריאות
אולגה א',חדרה,חיפה,חדרה,הראשונים 5 גבעת אולגה,32.4431419,34.8868778,04-6337867,8:00-15:30,8:00-15:30,8:00-15:30,8:00-15:30,8:00-15:30,סגור,סגור,,משרד הבריאות
ביאליק,חדרה,חיפה,חדרה,ביאליק 33,32.4329244,34.916025,077-7501923,8:00-15:30,8:00-15:30,8:00-15:30,8:00-15:30,8:00-15:30,סגור,סגור,,משרד הבריאות
בית אליעזר ב,חדרה,חיפה,חדרה,הפרדס 7,32.422184,34.945188,077-2101152,8:00-13:30,8:00-13:30,8:00-13:30,8:00-13:30,8:00-13:30,סגור,סגור,,משרד הבריאות
גזית,חדרה,חיפה,חדרה,הנציב 28 שכ' גזית,32.437685,34.908037,077-9332283,8:00-15:30,8:00-15:30,8:00-15:30,8:00-15:30,8:00-15:30,סגור,סגור,,משרד הבריאות
נוה חיים,חדרה,חיפה,חדרה,אהרונוביץ 16 נוה חיים,32.448137,34.9065859,077-2031327,8:00-15:30,8:00-15:30,8:00-15:30,8:00-15:30,8:00-15:30,סגור,סגור,,משרד הבריאות
ששת הימים,חדרה,חיפה,חדרה,ששת הימים 20,32.4395784,34.916013,04-6341602,8:00-13:30,8:00-13:30,8:00-13:30,8:00-13:30,8:00-13:30,סגור,סגור,,משרד הבריאות
חואלד,חואלד,חיפה,חיפה,,32.758894,35.158374,050-6243052,סגור,סגור,סגור,סגור,סגור,סגור,סגור,איבטין ראס עלי,משרד הבריאות
שכון עממי,חולון,תל אביב,תל אביב,נחלת שלום 4,31.955364,34.763321,03-5049684,7:30-19:00,7:30-15:30,08:00-20:00,08:00-20:00,08:00-20:00,8:00-13:00,סגור,,משרד הבריאות
תל-גיבורים,חולון,תל אביב,תל אביב,חזית 5,32.0314796,34.7620797,03-5048560,7:30-19:00,7:30-15:30,8:00-16:00,8:00-16:00,8:00-16:00,8:00-13:00,סגור,,משרד הבריאות
רסקו,חולון,תל אביב,תל אביב,עקיבא 4,32.0146524,34.7879913,03-5586873,7:30-15:30,7:30-15:30,8:00-16:00,8:00-16:00,8:00-16:00,8:00-13:00,סגור,,משרד הבריאות
קרית שרת,חולון,תל אביב,תל אביב,הר הצופים 6,32.0078425,34.7931666,03-5586872,7:30-19:00,7:30-15:30,8:00-20:00,8:00-20:00,8:00-20:00,8:00-13:00,סגור,,משרד הבריאות
נווה רמז,חולון,תל אביב,תל אביב,ביאליק 165/166,32.0083512,34.7709408,03-6510398,סגור,סגור,8:00-16:00,8:00-16:00,8:00-16:00,8:00-13:00,סגור,,משרד הבריאות
נאות רחל,חולון,תל אביב,תל אביב,אורים 7,32.0196548,34.7625057,03-6510397,סגור,סגור,סגור,סגור,סגור,סגור,סגור,,משרד הבריאות
יוטבתה,חולון,תל אביב,תל אביב,יוטבתה 9 /א,32.0087117,34.7622775,03-6510396,7:30-19:00,7:30-15:30,8:00-16:00,8:00-16:00,8:00-16:00,8:00-13:00,סגור,,משרד הבריאות
הצפירה,חולון,תל אביב,תל אביב,יא באדר 2,32.0222567,34.7708613,03-6510592,סגור,סגור,סגור,סגור,סגור,סגור,סגור,,משרד הבריאות
נווה ארזים,חולון,תל אביב,תל אביב,הנביאים 30,32.0159789,34.791377,03-5586867,7:30-19:00,7:30-15:30,8:00-16:00,8:00-16:00,8:00-16:00,8:00-13:00,סגור,,משרד הבריאות
בר-לב,חולון,תל אביב,תל אביב,משעול יהלום 6,32.015833,34.787384,03-5540591,8:00-16:00,8:00-16:00,8:00-20:00,8:00-20:00,8:00-20:00,8:00-13:00,סגור,,משרד הבריאות
חוסניה,חוסנייה,צפון,עכו,חוסניה,32.900573,35.322507,050-6242575,סגור,סגור,סגור,סגור,8:00-16:00,סגור,סגור,,משרד הבריאות
חורה א',חורה,דרום,באר שבע,מרכז חורה,31.300399,34.935688,08-6518645,8:00-20:00,8:00-16:00,8:00-16:00,8:00-16:00,8:00-16:00,סגור,סגור,,משרד הבריאות
חורה ב',חורה,דרום,באר שבע,חורה,31.284482,34.931704,08-6510980,8:00-16:00,סגור,8:00-16:00,סגור,8:00-16:00,סגור,סגור,,משרד הבריאות
חורה,חורה,דרום,באר שבע,שכונה 10,31.302478,34.948583,,סגור,8:00-12:00 שלוש פעמים בחודש,סגור,סגור,סגור,סגור,סגור,,קופת חולים לאומית
חורפיש א,חורפיש,צפון,עכו,חורפיש,33.018769,35.349138,04-9979950,8:00-18:00,8:00-16:00,12:00-16:00,8:00-16:00,8:00-16:00,סגור,סגור,,משרד הבריאות
חורפיש ב,חורפיש,צפון,עכו,חורפיש,33.018769,35.349138,04-9971555,סגור,סגור,סגור,סגור,סגור,סגור,סגור,,משרד הבריאות
חיספין,חיספין,צפון,כנרת,"חספין,ד.נ רמת הגולן",32.845057,35.788748,"04-6763170 ,04-6646600",8:00-14:00,8:00-14:0016:30-19:30,8:00-13:0015:00-18:00,8:00-14:00,סגור,סגור,סגור,,קופת חולים כללית
ק. אליעזר,חיפה,חיפה,חיפה,רח' המעפילים 1,32.830361,34.974338,077-7570962,8:00-20:00,8:00-15:00,8:00-15:00,8:00-20:00,8:00-20:00,8:00-12:30,סגור,,משרד הבריאות
בת גלים,חיפה,חיפה,חיפה,רח' שרל לוץ 26,32.830361,34.974338,077-3441214,סגור,8:00-15:00,8:00-15:00,סגור,סגור,סגור,סגור,השירות מתקבל בתחנת קרית אליעזר,משרד הבריאות
מרגלית,חיפה,חיפה,חיפה,רח' מרגלית 1,32.830361,34.974338,077-3245139,8:00-13:00,8:00-20:00,8:00-13:00,8:00-20:00,8:00-20:00,סגור,סגור,,משרד הבריאות
חנה סנש,חיפה,חיפה,חיפה,רח' חנה סנש 45,32.830361,34.974338,077-3380585,8:00-13:30,8:00-13:30,8:00-13:30,סגור,סגור,סגור,סגור,"מופנים לתחנת גרנד קניון, רח' שמחה גולן 54",משרד הבריאות
רוממה,חיפה,חיפה,חיפה,רח' השקמה 29,32.830361,34.974338,04-8256140,8:00-14:00,8:00-14:00,8:00-14:00,סגור,סגור,סגור,סגור,מופנים לתחנת הגרנד קניון,משרד הבריאות
גרנד קניון,חיפה,חיפה,חיפה,שמחה גולן 54,32.7882483,35.012165,077-7878625,8:00-15:00,8:00-15:00,8:00-15:00,8:00-20:00,8:00-20:00,8:00-12:00,סגור,,משרד הבריאות
חליסה,חיפה,חיפה,חיפה,הירדן 19,32.8014777,35.0089448,077-3238322,8:00-15:00,8:00-15:00,8:00-15:00,8:00-15:00,8:00-15:00,8:00-12:00,סגור,,משרד הבריאות
ארלוזרוב,חיפה,חיפה,חיפה,ארלוזורוב 92,32.8081022,34.9932574,04-8623110,8:00-14:00,8:00-14:00,8:00-14:00,סגור,סגור,סגור,סגור,מופנים לשילוח ולנביאים,משרד הבריאות
מימון,חיפה,חיפה,חיפה,רח' מימון 31,32.830361,34.974338,077-3224721,8:00-16:00,8:00-16:00,8:00-16:00,8:00-20:00,8:00-15:00,8:00-12:30,סגור,,משרד הבריאות
אדמונד פלג,חיפה,חיפה,חיפה,רח' אדמונד פלג 16,32.830361,34.974338,077-2019181,8:00-15:00,8:00-15:00,8:00-15:00,8:00-20:00,8:00-16:00,8:00-12:30,סגור,,משרד הבריאות
יזרעאליה,חיפה,חיפה,חיפה,רח' אבא הילל סילבר 8,32.830361,34.974338,04-8233777,8:00-14:00,8:00-14:00,8:00-14:00,סגור,סגור,סגור,סגור,מופנים לתחנת השילוח ומימון,משרד הבריאות
שילוח,חיפה,חיפה,חיפה,רח' השילוח 35,32.830361,34.974338,077-9616496,8:00-15:00,8:00-15:00,8:00-15:00,8:00-20:00,8:00-20:00,סגור,סגור,,משרד הבריאות
נווה דוד,חיפה,חיפה,חיפה,רח' המלך אסא 4,32.830361,34.974338,077-9610225,8:00-13:30,8:00-13:30,8:00-13:30,7:30-15:00,סגור,סגור,סגור,,משרד הבריאות
חלץ,חלץ,אשקלון,אשקלון,ד.נ חוף אשקלון,31.57794,34.658391,08-6892798,11:30-13:30,סגור,סגור,10:00-12:30,סגור,סגור,סגור,,קופת חולים כללית
ואדי חמאם,חמאם,צפון,כנרת,ואדי חמאם,32.828069,35.490871,04-6724745,סגור,סגור,8:00-20:00,סגור,סגור,סגור,סגור,,משרד הבריאות
חניתה,חניתה,צפון,עכו,חניתה,33.086814,35.173158,04-9859688,סגור,סגור,סגור,סגור,14:30-16:00,סגור,סגור,,קופת חולים כללית
חפציבה,חפציבה,צפון,יזרעאל,ד.נ גלבוע,32.518729,35.426247,04-6534100,סגור,סגור,סגור,סגור,סגור,סגור,סגור,,קופת חולים כללית
חצור ב',חצור הגלילית,צפון,צפת,רח' הנשיא,32.980382,35.543548,04-6937375,8:00-15:30,8:00-16:00,8:00-20:00,8:00-16:00,סגור,סגור,סגור,,משרד הבריאות
חצור ד',חצור הגלילית,צפון,צפת,קריה חסידית,32.983925,35.545827,04-6938158,8:00-16:00,8:00-16:00,8:00-20:00,סגור,8:00-16:00,סגור,סגור,,משרד הבריאות
חצרים,חצרים,דרום,באר שבע,ד.נ הנגב,31.240603,34.717427,08-6473339,סגור,סגור,סגור,סגור,סגור,סגור,סגור,,קופת חולים כללית
טבריה תחנה א',טבריה,צפון,כנרת,רח' המגינים,32.795859,35.530973,04-6724357,8:00-18:00,8:00-20:00,8:00-20:00,8:00-16:00,8:00-20:00,8:00-13:00,סגור,,משרד הבריאות
טבריה תחנה ב',טבריה,צפון,כנרת,רח' ארליך,32.795859,35.530973,04-6720726,8:00-20:00,8:00-20:00,8:00-15:00,8:00-17:30,8:00-18:00,8:00-13:00,סגור,,משרד הבריאות
טבריה תחנה ג',טבריה,צפון,כנרת,קרית משה ג',32.775392,35.513858,04-6720831,8:00-14:00,סגור,8:00-20:00,סגור,8:00-14:00,סגור,סגור,,משרד הבריאות
טבריה תחנה ד',טבריה,צפון,כנרת,שדרות אלנטאון + 200,32.786023,35.517294,04-6796183,8:00-16:00,8:00-16:00,8:00-16:00,8:00-16:00,8:00-16:00,8:00-13:00,סגור,,משרד הבריאות
טבריה תחנה ו',טבריה,צפון,כנרת,רח' אבוחצירה ש.ד',32.795859,35.530973,04-6796182,8:00-15:00,סגור,7:30-15:00,7:30-17:00,7:30-18:30,8:00-13:00,סגור,,משרד הבריאות
טבריה תחנה ז',טבריה,צפון,כנרת,רמת אגוז ש.ד',32.795859,35.530973,04-6796202,8:00-18:00,8:00-17:00,8:00-17:00,8:00-15:00,8:00-18:30,8:00-13:00,סגור,,משרד הבריאות
טובא,טובא,צפון,צפת,טובא,32.96965,35.594407,04-6800924,8:00-20:00,8:00-16:00,סגור,8:00-16:00,8:00-16:00,8:00-13:00,סגור,,משרד הבריאות
טורעאן א',טורעאן,צפון,נצרת,טורעאן,32.776852,35.371433,04-6517808,8:00-14:00,8:00-14:00,8:00-14:00,8:00-19:00,8:00-14:00,8:00-13:00,סגור,,משרד הבריאות
טורעאן ב',טורעאן,צפון,נצרת,טורעאן,32.776852,35.371433,04-6411451,8:00-14:00,8:00-14:00,8:00-14:00,8:00-14:00,8:00-14:00,סגורה,סגור,,משרד הבריאות
טייבה א',טייבה,מרכז,השרון,טייבה,32.603882,35.443679,09-7991003,8:00-20:00,8:00-20:00,8:00-16:00,8:00-20:00,8:00-16:00,8:00-12:00,סגור,,משרד הבריאות
טייבה ב',טייבה,מרכז,השרון,טייבה,32.603882,35.443679,09-7993062,8:00-20:00,8:00-16:00,8:00-20:00,8:00-16:00,8:00-19:00,8:00-12:00,סגור,,משרד הבריאות
טייבה ד',טייבה,מרכז,השרון,טייבה,32.603882,35.443679,09-7991971,8:00-16:00,8:00-20:00,8:00-20:00,8:00-16:00,8:00-16:00,8:00-12:00,סגור,,משרד הבריאות
טירה,טירה,מרכז,מרכז,רח' המוביל הארצי 2082,32.235466,34.950506,,סגור,סגור,סגור,סגור,סגור,8:00-14:00,סגור,,קופת חולים לאומית
טירה,טירה,מרכז,השרון,המוביל 20,32.236176,34.944207,09-7909300,8:00-12:30,8:00-12:30,סגור,8:00-12:30 16:00-18:00,8:00-12:30,סגור,סגור,,מכבי שרותי בריאות
טירה מרכז,טירה,מרכז,השרון,טירה,32.227365,34.941904,09-7931200,7:30-13:30  16:00-18:30,7:30-13:30,7:30-13:30   16:00-18:30,7:30-13:30,7:30-13:30  16:00-18:30,סגור,סגור,,קופת חולים כללית
טירה צפון,טירה,מרכז,השרון,טירה,32.227365,34.941904,"09-7930906 ,09-7930906",8:00-13:00  16:00-18:30,8:00-13:00,8:00-13:00,8:00-13:00,8:00-13:00,סגור,סגור,,קופת חולים כללית
טירת יהודה,טירת יהודה,מרכז,פתח תקווה,טירת יהודה,32.014449,34.938293,03-9721152,סגור,סגור,סגור,סגור,סגור,סגור,סגור,,קופת חולים כללית
טירה עמידר,טירת כרמל,חיפה,חיפה,רח'הרב ווינרוב 26,32.762127,34.97298,04-8571703,8:00-15:00,8:00-15:00,8:00-15:00,8:00-15:00,8:00-15:00,סגור,סגור,ישובי חוף הכרמל,משרד הבריאות
טירה בן צבי,טירת כרמל,חיפה,חיפה,רח' בן צבי 22,32.7522803,34.9719306,04-8573068,8:00-14:00,8:00-14:00,8:00-14:00,8:00-15:00,8:00-15:00,סגור,סגור,ישובי חוף הכרמל,משרד הבריאות
טירת צבי,טירת צבי,צפון,יזרעאל,ד.נ בית שאן,32.489356,35.500656,04-6078923,סגור,סגור,סגור,סגור,סגור,סגור,סגור,,קופת חולים כללית
טל שחר,טל שחר,מרכז,רחובות,ד.נ עמק שורק,31.804404,34.903272,08-9348770,סגור,סגור,סגור,14:45-17:30,סגור,סגור,סגור,,קופת חולים כללית
טמרה א+ה,טמרה,צפון,עכו,טמרה,32.633154,35.401491,04-9943139,8:00-16:00,8:00-18:00,8:00-16:00,8:00-16:00,8:00-16:00,סגור,סגור,,משרד הבריאות
טמרה ב,טמרה,צפון,עכו,טמרה,32.633154,35.401491,04-9946760,8:00-16:00,8:00-16:00,8:00-16:00,8:00-16:00,8:00-16:00,סגור,סגור,,משרד הבריאות
טמרה ג,טמרה,צפון,עכו,טמרה,32.633154,35.401491,04-9948759,8:00-16:00,8:00-16:00,8:00-16:00,8:00-18:00,8:00-16:00,סגור,סגור,,משרד הבריאות
טמרה ד,טמרה,צפון,עכו,טמרה,32.633154,35.401491,04-9947324,8:00-16:00,8:00-16:00,8:00-16:00,8:00-16:00,8:00-16:00,8:00-16:00,סגור,,משרד הבריאות
טמרה ו,טמרה,צפון,עכו,טמרה,32.633154,35.401491,04-9941242,8:00-16:00,8:00-16:00,8:00-16:00,8:00-16:00,8:00-16:00,סגור,סגור,,משרד הבריאות
טמרה,טמרה (יזרעאל),צפון,יזרעאל,טמרה,32.634918,35.402699,04-6620114,סגור,סגור,8:00-20:00,סגור,8:00-14:00,סגור,סגור,,משרד הבריאות
יאנוח,יאנוח,צפון,עכו,יאנוח,32.984019,35.254788,04-9976560,סגור,8:00-18:00,8:00-16:00,8:00-16:00,סגור,8:00-12:00,סגור,,משרד הבריאות
יבניאל,יבנאל,צפון,כנרת,יבניאל ת.ד 117,32.708416,35.503178,04-6780740,8:00-15:00,8:00-20:00,8:00-15:00,8:00-18:00,8:00-15:00,8:00-13:00,סגור,,משרד הבריאות
יבנה,יבנה,מרכז,רחובות,שדרות דואני 16,31.8740209,34.7384891,,סגור,סגור,8:00-13:00,סגור,8:00-13:00,סגור,סגור,,קופת חולים לאומית
יבנה,יבנה,מרכז,רחובות,גבורי החייל 1,31.8685812,34.7426728,08-9424050,8:00-18:30,8:00-14:00,8:00-14:00,8:00-18:30,8:00-14:00,סגור,סגור,,מכבי שרותי בריאות
הדקל,יבנה,מרכז,רחובות,דקל 6,31.8752759,34.7385868,08-9437528,12:00-19:00,8:00-14:00,9:00-14:00,16:00-19:00,8:00-14:00,סגור,סגור,,קופת חולים כללית
נאות אשכול,יבנה,מרכז,רחובות,אבוחצירה 1,31.877958,34.739449,08-9436565,8:00-14:00,7:00-15:00,12:00-19:00,7:00-14:00,12:00-19:00,סגור,סגור,,קופת חולים כללית
קבוצת יבנה,יבנה,מרכז,רחובות,ד.נ אבטח,31.877958,34.739449,08-8548300,סגור,סגור,9:00-13:00,סגור,סגור,סגור,סגור,,קופת חולים כללית
יגור,יגור,חיפה,חיפה,יגור,32.741062,35.078664,04-9848119,8:00-12:00,8:00-12:00,7:30-13:00,סגור,8:00-12:00,סגור,סגור,,קופת חולים כללית
יד מרדכי,יד מרדכי,אשקלון,אשקלון,ד.נ חוף אשקלון,31.586963,34.5575,08-6720507,סגור,סגור,סגור,13:00-15:00,סגור,סגור,סגור,,קופת חולים כללית
יהוד,יהוד,מרכז,פתח תקווה,הרצל 24 יהוד,32.0347462,34.8860139,03-5365626,8:00-16:30,8:00-20:00,8:00-16:00,8:00-20:00,8:00-20:00,8:00-12:00,סגור,,קופת חולים מאוחדת
יהוד,יהוד,מרכז,פתח תקווה,צבי ישי 19. יהוד,32.0324116,34.8905336,"03-5395300 ,03-5395300",7:00-13:0016:00-19:00,7:30-15:00,12:00-19:00,7:30-13:30,7:30-15:00,סגור,סגור,,קופת חולים כללית
קרית סביונים,יהוד,מרכז,פתח תקווה,הוחרש 4 יהוד,32.0353094,34.877471,03-5392300,9:30-12:0015:30-20:00,9:30-12:00,סגור,7:00-12:0015:30-20:00,9:30- 12:00,8:00-12:00,סגור,,קופת חולים כללית
יונתן,יונתן,צפון,כנרת,ד.נ רמת הגולן,32.93966,35.795468,04-6960356,סגור,סגור,סגור,סגור,סגור,8:00-12:00,סגור,,קופת חולים כללית
יוקנעם,יוקנעם,צפון,צפון,הרדופים 20 יוקנעם,32.6496354,35.0958536,,סגור,10:00-15:30,10:00-15:30,8:00-16:00,10:00-15:30,סגור,סגור,,קופת חולים לאומית
יוקנעם,יוקנעם,צפון,צפון,שדרות רבין 9,32.646539,35.094443,04-9936100,8:00-18:30,8:00-18:30,8:00-12:0016:00-18:30,8:00-12:0016:00-18:00,8:00-12:0016:00-18:30,סגור,סגור,,מכבי שרותי בריאות
יחיעם,יחיעם,צפון,עכו,ד.נ מעלה הגליל,32.996109,35.221091,04-9856000,7:30-14:00,8:00-14:00,8:00-12:00,8:00-14:00,8:00-14:00,סגור,סגור,,קופת חולים כללית
ימה,ימה,מרכז,השרון,ימה,32.369407,35.030627,09-8743303,8:00-17:00,8:00-20:00,8:00-20:00,8:00-16:00,8:00-16:00,8:00-12:00,סגור,מ.א.זמר,משרד הבריאות
יסוד המעלה,יסוד המעלה,צפון,צפת,יסוד המעלה,33.046743,35.572112,04-6937439,8:00-16:00,8:00-16:00,סגור,8:00-18:00,8:00-16:00,סגור,סגור,,משרד הבריאות
יסעור,יסעור,צפון,עכו,ד.נ משגב,32.901145,35.166641,04-9960222,סגור,סגור,סגור,סגור,סגור,סגור,סגור,,קופת חולים כללית
יפיע א',יפיע,צפון,נצרת,יפיע,32.685898,35.277373,04-6011847,סגור,7:30-15:30,7:30-15:30,7:30-15:30,8:00-19:00,7:30-15:30,סגור,,משרד הבריאות
יפיע ב',יפיע,צפון,נצרת,יפיע,32.685898,35.277373,04-6010959,8:00-14:00,8:00-14:00,8:00-14:00,8:00-14:00,8:00-14:00,סגור,סגור,,משרד הבריאות
יפעת,יפעת,צפון,יזרעאל,ד.נ עמק יזרעאל,32.675853,35.223982,04-6548983,סגור,סגור,סגור,סגור,סגור,סגור,סגור,,קופת חולים כללית
יפתח,יפתח,צפון,צפת,ד.נ גליל עליון,33.128346,35.55203,04-6952612,13:30-17:00,סגור,סגור,סגור,סגור,סגור,סגור,,קופת חולים כללית
יקנעם עלית,יקנעם עלית,צפון,יזרעאל,הנוריות 2,32.6584749,35.1091214,04-9090300,14:00-18:00,14:00-18:00,9:00-16:00,סגור,14:00-19:00,סגור,סגור,,קופת חולים כללית
יראון,יראון,צפון,צפת,ד.נ מרום הגליל,33.077239,35.454291,"04-6868312 ,04-6868313",10:00-11:00,10:00-11:00,10:00-11:00,סגור,סגור,סגור,סגור,,קופת חולים כללית
ירוחם,ירוחם,דרום,באר שבע,צבי בורנשטיין,30.987806,34.928828,02-6580161,8:00-16:00,8:00-20:00,8:00-16:00,8:00-16:00,8:00-16:00,סגור,סגור,,משרד הבריאות
בני ברית,ירושלים,ירושלים,ירושלים,בני ברית – 22,31.7860391,35.2193862,02-5716939,8:00-13:00,8:00-17:00,8:00-13:00,8:00-13:00,8:00-13:00,סגור,סגור,,עיריית ירושלים
מחנה יהודה,ירושלים,ירושלים,ירושלים,אבישר 15,31.7857993,35.2107269,02-5456384,8:00-17:00,8:00-13:00,8:00-13:00,8:00-17:00,8:00-13:00,סגור,סגור,,עיריית ירושלים
בקעה,ירושלים,ירושלים,ירושלים,יהודה 26,31.7575586,35.2180142,02-5337498,8:00-17:00,8:00-17:00,8:00-17:00,8:00-13:00,8:00-13:00,8:00-12:00,סגור,,עיריית ירושלים
מעלות דפנה,ירושלים,ירושלים,ירושלים,קרל נטר  42,31.7947762,35.2248108,02-5812463,8:00-17:00,8:00-17:00,8:00-13:00,8:00-13:00,8:00-13:00,8:00-12:00,סגור,,עיריית ירושלים
פ. זאב מערב,ירושלים,ירושלים,ירושלים,שד' משה דיין 152,31.768319,35.21371,02-5456457,8:00-17:00,8:00-17:00,8:00-13:00,8:00-13:00,8:00-13:00,סגור,סגור,,עיריית ירושלים
שכונת  פת,ירושלים,ירושלים,ירושלים,ברל לוקר 17,31.7501004,35.2011402,02-5730244,8:00-17:00,8:00-13:00,8:00-13:00,8:00-13:00,8:00-13:00,סגור,סגור,,עיריית ירושלים
גוננים,ירושלים,ירושלים,ירושלים,אלעזר הגדול  4,31.7545171,35.2054759,02-5456670,8:00-17:00,8:00-17:00,8:00-13:00,8:00-13:00,8:00-13:00,סגור,סגור,,עיריית ירושלים
עיר גנים,ירושלים,ירושלים,ירושלים,ר. דומיניקנית 4,31.768319,35.21371,02-5798572,סגור,סגור,סגור,8:00-13:00,8:00-13:00,סגור,סגור,,עיריית ירושלים
רוממה,ירושלים,ירושלים,ירושלים,זיכרון יעקב 6,31.7956855,35.2004487,02-5372067,8:00-13:00,8:00-13:00,8:00-13:00,8:00-13:00,8:00-13:00,סגור,סגור,,עיריית ירושלים
הרובע היהודי,ירושלים,ירושלים,ירושלים,הרובע היהודי,31.776314,35.233289,02-5343027,סגור,סגור,סגור,סגור,סגור,סגור,סגור,,עיריית ירושלים
בית הכרם,ירושלים,ירושלים,ירושלים,התומר 4,31.7798427,35.1863894,02-6582111,8:00-13:00,8:00-13:00,8:00-13:00,8:00-17:00,8:00-13:00,סגור,סגור,,עיריית ירושלים
בית  וגן,ירושלים,ירושלים,ירושלים,הפסגה  42,31.7665236,35.1838172,"02-5370557 , 02-5713236",8:00-13:00,8:00-17:00,8:00-13:00,8:00-17:00,8:00-13:00,סגור,סגור,,עיריית ירושלים
רמות  03,ירושלים,ירושלים,ירושלים,אידלסון  325/32,31.768319,35.21371,02-5484888,סגור,סגור,סגור,סגור,סגור,סגור,סגור,,עיריית ירושלים
קרית יובל,ירושלים,ירושלים,ירושלים,גואטמלה  20,31.7559041,35.1784206,02-5712769,8:00-13:00,8:00-13:00,8:00-17:00,8:00-13:00,8:00-13:00,8:00-12:00,סגור,,עיריית ירושלים
רמת אשכול,ירושלים,ירושלים,ירושלים,ככר זלמן ארן,31.768319,35.21371,02-5456263,8:00-13:00,8:00-13:00,8:00-13:00,8:00-13:00,8:00-13:00,סגור,סגור,,עיריית ירושלים
נוה יעקב,ירושלים,ירושלים,ירושלים,לאה גולדברג 3,31.8419433,35.2406546,02-5833625,8:00-13:00,8:00-13:00,8:00-17:00,8:00-17:00,8:00-13:00,סגור,סגור,,עיריית ירושלים
גילה  א',ירושלים,ירושלים,ירושלים,המור 3,31.7338971,35.1998105,02-6465111,8:00-17:00,8:00-13:00,8:00-17:00,8:00-13:00,8:00-13:00,סגור,סגור,,עיריית ירושלים
תלפיות מזרח,ירושלים,ירושלים,ירושלים,יעקב וייס 4,31.7500586,35.238738,02-6716575,8:00-17:00,8:00-17:00,8:00-17:00,8:00-17:00,8:00-13:00,סגור,סגור,,עיריית ירושלים
קרית הילד,ירושלים,ירושלים,ירושלים,סורוצקין 40,31.7989753,35.2064096,02-5793345,8:00-17:00,8:00-13:00,8:00-17:00,8:00-13:00,8:00-13:00,סגור,סגור,,עיריית ירושלים
צור באחר,ירושלים,ירושלים,ירושלים,עלי אבו אחמד 71,31.768319,35.21371,02-6733912,8:00-13:00,8:00-13:00,8:00-17:00,8:00-17:00,8:00-13:00,סגור,סגור,שבת 8:00-15:00,עיריית ירושלים
סנהדריה,ירושלים,ירושלים,ירושלים,ס. מורחבת- 102,31.768319,35.21371,02-5321837,8:00-17:00,8:00-13:00,8:00-13:00,8:00-13:00,8:00-13:00,סגור,סגור,,עיריית ירושלים
רמות  01,ירושלים,ירושלים,ירושלים,צפרירים 18,31.8191493,35.1995991,02-5456426,8:00-13:00,8:00-13:00,8:00-17:00,8:00-13:00,8:00-13:00,סגור,סגור,,עיריית ירושלים
גבעת שאול,ירושלים,ירושלים,ירושלים,עמרם גאון 7,31.7907632,35.1928461,02-6549444,8:00-13:00,8:00-13:00,8:00-17:00,8:00-17:00,8:00-13:00,סגור,סגור,,עיריית ירושלים
שועאפט,ירושלים,ירושלים,ירושלים,כביש ראשי,31.768319,35.21371,02-5327768,8:00-13:00,8:00-17:00,8:00-17:00,8:00-17:00,8:00-17:00,סגור,סגור,שבת 8:00-15:00,עיריית ירושלים
רמת שלמה,ירושלים,ירושלים,ירושלים,חזון איש 33,31.8084221,35.220135,02-5489555,8:00-13:00,8:00-13:00,8:00-13:00,8:00-13:00,8:00-13:00,סגור,סגור,,עיריית ירושלים
